{"type":"Topology","arcs":[[[51309,9827],[0,0],[90,-18],[118,0],[179,0],[142,-2]],[[51838,9807],[13,-35],[16,-133],[43,-119],[-87,-68],[-37,-15],[-38,-1],[-88,26],[-51,84],[-146,95],[-61,94],[-93,92]],[[50954,9816],[0,0],[-30,-23],[-71,-72],[-25,-16],[-28,4],[-350,137],[2,-13],[8,-33],[6,-15],[20,-20],[24,-8],[20,-13],[9,-31],[-11,-14],[-18,-31],[-1,-32],[38,-15],[54,-4],[51,-13],[41,-24],[23,-38],[-19,-42],[0,-28],[28,-13],[26,11],[28,20],[28,13],[26,-14],[243,-273],[36,-30],[88,-20],[44,-23],[28,-33],[-2,-37],[-41,-33],[-57,-8],[-59,16],[-97,76],[-54,21],[-121,9],[0,-20],[74,-7],[71,-37],[64,-53],[50,-54],[35,-17],[41,7],[41,14],[35,7],[21,-10],[76,-54],[16,-29],[135,-153],[13,-35],[2,-25],[-16,-14],[-42,-6],[-152,19],[33,-45],[51,-34],[111,-42],[106,-23],[30,-25],[-8,-53],[-24,-26],[-76,-48],[-28,-29],[-41,-75],[-33,-20],[-255,-27],[-57,13],[-106,55],[-50,13],[-57,26],[-34,62],[-24,71],[-41,80],[-8,33],[-5,65],[-11,20],[-27,19],[-52,30],[29,-62],[6,-19],[25,-171],[20,-43],[36,-53],[26,-73],[2,-73],[-38,-54],[-40,3],[-112,62],[-53,16],[-334,-4],[-215,42],[-336,-5],[-90,-41],[-66,-111],[61,41],[76,25],[81,12],[143,1],[78,-14],[45,-39],[-29,-78],[-14,-65],[27,-77],[45,-70],[39,-43],[27,-14],[98,-27],[36,-22],[19,-25],[35,-74],[51,31],[76,6],[80,-12],[59,-25],[21,-5],[16,4],[12,-3],[4,-26],[0,-81],[-4,-40],[-12,-36],[-20,-26],[-26,-10],[-26,-14],[-23,-31],[-30,-58],[-18,-18],[-24,-20],[-21,-24],[-9,-28],[-8,-121],[-9,-31],[-39,-41],[-29,5],[-56,58],[-79,34],[-20,4],[-24,-8],[-1,-23],[9,-29],[6,-30],[30,-33],[185,-120],[46,-16],[51,-6],[106,0],[60,-12],[10,-32],[-9,-45],[2,-50],[69,-80],[100,-8],[113,10],[110,-25],[29,-23],[10,-19],[6,-20],[18,-29],[11,-31],[-13,-30],[-25,-22],[-27,-8],[-22,-21],[-67,-95],[-26,-28],[40,-13],[55,5],[54,17],[37,22],[49,10],[52,-34],[33,-45],[-8,-23],[-46,-10],[-96,-51],[-46,-18],[-179,-22],[0,-20],[61,1],[189,-41],[250,-21],[-29,-44],[-54,-23],[-60,-17],[-44,-27],[-97,-80],[-19,-34],[35,-39],[105,-39],[106,-15],[98,-28],[83,-78],[21,-48],[11,-56],[12,-196],[17,-57],[23,-49],[26,-41],[106,-103],[38,-63],[253,-252],[23,-30],[31,-65],[18,-26],[45,-129],[34,-54],[20,52],[49,-43],[48,-87],[36,-99],[9,-78],[-21,-47],[-87,-124],[-34,-33],[-180,-50],[-52,-29],[-37,-57],[-5,-58],[-11,-57],[-52,-53],[-1,-38],[-83,6],[-147,32],[47,-54],[98,-59],[48,-54],[-106,-35],[-89,-6],[-88,6],[-96,24],[-36,-4],[24,-40],[38,-19],[99,-11],[42,-12],[33,-34],[32,-42],[30,-24],[30,21],[16,0],[4,-128],[-7,-67],[-22,-30],[-18,-16],[2,-34],[13,-35],[21,-16],[27,4],[8,6],[5,-4],[21,-26],[24,-49],[23,-61],[31,-52],[54,-22],[53,-10],[41,-22],[36,-27],[41,-22],[63,2],[30,-6],[12,-25],[-4,-37],[-6,-29],[2,-26],[18,-30],[187,-233],[152,-68],[224,-205],[104,-61],[108,-25],[44,-32],[63,-76],[59,-16],[22,-18],[-18,-38],[-38,-33],[-10,-22],[13,-27],[26,-13],[61,-1],[28,-15],[5,-21],[8,-74],[6,-26],[18,0],[34,22],[41,-19],[83,-63],[31,-11],[120,-10],[81,-47],[161,-210],[98,-48],[42,-31],[65,-72],[58,-82],[21,-60],[-10,-13],[-18,-4],[-17,-9],[-8,-26],[88,-42],[28,-30],[45,-59],[80,-183],[36,-5],[19,-1],[25,6],[18,14],[31,37],[24,10],[47,-8],[134,-55],[41,-28],[12,-31],[-7,-33],[-10,-35],[-4,-32],[8,-14],[15,-12],[12,-20],[2,-35],[-23,-41],[-84,-80],[-37,-68],[-43,-31],[-195,-99],[-35,-35],[-10,-30],[-1323,0],[-15,18],[-42,18],[-335,48],[-153,53],[-84,46],[-72,60],[-63,78],[-42,87],[-60,197],[-42,82],[-35,28],[-102,59],[-21,25],[-12,25],[-28,0],[-30,-15],[-20,-19],[-8,-27],[5,-28],[22,-48],[84,-118],[11,-22],[97,-143],[12,-50],[13,-119],[21,-45],[8,-12],[19,-39],[6,-5],[22,-12],[7,-5],[21,-40],[15,-41],[7,-36],[-23825,0],[23,26],[43,37],[34,15],[51,8],[40,24],[32,38],[30,52],[40,124],[-1,117],[-139,429],[-7,70],[22,41],[51,18],[105,12],[104,33],[196,88],[90,65],[41,41],[149,210],[32,69],[40,62],[59,44],[0,20],[-67,9],[-34,-46],[-26,-57],[-42,-29],[-34,-31],[-60,-140],[-31,-31],[-10,-16],[-12,-36],[-19,-35],[-30,-16],[-31,-7],[-24,-17],[-43,-37],[-57,-20],[-140,-15],[-69,-26],[12,94],[41,79],[89,133],[36,99],[17,93],[0,341],[32,104],[59,79],[408,319],[51,76],[81,174],[45,76],[47,58],[8,12],[3,7],[6,6],[6,10],[3,17],[-6,10],[-13,3],[-12,-3],[-6,-10],[-125,-110],[7,52],[28,33],[37,30],[37,47],[17,51],[3,52],[-4,99],[16,102],[47,38],[169,22],[357,103],[46,21],[36,29],[31,40],[79,157],[26,28]],[[30361,3664],[-48,-159],[-69,-138],[-39,-66],[-28,-36],[-95,-92],[-22,-37],[-2,-45],[16,-107],[-1,-22],[1,-22],[13,-37],[18,-36],[23,-36],[30,-29],[34,-13],[114,-1],[46,-20],[14,-57],[-17,-233],[3,-136],[14,-58],[28,-61],[50,-72],[232,-226],[18,-32],[6,-82],[16,-5],[49,31],[19,-20],[46,-126],[45,-42],[52,-6],[52,7],[50,0],[47,-26],[32,-49],[50,-174],[31,-62],[33,-33],[93,-51],[48,-50],[55,-113],[59,-50],[49,-20],[153,-23],[47,-28],[39,-60],[56,-126],[129,-215],[14,-72],[4,-61],[25,-10],[35,13],[37,7],[133,-33],[32,-15],[43,-44],[109,-169],[98,-88],[120,-67],[123,-17],[110,58],[26,36],[9,22],[10,10],[30,-3],[19,-13],[17,-23],[23,-21],[35,-5],[35,14],[48,53],[29,20],[14,0],[29,-12],[11,-1],[52,24],[2,8],[33,20],[7,-5],[26,-25],[15,-4],[18,15],[6,24],[2,53],[26,46],[145,141],[72,39],[78,15],[164,6],[583,171],[51,-6],[349,-176],[58,-19],[56,-3],[51,11],[102,37],[46,-1],[27,-28],[15,-44],[10,-51],[29,-66],[32,18],[61,98],[218,97],[38,5],[46,-4],[70,-22],[135,-65],[75,-25],[157,46],[226,313],[164,59],[210,-1],[66,11],[35,17],[19,35],[136,448],[82,186],[9,32],[1,35],[-16,25],[-59,2],[-13,26],[19,74],[49,43],[299,163],[62,23],[161,18],[45,17],[46,39],[36,42],[42,33],[63,17],[776,-46],[68,-23],[17,-2],[31,17],[18,24],[16,28],[26,27],[48,19],[43,-6],[43,-17],[51,-13],[126,6],[44,-8],[63,-28],[44,-28],[24,-41],[2,-67],[-15,-65],[-29,-57],[-41,-48],[-79,-67],[-15,-32],[7,-24],[39,-1],[100,38],[102,20],[99,-10],[96,-53],[85,-75],[37,-13],[117,-9],[151,-35],[124,-52],[192,-170],[118,-5],[103,49],[55,17],[54,-3],[57,-36],[131,-177],[73,-42],[64,17],[413,315],[156,225],[60,58],[48,22],[375,67],[105,2],[95,-34],[26,-27],[24,-32],[26,-28],[34,-13],[26,9],[56,44],[7,3],[385,185],[50,15],[61,-10],[60,-34],[206,-166],[56,-20],[61,17],[41,44],[17,58],[-1,63],[-12,64],[0,71],[30,51],[91,83],[39,51],[67,127],[49,155],[28,205],[-3,93],[-8,36],[-8,22],[-3,20],[7,33],[14,26],[24,28],[27,23],[26,12],[140,20],[146,64],[33,36],[5,56],[-11,63],[0,51],[11,50],[23,60],[6,38],[1,45],[-11,39],[-25,19],[-61,-8],[-41,-21],[-30,4],[-27,65],[-3,25],[3,99],[-6,30],[-29,47],[-10,26],[-2,56],[29,161],[40,116],[79,52],[201,31],[70,26],[16,35],[-7,46],[-4,62],[18,65],[32,20],[100,-10],[49,37],[111,108],[45,23],[40,27],[98,126],[56,40],[118,12],[54,21],[35,58],[-6,52],[-30,70],[-40,68],[-39,48],[-26,20],[-32,17],[-33,12],[-31,3],[-28,-9],[-56,-31],[-29,1],[-39,41],[5,60],[23,66],[12,61],[-8,29],[-28,59],[-3,29],[16,37],[24,11],[27,7],[28,22],[29,72],[-17,58],[-68,100],[-13,40],[6,13],[22,11],[35,35],[21,34],[9,31],[7,30],[11,35],[34,62],[42,46],[150,116],[30,39],[44,104],[44,76],[36,-12],[66,-112],[75,-41],[82,16],[170,84],[107,13],[41,20],[21,59],[10,126],[16,53],[91,137],[-7,22],[-39,15],[-41,57],[-2,52],[91,446],[47,138],[56,64],[25,-4],[23,-13],[24,-8],[27,12],[15,28],[-2,32],[-20,62],[-43,88],[-9,37],[-1,30],[5,60],[-3,31],[-64,178],[-11,71],[1,118],[15,116],[101,345],[-2,98],[-36,43],[-54,34],[-41,42],[2,68],[18,21],[91,57],[24,32],[50,116],[33,128],[29,262],[15,51],[21,69],[23,28],[52,16],[18,20],[18,27],[111,117],[20,-9],[18,-26],[26,-16],[36,10],[12,31],[10,38],[99,96],[12,89],[-2,98],[25,94],[34,39],[32,5],[22,-25],[12,-47],[25,-43],[51,-15],[110,-8],[62,-26],[32,-20],[17,-22],[10,-49],[16,-47],[27,-36],[43,-18],[33,21],[125,141],[47,33],[27,25],[20,36],[21,65],[28,-18],[27,-5],[61,-4],[117,-36],[35,-5],[74,24],[73,42],[66,15],[70,-78],[17,-1],[19,3],[18,-7],[9,-15],[10,-38],[66,-127],[26,-14],[27,-4],[27,10],[64,75],[28,-2],[29,-13],[46,14],[21,23],[-6,19],[-13,22],[-1,30],[21,43],[54,62],[18,37],[29,-4],[113,-187],[35,-3],[66,38],[68,-30],[50,2],[49,16],[83,80],[46,-7],[95,-77],[100,-25],[204,44],[107,0],[147,-46],[478,11],[25,16],[42,43],[32,9],[38,-8],[19,-20],[16,-28],[20,-31],[96,-76],[211,-123],[146,-176],[62,-43],[72,-23],[89,-16],[42,-2],[72,6],[41,-18],[23,-24]],[[14288,214],[27,-30],[18,-45],[0,-44],[-27,-27],[-28,0],[-35,11],[-31,21],[-12,28],[-17,20],[-29,24],[-9,20],[121,27],[22,-5]],[[7751,2899],[-14,49],[11,58],[5,63],[-29,65],[-34,54],[-21,65],[-26,136],[-53,135],[-161,236],[-53,136],[-8,140],[33,121],[74,92],[116,52],[57,3],[371,-23],[21,-33],[-5,-117],[28,-63],[297,-221],[308,-292],[44,-65],[23,-67],[3,-62],[-10,-125],[9,-67],[64,-167],[68,-257],[52,-109],[77,-80],[175,-91],[92,-24],[98,-44],[63,-3],[213,44],[99,4],[97,-28],[77,-51],[631,-612],[251,-152],[66,-85],[26,-137],[-17,-114],[1,-75],[25,-34],[42,-16],[37,-40],[26,-53],[10,-53],[-21,-229],[3,-114],[37,-124],[82,-124],[211,-192],[168,-209],[-8861,0],[-1,2],[10,115],[-12,102],[-152,582],[-174,475],[-30,71],[-5,30],[5,29],[10,36],[5,37],[-12,32],[-107,124],[-27,45],[-34,112],[-13,68],[-6,56],[-9,16],[-21,17],[-27,13],[-24,5],[-18,11],[-11,27],[-15,65],[-27,55],[4,17],[41,7],[17,-7],[18,-17],[13,-23],[5,-23],[16,-38],[34,40],[57,110],[25,38],[54,61],[10,32],[2,107],[-12,47],[-34,19],[-46,7],[-12,23],[3,38],[-4,53],[-24,56],[-36,46],[-86,82],[-31,-20],[-10,-18],[4,-45],[6,1],[26,-22],[5,-1],[-1,-21],[-13,-30],[-4,-17],[-23,-23],[-53,31],[-85,82],[-213,368],[-107,144],[-237,162],[-46,19],[-50,13],[-50,4],[-56,-2],[-30,3],[-13,10],[-1,42],[-5,23],[-16,13],[-29,14],[-47,4],[-60,-6],[-51,2],[-22,31],[-12,73],[-32,42],[-89,67],[-148,139],[-164,115],[-276,144],[-46,52],[0,7439],[25,-197],[22,-82],[60,-132],[5,-30],[-4,-77],[-27,-82],[-11,-48],[11,-22],[76,20],[33,-4],[24,-38],[15,42],[20,5],[38,-25],[7,-18],[11,-13],[17,-10],[12,2],[30,13],[20,4],[64,-14],[56,-36],[43,-51],[25,-61],[17,0],[8,14],[17,15],[10,11],[34,-39],[57,-83],[35,-39],[37,-33],[19,-21],[7,-29],[11,-150],[-39,-214],[0,-14],[-3,-226],[-8,-26],[-60,-38],[-115,-44],[-27,-16],[-15,-34],[-5,-49],[2,-100],[60,71],[39,36],[52,15],[7,13],[45,54],[10,4],[6,12],[95,-261],[16,-26],[149,21],[56,-3],[55,-22],[93,-64],[55,-13],[38,-20],[53,-94],[27,-30],[48,-4],[46,6],[35,-13],[26,-102],[31,-37],[40,-30],[40,-22],[172,-64],[62,-117],[-2,-122],[28,-90],[224,-232],[260,-130],[158,-30],[53,-40],[82,-66],[46,-18],[66,-23],[56,-38],[71,-78],[204,-107],[235,-183],[255,-227],[41,-27],[96,-22],[32,-26],[54,-65],[64,-44],[29,-29],[20,-79],[22,-40],[56,-73],[80,-79],[81,-50],[249,-69],[89,-38],[47,-8],[34,-25],[80,-177],[137,-144],[49,-74],[13,-106],[83,20],[56,-54],[50,-73],[69,-37],[58,-43],[28,-101],[20,-341],[-6,-40],[-18,-41],[-25,-37],[-22,-41],[-9,-54],[-7,-24],[-26,-46],[-3,-22],[15,-25],[22,-11],[24,-5],[19,-11],[22,-30],[-2,-13],[-11,-10],[0,-19],[55,-101],[-8,-33],[6,-20],[15,-3],[23,18],[14,30],[-7,20],[-17,19],[-8,22],[-3,99],[-6,21],[-83,55],[-16,17],[30,46],[85,39],[95,-13],[57,-112],[2,-41],[-4,-81],[2,-40],[30,-99],[4,-34],[16,-58],[35,-73],[42,-46],[33,23],[-2,41],[-42,108],[-10,46],[0,122],[9,55],[26,54],[33,39],[41,26],[51,14],[63,4],[19,-11],[5,-25],[2,-30],[11,-26],[19,-15],[45,-22],[16,-12],[8,-22],[8,-82],[9,-24],[23,-49],[5,-17],[13,-20],[67,-53],[23,-8],[10,-19],[4,-25],[0,-1],[176,-590],[62,-126],[75,-116],[190,-220],[140,-126],[147,-82],[126,16],[319,-254],[62,-26],[51,-70],[22,-16],[39,-34],[43,-81],[36,-92],[15,-68],[9,-94],[27,-87],[45,-65],[63,-29]],[[14222,0],[-28,22],[-12,56],[25,-16],[141,-62],[-126,0]],[[15215,117],[116,-28],[91,-70],[14,-19],[-155,0],[-5,11],[-61,88],[0,18]],[[14002,0],[14,76],[32,40],[41,9],[40,-26],[24,-46],[19,-53],[-170,0]],[[15171,18],[21,-18],[-205,0],[-1,2],[-11,76],[44,61],[18,-14],[46,-14],[25,-12],[63,-81]],[[15536,442],[26,-24],[24,-39],[15,-43],[-1,-39],[-21,-22],[-32,-12],[-35,-5],[-29,2],[-27,10],[-142,90],[-27,27],[-17,37],[-3,39],[16,28],[31,6],[44,-32],[0,24],[17,58],[33,-51],[42,-25],[86,-29]],[[17762,547],[33,-17],[49,-7],[35,-15],[-12,-43],[17,-18],[12,-19],[6,-22],[1,-25],[-8,-19],[-11,-17],[-15,-13],[-18,-11],[-12,29],[-5,35],[-1,48],[-10,17],[-80,75],[19,22]],[[24946,564],[62,-33],[34,-26],[7,-22],[-68,-88],[-41,-30],[-33,19],[1,17],[15,16],[15,19],[1,29],[-14,9],[-23,-2],[-24,5],[-17,30],[5,30],[20,19],[29,9],[31,-1]],[[14239,492],[4,-20],[0,-17],[-7,-15],[-13,-12],[-35,-3],[-42,14],[-70,44],[-59,-16],[-44,45],[-68,124],[2,35],[21,58],[27,55],[21,25],[15,6],[48,28],[27,6],[34,-9],[4,-23],[-8,-32],[-3,-35],[16,-71],[12,-35],[16,-28],[15,-10],[34,-5],[14,-7],[8,-14],[1,-13],[-1,-14],[2,-15],[6,-12],[16,-21],[7,-13]],[[11630,0],[-86,78],[8,64],[39,59],[53,43],[116,31],[29,40],[3,59],[-83,280],[-6,115],[55,80],[101,19],[75,-42],[134,-168],[20,-33],[4,-40],[-22,-49],[-9,-49],[43,-28],[61,-13],[48,-4],[37,10],[71,43],[35,10],[63,-4],[54,-14],[49,-28],[129,-112],[199,-107],[288,-240],[-1508,0]],[[13416,240],[95,-84],[30,-51],[-19,-69],[-52,-36],[-183,0],[-326,231],[-1,9],[-116,122],[-35,19],[-89,36],[-43,7],[-47,16],[-33,38],[-27,41],[-27,28],[-45,12],[-160,-12],[-50,-17],[-58,-33],[-59,-24],[-56,10],[-4,36],[33,56],[86,103],[39,59],[43,125],[35,50],[104,39],[120,-13],[220,-89],[210,-124],[182,-139],[106,-122],[127,-224]],[[16067,929],[15,-60],[-1,-61],[-54,-210],[-20,3],[-45,46],[-5,-22],[0,-18],[7,-18],[16,-23],[-22,-14],[-10,-18],[-7,-23],[-15,-28],[-2,-13],[5,-35],[-3,-11],[-11,-3],[-30,5],[-12,-2],[-59,-17],[-45,16],[-93,60],[-21,2],[-55,-7],[-29,5],[-13,13],[-84,110],[-30,60],[-11,56],[30,28],[25,-11],[38,-49],[28,-3],[19,18],[-3,26],[-10,30],[-13,62],[-8,19],[3,13],[29,16],[30,3],[53,-22],[22,-3],[39,34],[21,101],[31,27],[27,-20],[76,-105],[38,-37],[17,36],[-1,38],[-13,37],[-20,32],[31,18],[33,5],[32,-6],[31,-18],[28,-27],[11,-17],[10,-18]],[[17388,739],[5,-47],[28,-147],[-41,-64],[-11,-36],[17,-60],[2,-86],[8,-19],[10,-12],[-7,-28],[-23,-28],[-34,-12],[-35,-6],[-18,-18],[-8,-29],[-1,-39],[-26,-108],[-221,0],[-90,36],[15,48],[-14,54],[-37,44],[-53,18],[0,22],[63,-3],[29,4],[15,17],[-10,27],[-30,9],[-67,4],[-53,23],[-20,22],[0,37],[17,17],[91,25],[-12,31],[-2,25],[14,45],[15,2],[29,22],[15,25],[-32,12],[-14,9],[-26,42],[-13,9],[-36,-4],[-23,-9],[-114,-71],[-38,-12],[-57,-5],[-23,-9],[-35,-42],[-31,-9],[-88,-5],[-27,5],[-66,40],[-11,54],[3,61],[-26,58],[-2,52],[64,46],[127,53],[29,19],[15,17],[27,47],[11,31],[1,26],[11,17],[39,6],[57,-15],[28,6],[12,39],[15,32],[34,-6],[60,-37],[105,-29],[83,4],[78,32],[88,55],[-10,33],[20,16],[29,-16],[15,-63],[-15,-109],[3,-52],[29,-53],[125,-64],[19,-26]],[[11718,1171],[16,-68],[-9,-73],[-75,-278],[-4,-72],[4,-74],[47,-167],[7,-66],[-8,-27],[-21,-4],[-26,2],[-24,-12],[-78,-77],[-21,-15],[-79,22],[-92,84],[-173,217],[-41,89],[-32,45],[-16,52],[3,73],[22,128],[6,108],[-8,53],[-49,48],[-27,59],[-22,68],[-8,50],[6,26],[24,56],[5,30],[-16,123],[6,63],[18,32],[35,12],[57,2],[98,-27],[82,-69],[139,-175],[197,-163],[40,-48],[17,-27]],[[11776,1531],[41,-202],[-5,-53],[-80,-20],[-115,84],[-162,180],[-109,158],[-41,24],[-26,7],[-50,29],[-392,66],[-101,58],[-101,105],[-79,110],[-57,112],[9,88],[119,36],[49,-12],[124,-67],[41,-33],[42,-25],[59,-16],[163,-16],[157,-35],[79,2],[25,-2],[28,-12],[53,-36],[26,-13],[217,-67],[72,-76],[14,-142],[0,-232]],[[1532,2475],[41,-27],[52,-62],[22,-60],[-47,-15],[-55,-9],[-81,-1],[-81,11],[-85,51],[-34,6],[-31,10],[-22,35],[-4,44],[13,46],[28,37],[44,15],[37,-17],[29,-39],[42,-76],[44,-28],[26,18],[24,35],[38,26]],[[9763,3589],[95,-139],[32,-77],[14,-110],[-20,-67],[-83,-112],[-19,-72],[10,-135],[-9,-56],[-36,-61],[-127,-99],[-17,-34],[-27,-33],[-63,-23],[-72,-13],[-52,-2],[-122,26],[-104,55],[-79,85],[-51,117],[-27,134],[-21,68],[-65,107],[-9,63],[32,247],[32,90],[59,61],[97,22],[46,-10],[91,-37],[51,5],[41,29],[127,146],[89,34],[84,-58],[66,-90],[37,-61]],[[53638,4141],[63,-93],[41,-43],[38,-26],[0,-22],[-57,15],[-57,44],[-50,56],[-33,47],[-26,55],[-30,90],[-1,78],[57,19],[30,-39],[85,-57],[29,-43],[-3,-33],[-39,24],[-82,68],[-29,8],[0,-6],[14,-16],[15,-27],[35,-99]],[[28966,4992],[14,-25],[-8,-21],[-41,-35],[-43,-24],[-68,-25],[-67,-6],[-37,35],[6,40],[20,27],[2,23],[-45,30],[-13,-2],[-26,-23],[-14,-5],[-15,4],[-14,11],[-11,15],[-5,17],[10,34],[28,16],[36,3],[31,-4],[29,-15],[58,-39],[30,-12],[113,-2],[30,-17]],[[21517,5670],[1,-44],[-5,-22],[-9,-16],[-14,27],[-34,49],[-18,68],[-21,44],[-14,39],[11,29],[34,10],[25,-16],[18,-32],[13,-37],[13,-99]],[[28274,6302],[35,88],[66,-1],[45,-60],[-32,-88],[-5,-34],[21,-112],[-7,-47],[-16,-12],[-54,-20],[-19,-10],[-10,-18],[-15,-51],[-9,-12],[-33,3],[-30,25],[-47,53],[-44,25],[-19,17],[-2,21],[2,3],[55,34],[45,41],[39,44],[18,34],[12,37],[4,40]],[[25583,6424],[16,-59],[-5,-24],[-112,-23],[-32,-2],[-28,15],[16,84],[56,40],[61,1],[28,-32]],[[20371,6372],[30,-4],[79,-22],[24,-15],[-17,-40],[-19,0],[0,22],[-16,0],[-56,-216],[-25,-19],[-34,27],[-20,-7],[-15,-19],[-119,-51],[11,-24],[13,-11],[16,-5],[23,-1],[21,-10],[8,-21],[-2,-22],[-9,-9],[-31,-6],[-32,-10],[-32,-4],[-31,10],[-20,23],[-14,32],[-8,35],[-2,33],[5,35],[24,72],[13,68],[27,76],[4,24],[-22,34],[-62,40],[-25,27],[26,27],[10,40],[-4,43],[-14,34],[37,18],[19,-52],[7,-9],[6,-5],[44,-25],[13,-10],[6,-50],[-7,-46],[5,-34],[40,-14],[22,-4],[41,-14],[17,0],[14,12],[5,20],[6,19],[20,8]],[[21627,6911],[0,-273],[-16,0],[-55,79],[-42,-18],[-21,22],[-20,31],[-40,8],[12,19],[2,18],[0,19],[2,23],[-29,150],[5,58],[42,-4],[38,8],[54,-35],[47,-55],[21,-50]],[[50789,7368],[45,-27],[18,-21],[7,-35],[-8,-43],[-15,-9],[-21,9],[-26,5],[-81,3],[-27,-3],[-22,-10],[-34,-27],[-17,-3],[-44,28],[-8,48],[18,52],[33,42],[43,22],[48,4],[48,-11],[43,-24]],[[21589,7449],[55,22],[14,-30],[-14,-123],[5,-105],[-5,-29],[-16,-22],[-11,11],[-5,30],[-1,33],[-6,10],[-13,4],[-13,-4],[-6,-10],[2,-21],[26,-82],[13,-20],[7,-19],[-10,-31],[-127,81],[13,14],[4,18],[0,49],[26,63],[8,60],[13,55],[41,46]],[[51105,7677],[40,-4],[43,-9],[38,-19],[26,-34],[6,-47],[-5,-66],[-12,-62],[-31,-80],[5,-172],[-19,-48],[-30,-27],[-28,8],[-12,58],[-22,44],[-138,89],[-40,55],[-33,68],[-23,73],[-9,70],[27,75],[65,30],[152,-2]],[[51804,7854],[4,-33],[1,-53],[-12,-38],[-36,13],[-133,101],[-19,52],[-87,79],[-21,59],[19,70],[49,27],[61,-9],[54,-37],[40,-49],[35,-57],[27,-62],[18,-63]],[[50825,7793],[-54,-63],[-106,25],[-215,99],[-222,0],[-44,8],[-41,20],[-37,27],[-29,28],[-20,30],[-11,36],[1,37],[16,32],[23,22],[30,24],[32,16],[30,3],[26,-13],[48,-38],[29,-8],[223,-20],[37,-30],[71,-94],[42,-19],[26,-6],[53,-27],[63,-14],[20,-21],[8,-26],[1,-28]],[[51680,8748],[-38,-3],[-50,19],[-74,44],[-37,35],[-65,79],[-40,30],[18,0],[49,16],[20,3],[10,-1],[54,-22],[52,-31],[56,-45],[40,-40],[22,-45],[-17,-39]],[[51296,9673],[111,-69],[23,-23],[8,-85],[-32,-77],[-92,-113],[-104,-13],[-117,95],[-68,144],[48,131],[87,97],[39,25],[32,-26],[65,-86]],[[27114,8972],[27,29],[-1,-31],[-44,-154],[-17,-37],[-108,-158],[-20,-47],[-14,-49],[-10,-93],[-17,-26],[-46,-22],[-38,-6],[-82,8],[-40,-2],[-38,-18],[-75,-53],[-29,-12],[-24,10],[-84,73],[-97,42],[-27,17],[62,87],[9,26],[8,40],[19,13],[22,-2],[14,-3],[49,20],[17,42],[11,42],[30,19],[40,1],[29,-4],[28,-17],[36,-39],[74,-99],[34,-22],[-6,40],[-40,140],[-13,9],[-22,42],[-9,12],[-22,5],[-76,-5],[-71,10],[-200,86],[-83,19],[-24,11],[-24,26],[-21,36],[-39,95],[-5,25],[-5,46],[-7,26],[-17,15],[-18,13],[-12,19],[-3,20],[3,69],[-8,30],[-17,14],[-18,9],[-11,19],[9,26],[24,40],[66,87],[25,19],[24,3],[24,0],[25,9],[17,18],[35,51],[10,10],[27,14],[197,219],[30,75],[36,47],[41,44],[35,28],[46,-42],[20,-57],[5,-155],[13,-84],[35,-52],[94,-79],[152,-210],[68,-55],[12,-18],[6,-43],[-2,-80],[15,-39],[-27,-35],[-38,-26],[-32,-30],[-10,-50],[26,14],[21,-7],[41,-48]],[[26098,11631],[19,-12],[-1,-22],[-11,-24],[-7,-23],[-12,-106],[-19,-53],[-31,-23],[-58,3],[-33,7],[-23,13],[-5,10],[-1,11],[4,14],[10,17],[29,26],[39,25],[32,30],[14,37],[5,21],[13,24],[17,20],[19,5]],[[16274,99],[40,-9],[43,-25],[22,-38],[-13,-27],[-275,0],[-21,36],[-35,25],[-70,17],[-39,21],[19,43],[-14,114],[13,47],[35,10],[39,-29],[78,-94],[14,-27],[9,-30],[15,-24],[33,-10],[107,0]],[[17347,0],[1,3],[24,30],[26,-33],[-51,0]],[[51309,9827],[-17,17],[-138,137],[-10,36],[20,39],[46,37],[53,29],[41,13],[48,-3],[94,-35],[47,-9],[29,-14],[25,-34],[34,-63],[25,-28],[22,-15],[26,-8],[35,-1],[121,-45],[11,-29],[1,-1],[16,-43]],[[44661,12035],[43,-2],[40,6],[30,22],[24,99],[31,26],[35,-4],[29,-41],[8,-21],[14,-5],[57,4],[25,-5],[26,-12],[20,-16],[28,-58],[46,-18],[54,-1],[42,9],[31,24],[86,99],[11,18],[104,103],[83,121],[33,19],[52,10],[50,26],[42,33],[24,34],[16,47],[17,120],[4,108],[6,28],[28,61],[21,25],[23,18],[10,22],[-17,40],[-98,-52],[-96,2],[-89,42],[-231,229],[-7,27],[6,26],[-2,18],[-27,8],[-12,-7],[-51,-50],[-14,36],[8,42],[15,46],[18,97],[18,39],[18,31],[9,22],[30,32],[135,90],[31,60],[30,45],[183,149],[91,225],[51,59],[37,-68],[-90,-191],[53,-85],[14,30],[11,81],[13,32],[88,-87],[54,-28],[230,-18],[75,5],[69,25],[80,79],[67,117],[52,130],[32,119],[19,130],[15,57],[28,49],[38,35],[234,148],[41,51],[17,68],[7,137],[16,57],[159,294],[37,128],[-40,88],[-59,-24],[-20,39],[26,55],[79,29],[46,33],[123,210],[55,57],[33,18],[44,7],[31,-12],[39,-20],[32,-7],[14,29],[-10,99],[-32,8],[-50,-27],[-66,-9],[0,18],[71,43],[41,50],[11,10],[19,4],[52,-4],[24,18],[6,10],[-1,17],[23,94],[7,19],[13,25],[24,31],[231,200],[39,44],[47,41],[49,26],[39,32],[15,63],[1,46],[1,8],[9,56],[19,45],[35,18],[45,40],[161,245],[40,42],[27,42],[15,52],[5,76],[-4,100],[4,30],[11,24],[32,49],[11,30],[-5,114],[9,50],[74,39],[21,46],[25,117],[3,65],[6,26],[19,10],[11,11],[28,47],[14,36],[22,24],[28,19],[30,5],[9,-12],[26,-67],[107,-79],[16,-33],[36,-214],[-48,32],[-28,10],[-13,-12],[-17,-93],[-1,-18],[30,-29],[41,-16],[37,-27],[17,-61],[-11,-117],[-28,-77],[-86,-142],[-47,-103],[-37,-128],[14,-103],[106,-30],[54,31],[41,55],[31,53],[26,23],[36,17],[115,127],[85,69],[17,36],[10,103],[13,12],[17,6],[18,16],[35,81],[95,109],[14,44],[-16,61],[-59,130],[3,63],[21,34],[21,3],[24,-10],[32,-7],[22,10],[18,21],[6,22],[-10,9],[-19,14],[-5,32],[5,33],[10,21],[27,6],[31,-9],[30,-13],[20,-4],[23,14],[39,39],[17,-2],[20,-13],[66,-32],[21,-6],[9,-12],[135,-93],[14,-14],[11,-23],[2,-51],[-16,-142],[-12,-30],[-36,-22],[-11,-51],[5,-61],[15,-50],[93,-139],[15,-53],[7,-184],[10,-48],[30,-63],[34,-22],[105,4],[40,-15],[35,-35],[57,-73],[64,-68],[46,-38],[42,-16],[42,12],[29,32],[62,118],[41,56],[21,0],[9,-46],[2,-81],[10,-2],[61,-69],[-10,4],[-7,-13],[-3,-19],[2,-14],[9,-5],[34,-10],[10,-5],[39,-41],[25,-14],[34,-6],[36,21],[28,6],[25,-16],[63,-81],[28,-47],[26,-65],[17,0],[10,26],[13,11],[14,-3],[16,-14],[12,-20],[3,-23],[0,-26],[3,-34],[9,-27],[24,-52],[5,-20],[-10,-28],[-18,-26],[-12,-28],[27,-79],[-25,-196],[-16,-44],[-39,-5],[-87,18],[-48,-18],[-47,-36],[-75,-77],[-23,-50],[13,-47],[56,-76],[42,-115],[38,-19],[9,-16],[4,-29],[6,-23],[1,-24],[-11,-36],[-22,-26],[-24,-8],[-19,-13],[-8,-36],[18,-49],[37,-11],[36,-19],[17,-72],[-15,-48],[-37,-42],[-91,-63],[-330,-126],[-62,-78],[46,10],[149,73],[66,19],[184,1],[174,25],[129,-16],[46,5],[15,34],[-22,74],[28,18],[27,-1],[30,-11],[38,-6],[46,3],[123,27],[26,20],[16,38],[36,37],[70,57],[85,124],[46,27],[11,15],[18,8],[37,-11],[89,-103],[6,-29],[-2,-32],[3,-27],[45,-27],[7,-35],[-4,-61],[13,-69],[109,-166],[14,-15],[2,-19],[-76,-118],[-39,-26],[-57,-19],[-61,-4],[-49,20],[-43,-16],[-162,16],[-43,-16],[-28,-36],[-5,-36],[24,-16],[11,-23],[78,-230],[21,-20],[12,-3],[15,7],[32,7],[40,15],[103,54],[44,12],[21,-5],[17,-25],[25,-10],[20,5],[25,12],[27,6],[25,-13],[27,-43],[19,-12],[25,13],[21,33],[0,27],[-12,31],[17,52],[12,20],[16,21],[7,25],[-20,54],[4,32],[40,34],[116,13],[107,55],[56,-14],[135,-81],[13,-5],[13,12],[29,37],[22,9],[26,-12],[24,-17],[16,-9],[52,-14],[266,-176],[91,-85],[36,-25],[45,-24],[39,-28],[14,-38],[-9,-30],[-19,-17],[-18,-10],[-9,-11],[-25,-168],[-17,-64],[-9,-63],[17,-62],[18,0],[26,75],[16,34],[20,25],[12,30],[-4,79],[10,32],[68,53],[57,-1],[50,-39],[122,-170],[50,-53],[45,-23],[69,-14],[51,-39],[34,-59],[16,-72],[20,17],[11,14],[4,20],[-1,30],[123,-105],[48,-16],[54,-28],[44,-62],[10,-63],[-46,-29],[28,-26],[41,-17],[42,0],[31,21],[7,40],[-15,31],[-7,26],[34,24],[64,-2],[123,-74],[78,-3],[203,110],[66,11],[41,-22],[38,-45],[62,-96],[56,-63],[24,-39],[10,-49],[-6,-64],[-24,-99],[-6,-50],[13,-138],[-6,-74],[-59,-59],[-127,-156],[-103,-67],[-475,-196],[-485,-160],[-93,-65],[-61,-30],[-64,-21],[-55,-7],[-40,11],[-82,39],[-75,13],[-54,18],[-33,0],[-31,-13],[-77,-68],[-56,-39],[-25,1],[-34,27],[-15,22],[-47,91],[-89,118],[-81,48],[-54,19],[-25,-16],[-25,9],[-56,-41],[-80,-77],[-21,16],[-13,-10],[-5,-30],[4,-39],[-101,28],[-92,-64],[-146,-186],[-44,-37],[-20,-24],[-7,-31],[3,-36],[11,-13],[18,-6],[66,-49],[17,-18],[16,-26],[28,-86],[63,-108],[71,-97],[81,-85],[90,-74],[34,-36],[22,-19],[23,-8],[24,0],[55,-9],[20,-9],[12,-18],[21,-54],[11,-21],[17,-16],[18,-13],[45,-21],[7,50],[35,11],[47,-15],[37,-26],[28,-40],[5,-37],[-13,-37],[-29,-38],[-10,-38],[23,-32],[31,-29],[16,-24],[22,-18],[48,28],[74,62],[30,-16],[63,-10],[31,-14],[-14,-40],[30,-56],[103,-127],[1,-21],[-22,-32],[-29,-20],[-22,4],[-26,15],[-40,10],[14,-50],[-12,-44],[-26,-38],[-28,-29],[-40,-33],[-36,-10],[-103,4],[-44,-6],[-83,-27],[-50,-9],[-113,-3],[-59,13],[-41,32],[-34,-52],[-20,-15],[-235,-75],[-211,-22],[-62,-22],[-345,-199],[-56,-1],[-161,53],[-43,7],[-31,16],[-101,106],[-36,24],[-22,12],[-23,4],[-9,13],[-18,55],[-10,13],[-35,4],[-81,37],[-65,13],[-24,9],[-57,45],[-29,53],[-24,57],[-41,56],[-40,-5],[-57,-42],[-50,-51],[-23,-32],[10,-26],[50,-34],[11,-32],[0,-123],[10,-31],[39,-42],[4,-38],[-12,-34],[-22,-27],[-54,-42],[-17,-19],[-13,-26],[-16,-20],[-8,-25],[10,-15],[46,-51],[17,-24],[-26,3],[-22,-4],[-108,-49]],[[30361,3664],[1,-2],[11,-51],[6,-65],[26,-121],[4,-58],[-9,-48],[-13,-41],[-1,-48],[23,-66],[76,-123],[48,-55],[53,-44],[161,-78],[92,-69],[106,-51],[44,-38],[31,-50],[44,-103],[32,-48],[36,-9],[129,3],[31,6],[39,24],[57,7],[331,-3],[35,-9],[51,-40],[29,-9],[12,8],[40,38],[19,12],[24,10],[15,3],[15,-10],[63,-79],[17,-6],[13,52],[25,35],[7,18],[-2,18],[-13,30],[-3,12],[-4,94],[4,28],[32,64],[42,30],[35,-15],[20,-86],[24,-36],[8,-18],[2,-20],[-4,-42],[2,-19],[9,-21],[12,-17],[14,-13],[17,-12],[19,-8],[22,-6],[58,-4],[27,13],[32,55],[78,31],[47,29],[42,6],[33,-53],[-32,-46],[-23,-41],[-13,-46],[-4,-59],[-10,-23],[-46,-55],[-15,-33],[70,32],[36,4],[37,-16],[25,-33],[7,-32],[9,-26],[29,-12],[23,6],[54,31],[31,3],[35,-14],[106,-67],[150,-51],[67,-42],[32,-70],[-15,-75],[-46,-53],[-98,-73],[0,-22],[68,2],[54,11],[48,28],[52,51],[26,56],[-3,58],[-13,54],[-2,45],[70,62],[120,-19],[222,-103],[112,-83],[197,-226],[100,-76],[155,-88],[33,-13],[62,11],[86,51],[55,19],[84,-38],[94,-88],[102,-55],[112,60],[-43,2],[-72,30],[-36,8],[-11,19],[-25,82],[-18,19],[-41,7],[-73,29],[-38,4],[-30,-10],[-94,-49],[-57,-2],[-48,16],[-43,32],[-37,44],[-47,39],[-115,53],[-43,41],[-47,141],[-50,56],[-11,36],[-3,87],[3,24],[35,103],[21,108],[24,39],[150,32],[57,3],[51,-20],[34,-53],[35,-69],[41,-41],[60,30],[33,8],[36,-29],[44,-26],[56,18],[-52,18],[-25,13],[-46,40],[-23,3],[-23,-1],[-51,15],[-17,-1],[-9,8],[-2,35],[-30,49],[-6,13],[-9,11],[-47,11],[-17,6],[-10,15],[-60,117],[-13,40],[-5,44],[12,17],[58,16],[18,18],[-4,17],[-39,29],[-9,24],[8,60],[22,54],[58,101],[82,193],[74,274],[5,69],[14,15],[32,-6],[52,-19],[63,6],[-67,65],[-5,71],[36,38],[46,-5],[52,-21],[95,-21],[22,5],[35,26],[17,21],[48,77],[7,23],[-24,25],[-31,-12],[-25,-31],[-22,-74],[-25,-6],[-27,12],[-71,52],[-54,11],[-186,-32],[-37,6],[-14,32],[-1,68],[15,47],[40,48],[52,28],[52,-12],[-27,56],[-49,20],[-47,11],[-21,23],[5,54],[31,139],[26,208],[32,81],[66,59],[22,-50],[34,-24],[88,-31],[30,-29],[65,-91],[21,-19],[15,-9],[17,-18],[18,-11],[22,6],[81,63],[25,9],[87,15],[19,-5],[47,-39],[52,-34],[-22,54],[-52,61],[-85,89],[-21,37],[-31,124],[-20,44],[80,-6],[73,-21],[62,-3],[51,50],[14,-7],[4,-4],[4,1],[15,10],[-57,24],[-98,27],[-42,30],[-33,32],[-26,32],[-14,46],[1,72],[46,182],[12,116],[18,43],[28,33],[187,163],[284,200],[80,44],[496,111],[398,16],[739,222],[719,216],[397,96],[160,71],[31,0],[451,160],[87,52],[139,169],[55,113],[-34,66],[20,26],[69,52],[124,125],[28,17],[11,28],[87,156],[203,204],[47,81],[8,23],[6,25],[4,63],[14,30],[61,54],[13,19],[18,31],[125,160],[60,119],[22,67],[8,69],[21,55],[49,47],[107,69],[630,620],[546,807],[55,143],[-19,117],[56,98],[26,126],[-1,140],[-58,279],[17,48],[59,19]],[[41678,11124],[170,-92],[143,-25],[55,-33],[84,-75],[64,-28],[31,-23],[20,-60],[16,-9],[40,-1],[19,-9],[6,-19],[2,-24],[9,-19],[27,-35],[16,-32],[20,-83],[0,-83],[35,-61],[18,-132],[-9,-28],[-36,-36],[-8,-18],[4,-44],[12,-27],[89,-7],[114,-26],[106,22],[48,-3],[33,-40],[54,-187],[25,-58],[37,-57],[164,-172],[55,-44],[21,-22],[12,-31],[20,-73],[12,-24],[107,-14],[123,81],[239,260],[20,44],[14,122],[19,58],[59,101],[19,54],[-9,52],[-81,-38],[-2,61],[16,27],[16,18],[63,69],[27,51],[20,49],[24,113],[6,84],[-20,15],[-38,-7],[-51,21],[-47,82],[-15,109],[-13,346],[-9,66],[-15,61],[-50,109],[-19,55],[1,49],[3,4],[23,23],[95,46],[44,31],[84,91],[47,34],[58,18],[48,-3],[48,-9],[45,1],[42,29],[17,46],[2,49],[8,46],[59,67]],[[44233,11977],[28,15],[25,18],[21,21],[15,27],[18,-61],[2,-115],[16,-107],[0,-1]],[[44358,11774],[-18,-235],[11,-241],[22,-114],[85,-231],[31,-117],[31,-292],[20,-42],[35,-26],[148,-63],[54,-13],[78,9],[21,-9],[41,-39],[27,-13],[50,2],[23,-9],[47,-36],[60,-30],[57,-2],[38,46],[-7,62],[-37,63],[-92,98],[-60,91],[-34,116],[-14,125],[1,117],[21,117],[4,51],[-11,71],[-170,559],[-65,106],[-34,26],[-34,18],[-24,28],[-2,68]],[[10677,16032],[67,-55],[139,-106],[30,-17],[60,18],[12,34],[-22,24],[-42,-15],[29,46],[56,-2],[302,-126],[58,-40],[109,-130],[312,-698],[54,-76],[55,-51],[22,-19],[138,-97],[59,-54],[52,-72],[33,-96],[27,-46],[71,-36],[466,-419],[110,-62],[107,-25],[42,-32],[136,-136],[240,-308],[266,-475],[91,-252],[258,-491],[152,-317],[16,-57],[10,-21],[45,-61],[14,-29],[2,-34],[-19,-88],[3,-67],[26,-124],[44,-447],[-3,-68],[-26,-56],[-18,-59],[32,-132],[-5,-44],[84,-274],[6,-90],[-6,-32],[-36,-104],[-20,-36],[-17,-18],[-37,-50],[-10,-23],[1,-25],[17,-78],[-16,-30],[-15,-11],[-5,-3],[-21,-9],[-21,-17],[-54,-81],[-23,-46],[-3,-52],[18,-93],[96,-273],[-9,-74],[-59,41],[-44,-86],[-28,-132],[-9,-97],[2,-110],[-7,-54],[-46,-1],[-26,-38],[-21,-51],[-11,-41],[3,-58],[14,-50],[100,-250],[9,-37],[45,-73],[89,-96],[61,-100],[-37,-86],[89,20],[-127,-306],[-13,-122],[42,-367],[18,-58],[12,-59],[-56,-717],[18,-118],[84,-211],[121,-183],[307,-347],[5,-2],[31,-16],[40,-9],[46,-2],[14,-9],[39,-41],[27,-11],[26,4],[62,34],[40,-16],[4,-22],[-7,-25],[8,-28],[90,-80],[32,-45],[67,-168],[-23,-69],[-2,-57],[19,-55],[192,-276],[23,-24],[57,-47],[18,-20],[11,-31],[1,-59],[5,-33],[18,-33],[45,-64],[10,-36],[-6,-27],[-25,-59],[-6,-35],[18,-60],[122,-172],[66,-185],[48,-74],[30,-75],[17,-32],[55,-71],[17,-32],[20,-65],[4,-58],[-7,-129],[12,-61],[29,-64],[36,-34],[31,29],[17,0],[72,-143],[23,-136],[49,-77],[13,-44],[4,-100],[15,-42],[31,-41],[21,-37],[-14,-31],[17,-40],[19,-124],[53,-162],[25,-136],[2,-74],[-17,-33],[-22,-27],[7,-129],[-13,-46],[-98,0],[-13,-10],[-27,-42],[-13,-10],[-117,6],[-51,12],[-105,48],[-21,20],[-2,30],[2,56],[-14,43],[-31,31],[-36,28],[-26,29],[-14,109],[70,52],[96,43],[63,83],[-49,13],[-46,-14],[-43,-29],[-88,-75],[-19,-11],[-9,20],[-15,54],[-83,194],[-61,106],[-59,45],[-15,-35],[26,-81],[99,-177],[1,-41],[-14,-83],[6,-39],[11,-42],[7,-46],[-7,-46],[-92,-85],[-125,35],[-225,133],[-66,-6],[-105,-62],[-55,-15],[-105,10],[-39,-4],[-42,-26],[-133,-191],[-78,-71],[-92,19],[-5,14],[-19,30],[-20,22],[-10,-15],[3,-33],[13,-44],[2,-24],[-6,-33],[-47,-79],[-37,-103],[-32,58],[-91,89],[-37,58],[-22,59],[-84,321],[-48,114],[-73,95],[-110,80],[-310,134],[-439,311],[-106,57],[-57,19],[-60,7],[-43,12],[-30,30],[-43,79],[-50,67],[-62,62],[-73,53],[-81,42],[-41,-17],[-129,-23],[-44,2],[-59,36],[-34,59],[-49,126],[-43,57],[-213,194],[-29,36],[-19,38],[23,5],[3,10],[-5,12],[-3,14],[-33,37],[-46,39],[-99,65],[-364,169],[-418,197],[-88,57],[-71,64],[-196,248],[-29,15],[-56,13],[-51,33],[-31,46],[4,52],[-43,12],[-42,18],[-76,53],[-46,-35],[-82,-6],[-32,-42],[-18,74],[-6,94],[-13,82],[-44,35],[-17,10],[-26,24],[-37,47],[-53,171],[-22,32],[-35,16],[-124,14],[-32,22],[-26,32],[-45,36],[-144,29],[-53,28],[-88,17],[-56,27],[-103,84],[-60,81],[-129,224],[-81,79],[-114,30],[-116,13],[-63,47],[45,134],[-59,9],[6,40],[129,181],[37,39],[38,16],[29,34],[0,77],[-20,142],[-17,38],[-75,67],[-17,38],[-51,386],[-16,58],[-37,49],[-89,86],[-11,22],[-9,27],[-15,23],[-52,14],[-25,14],[-22,16],[-8,15],[-19,47],[-123,186],[-81,92],[-17,27],[-21,68],[-51,84],[-26,133],[-19,63],[-43,64],[-189,148],[-63,31],[-26,20],[-14,22],[-41,81],[-67,96],[-44,34],[-122,24],[-27,31],[2,51],[28,69],[46,50],[10,22],[-30,9],[-58,-9],[-29,-10],[-12,-12],[-29,-13],[-64,23],[-66,36],[-36,26],[-29,44],[-16,47],[-7,55],[1,148],[13,48],[33,22],[163,-9],[52,9],[41,59],[45,23],[53,10],[43,-9],[-26,63],[-61,-7],[-62,-35],[-29,-21],[-66,7],[-12,46],[9,70],[-1,77],[-27,40],[-135,104],[-43,47],[-51,42],[-58,13],[-59,-42],[-26,61],[-25,96],[-11,89],[17,39],[-39,15],[-12,36],[-2,47],[-10,46],[-30,33],[-26,6],[-11,17],[13,65],[25,76],[8,40],[3,56],[11,39],[50,42],[11,41],[7,82],[47,193],[33,80],[-40,-18],[-46,14],[-39,39],[-16,56],[8,60],[25,55],[34,26],[41,-27],[18,41],[20,35],[23,26],[26,19],[-62,13],[-57,-24],[-42,-1],[-17,82],[-8,147],[24,38],[75,6],[0,22],[-15,3],[-39,17],[20,42],[-6,19],[-51,20],[-26,4],[-17,-9],[-13,4],[-15,42],[-2,41],[20,50],[0,30],[-15,10],[-25,2],[-23,11],[-8,40],[-26,-16],[-28,-7],[-62,1],[-29,12],[13,26],[27,23],[15,1],[-2,40],[-9,13],[-20,10],[-31,28],[-26,15],[-28,-7],[-26,-19],[-18,-21],[-32,41],[-15,39],[-9,41],[-15,43],[-64,83],[-16,62],[-39,101],[-22,42],[-20,68],[3,24],[10,2],[12,-4],[12,8],[26,33],[29,27],[24,35],[18,98],[38,92],[7,60],[-7,34],[-25,59],[-6,18],[6,36],[26,54],[6,33],[-9,38],[-62,135],[-54,85],[-13,40],[-4,67],[16,255],[-17,70],[-59,118],[-13,64],[-18,252],[24,-12],[31,-8],[29,2],[23,18],[4,29],[-20,18],[-25,13],[-12,13],[29,347],[-69,597],[-22,51],[-38,57],[-32,64],[-46,133],[-94,194],[-31,118],[-40,46],[-85,67],[-66,95],[-56,127],[-40,138],[-17,127],[-10,56]],[[5619,16579],[22,46],[22,65],[11,74],[-1,25],[-8,52],[2,26],[17,31],[23,22],[16,26],[-5,42],[-21,69],[-3,51],[17,120],[4,67],[7,33],[17,25],[37,13],[23,-16],[7,-9],[12,-16],[22,-14],[40,-1],[0,6],[39,28],[24,2],[30,-3],[27,-11],[18,-22],[97,-332],[29,-57],[51,-50],[75,-41],[25,-14],[58,-21],[44,-4],[67,9],[39,-11],[83,-67],[47,-25],[159,-53],[89,-44],[47,-13],[46,7],[167,136],[45,0],[4,-18],[-1,-66],[7,-25],[22,-19],[24,-3],[27,0],[29,-5],[60,-39],[24,-57],[8,-141],[6,-34],[11,-33],[31,-60],[5,-24],[-5,-27],[-8,-25],[-1,-3],[-5,-27],[1,-85],[7,-25],[22,-44],[11,2],[14,20],[32,11],[35,-5],[108,-31],[49,15],[68,83],[50,12],[84,-78],[43,-16],[119,29],[33,-13],[17,-38],[7,-61],[-4,-72],[-24,-25],[-34,-18],[-35,-49],[-3,-69],[42,-44],[48,-41],[19,-59],[-14,-116],[-4,-169],[-18,-97],[-4,-55],[-20,-55],[-48,-20],[-54,-12],[-43,-31],[-107,-246],[-17,-34],[-6,-34],[4,-34],[14,-24],[20,-35],[30,-70],[18,-24],[26,-11],[49,3],[26,-6],[58,-45],[50,-64],[39,-75],[30,-74],[43,-23],[73,26],[121,84],[41,43],[33,53],[22,59],[8,66],[32,135],[80,47],[102,21],[100,54],[91,68],[280,123],[90,39],[60,16],[56,-15],[41,-62],[12,-33],[14,-24],[20,-14],[30,-6],[25,-11],[1,-25],[-8,-29],[-2,-27],[51,-135],[41,-51],[54,-13],[26,15],[2,3],[45,47],[31,10],[34,-12],[21,-30],[16,-36],[23,-31],[55,-34],[43,5],[30,38],[21,62],[14,18],[76,53],[16,26],[8,27],[13,25],[29,21],[85,84],[16,113],[2,127],[39,123],[64,88],[192,168],[69,79],[30,94],[-12,231],[16,157]],[[52650,14841],[35,-13],[8,-29],[-13,-28],[-30,-13],[-16,-3],[-46,-19],[-17,-1],[-19,1],[-24,8],[-18,14],[-5,20],[16,28],[29,22],[32,10],[68,3]],[[34952,4576],[3,-11],[2,-27],[-7,-18],[-25,16],[-26,13],[-23,-12],[-20,-27],[-12,-27],[-27,39],[-43,121],[-28,26],[-50,26],[-12,62],[20,130],[5,120],[-49,492],[5,148],[38,94],[90,-39],[53,-93],[27,-124],[3,-517],[22,-220],[54,-172]],[[16265,5745],[6,-148],[-6,-35],[-31,-26],[-48,-18],[-52,-4],[-38,16],[-50,61],[-20,36],[-1,26],[1,16],[-13,50],[3,26],[12,16],[33,19],[17,14],[25,46],[0,44],[-10,45],[-7,48],[6,31],[15,31],[23,18],[28,-4],[12,-13],[4,-17],[4,-36],[7,-21],[33,-58],[16,-38],[31,-125]],[[53967,10800],[59,-19],[29,-41],[-10,-42],[-60,-19],[-97,0],[-36,-41],[-18,-2],[-15,10],[0,10],[-3,61],[-12,16],[-32,29],[-9,16],[-9,32],[9,8],[27,1],[7,0],[38,0],[132,-19]],[[53406,11265],[35,50],[67,-1],[74,-30],[56,-37],[0,-22],[-38,-4],[-25,-19],[-11,-34],[3,-44],[-50,52],[-13,9],[-13,-14],[-9,-27],[-11,-20],[-21,10],[-40,35],[-42,22],[-41,12],[-35,4],[-10,5],[-23,26],[-12,9],[-89,18],[-178,63],[0,18],[205,0],[29,9],[18,21],[15,21],[19,12],[51,-10],[24,-43],[21,-52],[44,-39]],[[44927,13389],[29,-149],[-1,-71],[-46,-55],[-25,1],[-51,35],[-21,-4],[-52,-49],[-65,-44],[4,44],[74,230],[21,30],[75,78],[40,19],[18,-65]],[[6094,13641],[22,-45],[40,-25],[25,-28],[-47,-102],[-12,-114],[-11,-53],[-63,-137],[-9,-53],[-141,30],[-103,-1],[-3,-7],[-3,-7],[-8,-4],[-14,6],[-11,15],[-3,13],[36,24],[9,42],[-13,155],[5,139],[-5,27],[-13,23],[-12,18],[-5,14],[5,28],[10,23],[1,20],[-16,21],[33,15],[13,-17],[10,-26],[25,-14],[20,8],[16,19],[12,20],[14,14],[50,14],[53,-2],[50,-18],[43,-35]],[[4733,15985],[36,92],[62,28],[33,36],[8,-51],[-20,-24],[-19,-34],[0,-36],[-4,-19],[1,-48],[17,-51],[-10,-44],[-25,-42],[-29,-14],[-42,41],[-14,46],[-24,8],[-20,59],[50,53]],[[5030,16348],[27,-46],[9,-27],[5,-24],[-27,-16],[-37,-12],[-22,-28],[-33,-23],[-13,-42],[-42,30],[-13,71],[-50,-2],[-47,-19],[-40,-57],[-36,-46],[-42,0],[-33,-38],[-32,-16],[-21,-10],[-34,144],[17,52],[-8,76],[-42,16],[-68,16],[-47,-4],[-22,42],[-11,52],[-2,123],[63,-26],[50,25],[85,-4],[39,-30],[90,-12],[39,9],[42,39],[31,53],[26,2],[39,0],[-12,25],[-4,23],[24,-4],[23,-12],[20,-64],[20,-42],[31,-30],[54,-27],[-4,-25],[19,-13],[22,-22],[-11,-36],[-22,-41]],[[50699,17540],[65,-92],[44,-92],[-11,-92],[-98,-90],[-67,-22],[-80,-2],[-80,13],[-66,25],[-24,21],[-9,26],[6,26],[24,21],[27,11],[132,6],[41,12],[31,28],[11,49],[-23,26],[-93,5],[-9,40],[30,36],[106,16],[43,29]],[[49487,19286],[37,-39],[15,-71],[-6,-71],[-27,-44],[-48,51],[-38,-20],[-14,-56],[28,-54],[-249,-71],[12,-28],[22,-15],[14,-17],[-12,-32],[-24,-13],[-37,-4],[-38,5],[-27,12],[126,264],[37,20],[87,23],[35,18],[107,142]],[[49925,19247],[195,39],[62,-21],[31,-49],[3,-69],[-25,-228],[-29,-89],[-40,-56],[-45,26],[-49,-22],[-151,-33],[-32,-17],[-15,-16],[-69,-37],[-24,-18],[-18,-34],[-10,-33],[-15,-30],[-28,-25],[-19,72],[-20,226],[12,48],[11,21],[-3,132],[9,27],[14,15],[42,16],[25,16],[63,72],[58,46],[32,15],[35,6]],[[8593,6517],[-10,-33],[-20,-15],[-41,-12],[-18,27],[19,41],[48,22],[22,-30]],[[8765,6533],[-3,-21],[4,-38],[-7,-67],[-36,-39],[-50,-22],[-38,-31],[-16,-17],[-15,-14],[-19,-7],[-5,18],[5,32],[63,180],[35,62],[46,22],[33,-19],[3,-39]],[[22327,25940],[-28,-49],[-66,-65],[-55,-39],[-32,-8],[-30,14],[-24,8],[-27,-12],[-37,-28],[-108,3],[-34,18],[-124,108],[-82,50],[647,0]],[[21290,25940],[108,-179],[17,-42],[10,-46],[8,-123],[-13,-37],[-95,-116],[25,-29],[24,-12],[17,-16],[7,-42],[-10,-46],[-25,-21],[-74,-16],[-356,-123],[-390,-180],[-282,-129],[-575,-242],[-64,-62],[-114,-138],[-69,-60],[-28,-39],[-11,-53],[-7,-8],[-33,-9],[-13,-13],[-2,-13],[4,-33],[-2,-14],[-193,-416],[-49,-82],[-57,-72],[-89,-81],[-110,-18],[-85,-40],[-77,-104],[-73,-135],[-64,-77],[-174,-53],[-464,-151],[-61,11],[-15,10],[-13,14],[-19,12],[-162,28],[-62,26],[-14,9],[-7,33],[20,8],[31,-13],[50,11],[128,95],[28,19],[23,7],[18,12],[10,31],[-12,29],[-27,16],[-11,14],[34,23],[33,-2],[172,-38],[37,9],[43,24],[36,33],[18,35],[-62,-33],[-83,-25],[-81,-2],[-60,40],[-12,33],[11,16],[30,8],[43,5],[62,0],[19,5],[44,36],[0,18],[-25,51],[-8,59],[14,56],[-166,-83],[-107,-30],[-65,38],[-44,100],[28,113],[28,104],[40,136],[-8,113],[-4,209],[11,258],[21,178],[16,436],[2,181],[17,336],[8,124],[13,134],[3418,0]],[[21545,25940],[66,-17],[33,-28],[-3,-74],[-16,-52],[-38,-28],[-67,2],[0,18],[13,56],[-39,63],[-56,55],[-7,5],[114,0]],[[21383,25940],[34,-48],[44,-38],[13,-22],[-50,-6],[-28,26],[-50,88],[37,0]],[[22608,23387],[-61,-7],[1,-33],[26,-43],[16,-39],[-33,15],[-27,-2],[-26,-8],[-30,-5],[-23,-12],[-5,-29],[2,-33],[-2,-27],[3,-13],[4,-13],[-10,-10],[-41,-4],[-13,13],[-41,60],[-8,18],[30,71],[70,79],[85,66],[72,35],[11,-4],[9,-6],[5,-10],[2,-19],[-8,-2],[-26,2],[13,-18],[3,-9],[2,-13]],[[3233,25940],[7,-11],[15,-46],[6,-69],[8,-49],[109,-227],[152,-220],[-21,-6],[-13,1],[-12,3],[-18,2],[-21,-5],[-2,-10],[3,-14],[-7,-14],[-64,-40],[-24,-20],[-50,-61],[-14,-49],[10,-123],[55,-135],[121,-30],[128,-10],[71,-78],[85,10],[86,-1],[80,15],[70,57],[20,45],[13,53],[18,49],[38,35],[32,5],[118,-25],[43,9],[35,21],[26,20],[20,9],[81,22],[43,35],[1,6],[98,-7],[17,-4],[15,24],[35,-2],[49,-22],[25,-12],[14,14],[28,16],[15,13],[31,-34],[99,-49],[3,-29],[-4,-32],[17,-49],[48,-92],[21,20],[1,-223],[13,-58],[21,-39],[24,-33],[20,-36],[8,-46],[0,-143],[6,-30],[25,-48],[4,-34],[-5,-2],[-12,-16],[-12,-21],[-6,-21],[0,-72],[30,-228],[-12,-46],[33,-92],[52,-577],[21,-95],[44,-78],[147,-100],[23,-43],[11,-51],[58,-129],[42,-71],[16,-59],[15,-26],[20,-13],[58,-28],[11,-8],[15,-36],[35,-9],[41,10],[33,24],[-23,86],[-6,119],[-26,103],[-88,39],[51,25],[78,-64],[72,-94],[31,-62],[133,-390],[82,-588],[102,-533],[65,-335],[190,-1033],[157,-424],[139,-249],[34,-60],[19,-61],[-2,-42],[-67,7],[-33,38],[-93,96],[-50,34],[-21,15],[-73,-3],[-49,29],[35,78],[-25,96],[-18,129],[-37,26],[5,236],[-10,205],[-43,114],[-80,37],[-86,-12],[-59,-100],[-19,-51],[-16,-16],[-28,17],[-16,21],[-8,19],[-2,24],[0,35],[18,58],[88,62],[36,55],[9,115],[-16,156],[-36,148],[-47,90],[-50,21],[-50,-10],[-50,-21],[-53,-11],[-26,-26],[-115,-115],[-30,-42],[-5,-57],[30,-250],[47,-141],[17,-109],[16,-51],[29,-21],[7,-9],[55,-53],[12,-20],[7,-14],[85,-240],[48,-93],[63,-58],[57,-8],[64,-2],[53,-19],[23,-64],[0,-4],[2,-66],[4,-35],[10,-28],[23,-23],[37,-1],[25,-14],[24,-24],[-42,-25],[-23,-10],[-17,-15],[-8,-18],[8,-33],[19,-24],[21,-14],[36,-81],[31,-33],[37,-14],[40,6],[30,-33],[22,-19],[22,-9],[66,-4],[30,6],[63,21],[65,68],[20,36],[-7,82],[-1,51],[67,-95],[400,-620],[50,-48],[70,-28],[42,-17],[59,30],[43,-44],[77,-81],[135,-116],[128,-71],[76,-1],[108,4],[320,12],[105,55],[33,64],[87,-17],[36,-34],[48,-13],[18,-13],[5,6],[84,-6],[-20,60],[-40,64],[-171,80],[76,29],[76,-16],[67,-61],[100,-69],[89,-32],[45,-13],[40,-5],[50,-13],[43,-17],[19,-17],[72,-35],[90,-56],[23,-28],[265,-515],[143,-249],[126,-219],[95,-107],[261,-185],[289,-315],[137,-113],[1,0]],[[5619,16579],[-19,62],[-31,49],[-47,15],[32,96],[3,48],[-26,20],[-33,-10],[-20,-24],[-25,-65],[-87,83],[-74,97],[-9,26],[-7,34],[-11,30],[-18,13],[-33,-19],[-19,-6],[-8,14],[5,21],[24,36],[5,15],[-7,30],[-22,49],[-5,33],[-12,10],[-24,-2],[-26,4],[-11,28],[-12,55],[-28,37],[-68,59],[-62,111],[-41,41],[-47,-19],[-23,-1],[-19,39],[-21,76],[-18,27],[-14,12],[-225,97],[-65,68],[1,119],[12,54],[13,6],[38,1],[9,12],[-2,28],[-15,28],[-28,13],[-40,25],[3,56],[11,61],[-19,40],[43,98],[26,46],[29,20],[8,19],[73,111],[-19,33],[-45,-16],[-48,-31],[-31,-15],[-40,21],[-15,36],[2,105],[-91,-59],[-43,-41],[-18,-1],[-8,42],[-19,0],[-51,16],[-68,122],[-46,138],[14,66],[55,34],[48,85],[34,107],[14,99],[-16,0],[-74,-160],[-51,-60],[-64,28],[-11,47],[13,127],[-11,40],[-34,4],[-27,-42],[-18,-58],[-8,-47],[11,-105],[-10,-42],[-46,-17],[-27,9],[-39,20],[-35,24],[-15,20],[-14,9],[-73,14],[-37,26],[-32,45],[-76,140],[24,49],[4,70],[-9,134],[-6,20],[-26,48],[-5,34],[-12,5],[-57,-1],[-20,7],[35,63],[-4,65],[-19,75],[-19,134],[-18,3],[-23,-13],[-23,-3],[-23,13],[-25,21],[-8,19],[30,8],[10,19],[-17,42],[-31,41],[-34,19],[-42,7],[-21,17],[-36,57],[-52,43],[-50,33],[-41,40],[-18,68],[-16,0],[-6,-101],[-26,-82],[-53,-40],[-93,21],[-59,70],[-14,196],[-35,78],[108,95],[17,36],[4,56],[17,88],[-2,50],[-51,-57],[-24,-11],[-33,6],[-14,17],[-40,75],[-19,23],[-42,13],[-42,27],[-19,60],[3,30],[5,18],[1,17],[-9,25],[-18,25],[-42,27],[-21,20],[-15,30],[-4,21],[-11,9],[-33,-9],[-16,-17],[-19,-53],[-9,-11],[-40,-13],[-39,-24],[-37,-17],[-37,12],[-12,22],[-18,66],[-13,25],[-32,22],[-15,-12],[-7,-24],[-9,-16],[-34,-34],[-13,1],[-6,43],[-7,26],[-34,39],[-13,24],[-6,57],[6,145],[-9,40],[9,95],[0,51],[-8,46],[-45,116],[-37,-83],[-16,0],[-9,215],[-18,30],[-49,-16],[-76,-54],[-28,9],[-17,0],[0,-20],[-18,0],[-5,34],[11,158],[14,25],[43,36],[19,39],[-35,18],[-56,13],[-44,21],[-12,-66],[-36,-18],[-45,-3],[-41,-24],[-26,-32],[-41,-38],[-41,-15],[-26,36],[-18,0],[-4,-36],[-14,-19],[-17,3],[-18,30],[-18,0],[0,-39],[-53,7],[-46,-24],[-15,-32],[80,-36],[10,-49],[-1,-57],[16,-44],[1,-81],[-44,-121],[-55,-80],[-35,48],[-16,0],[-2,-27],[-7,-19],[-28,-37],[-41,43],[-48,101],[-67,30],[-8,21],[-11,22],[-29,9],[-29,3],[-21,6],[-17,12],[-14,18],[-10,44],[0,127],[-16,42],[-24,45],[-53,277],[-110,379],[-4,64],[13,53],[17,23],[9,-27],[7,-57],[19,-38],[63,-77],[15,60],[-23,36],[-37,29],[-26,37],[-1,19],[7,15],[8,13],[4,12],[-2,48],[2,14],[29,92],[6,30],[-5,65],[-41,116],[-7,41],[11,27],[18,17],[22,15],[20,22],[9,19],[5,20],[10,184],[13,65],[57,102],[24,117],[51,80],[33,70],[21,15],[10,-8],[38,-11],[32,0],[-8,29],[-7,37],[25,41],[61,75],[-78,-36],[-49,-14],[-25,23],[-7,77],[31,32],[63,3],[41,24],[-29,94],[-76,113],[-34,67],[-14,73],[-2,60],[12,-17],[33,-11],[21,9],[21,21],[39,49],[-48,28],[-1,45],[24,50],[7,40],[32,49],[19,55],[36,184],[20,54],[53,105],[46,262],[37,82],[77,-61],[86,76],[29,37],[-7,29],[-20,5],[-50,-8],[-21,3],[-10,13],[-10,40],[-6,8],[-33,15],[1920,0]],[[4505,25764],[12,-62],[-57,-25],[-34,19],[79,68]],[[3333,16972],[32,-27],[-7,-14],[-26,-12],[-78,-59],[-59,-12],[-54,18],[-40,45],[46,-12],[25,27],[25,35],[47,11],[-19,0],[86,6],[22,-6]],[[4437,16799],[-1,-27],[-5,-17],[-10,-14],[-20,-13],[-31,51],[-33,125],[-88,93],[7,41],[29,35],[25,41],[6,30],[-6,54],[0,19],[14,18],[19,10],[16,13],[6,29],[4,54],[11,54],[17,18],[61,-150],[-1,-145],[41,-109],[22,-86],[-3,-41],[-9,-33],[-19,-15],[-23,-4],[-21,-7],[-8,-24]],[[3743,19021],[35,-29],[70,-17],[21,-35],[-35,3],[-32,-3],[-29,-11],[-21,-18],[-38,-70],[-29,-34],[-13,23],[-1,149],[20,69],[52,-27]],[[2779,20141],[80,-87],[27,-18],[0,-106],[27,-109],[39,-97],[42,-72],[-45,-36],[-60,39],[-52,70],[-67,172],[-8,29],[2,102],[-5,49],[-17,42],[7,6],[3,3],[3,3],[7,10],[17,0]],[[3012,20180],[8,-39],[0,-57],[-9,-54],[-17,-33],[-23,-5],[-23,8],[-17,13],[-8,14],[-6,18],[-15,12],[-18,9],[-14,10],[-65,121],[58,35],[97,-17],[52,-35]],[[1494,21506],[0,2],[121,-78],[40,-47],[21,-85],[4,-322],[-22,-66],[-40,3],[-28,44],[-17,58],[-8,71],[-13,44],[1,24],[13,21],[17,2],[15,6],[7,32],[-2,25],[-7,27],[-14,22],[-22,9],[-28,6],[-10,17],[-4,22],[-33,63],[-15,51],[-8,55],[1,49],[12,-12],[8,-13],[11,-30]],[[1177,20910],[9,13],[16,15],[9,12],[21,-46],[0,-45],[-20,-35],[-84,-31],[-11,-41],[7,-105],[-93,51],[-48,2],[-20,-65],[-9,-75],[-25,-44],[-36,-10],[-45,29],[-14,42],[-13,191],[-10,22],[-12,22],[-10,25],[-4,32],[11,10],[21,10],[14,21],[-10,40],[-15,11],[-46,16],[-10,5],[12,30],[23,24],[17,21],[-7,25],[-14,35],[10,30],[20,29],[10,28],[-3,33],[-11,58],[-4,105],[1,19],[7,22],[20,47],[8,30],[5,62],[-4,64],[-19,119],[12,-2],[8,-4],[17,-14],[19,9],[22,-8],[24,-19],[24,-25],[15,-42],[20,-140],[16,0],[27,29],[36,-24],[40,-46],[42,-38],[19,35],[26,15],[25,-10],[18,-40],[-2,-50],[-17,-47],[-35,-66],[-2,-25],[6,-53],[-4,-24],[-11,-12],[-16,-10],[-15,-14],[-11,-24],[-2,-53],[11,-57],[19,-53],[25,-41]],[[1746,21702],[-41,-204],[-2,-37],[-86,35],[-21,13],[-25,38],[12,18],[57,16],[-11,49],[25,43],[36,44],[21,46],[21,-6],[10,-13],[3,-18],[1,-24]],[[858,24588],[32,-36],[24,-47],[14,-57],[1,-64],[-55,-63],[19,-18],[-38,-22],[-53,-17],[-52,3],[-36,36],[-1,40],[22,239],[-1,20],[7,12],[26,12],[33,6],[23,-10],[35,-34]],[[5471,25895],[14,-4],[27,-31],[12,-40],[-28,-33],[-21,-84],[-8,-94],[-21,-77],[-75,-40],[-6,-20],[-2,-23],[-7,-20],[-18,-10],[-20,-1],[-20,3],[-123,-14],[-26,-10],[-15,57],[-10,110],[-27,57],[38,53],[-4,55],[-22,54],[-12,52],[26,34],[60,9],[65,-5],[154,-44],[48,10],[21,56]],[[839,24171],[28,-21],[30,-57],[-10,-60],[-34,-69],[-61,-170],[-23,4],[-22,57],[-5,61],[12,63],[0,79],[-9,91],[22,47],[48,-11],[24,-14]],[[41678,11124],[658,-25],[195,42],[179,115],[257,105],[90,38],[55,61],[40,85],[94,109],[314,285],[98,67],[437,301],[336,159],[65,9],[49,-21],[4,-39],[-38,-30],[-81,-42],[-21,-40],[-44,-117],[-7,-36],[-18,-41],[-81,-85],[-26,-47]],[[44358,11774],[48,-55],[48,34],[51,66],[58,35],[57,13],[1,35],[-22,46],[-15,50],[5,23],[17,11],[25,4],[29,-1],[1,0]],[[53477,18250],[-44,21],[-1,-30],[27,-72],[-31,-23],[-41,1],[-68,22],[-82,10],[-25,21],[-19,50],[-3,36],[11,26],[25,21],[40,20],[48,-12],[32,9],[26,14],[34,8],[37,-11],[21,-25],[31,-65],[-18,-21]],[[49701,21366],[-11,-58],[-1,-26],[4,-16],[25,-37],[-12,-22],[-25,-15],[-15,-18],[3,-46],[28,-107],[6,-60],[-3,-15],[-13,-26],[-3,-10],[-2,-58],[2,-3],[17,-21],[5,-12],[-13,-6],[-5,-4],[-18,-22],[-4,-6],[-11,-32],[-30,-38],[-40,-32],[-43,-9],[27,-51],[-21,-19],[-42,6],[-37,22],[15,47],[-13,46],[-54,92],[-52,151],[-2,14],[17,403],[29,-21],[6,-30],[2,-30],[17,-21],[38,0],[13,37],[8,44],[21,21],[118,24],[45,-1],[24,-35]],[[49559,21397],[-26,28],[-13,31],[-16,27],[-35,17],[82,76],[47,21],[33,-36],[27,-91],[-1,-20],[-22,-15],[-26,-4],[-25,-8],[-25,-26]],[[49916,21722],[57,-4],[40,-29],[2,-34],[-54,-15],[-60,19],[-25,40],[6,30],[34,-7]],[[50326,22151],[78,-59],[0,-84],[-17,-88],[28,-76],[-22,-35],[-22,-30],[-28,-12],[-35,18],[-75,-44],[-28,67],[-8,107],[-15,72],[17,41],[8,88],[12,35],[22,-15],[23,1],[22,12],[22,20],[-1,-13],[4,-3],[7,1],[8,-3]],[[50111,22129],[28,20],[19,-3],[10,-22],[-2,-37],[-53,-54],[-75,-53],[-64,-9],[-22,77],[21,34],[138,130],[-5,-38],[-3,-10],[-9,-13],[17,-22]],[[53917,25940],[-3,-4],[-13,-26],[-5,-23],[-9,-17],[-53,-10],[-15,-14],[-200,-366],[-91,-103],[-14,-31],[-12,-54],[-28,-55],[-100,-150],[-15,-14],[-96,-73],[-25,-8],[-38,-25],[-131,-157],[-41,-80],[-29,-30],[-47,-11],[-106,0],[-27,-9],[-60,-40],[-29,-14],[-159,-6],[-46,-23],[-21,-16],[-68,-36],[-13,-12],[-14,-90],[-36,-80],[-2,-13],[4,-33],[-2,-14],[-10,-4],[-18,0],[-17,-5],[-8,-23],[-9,-55],[-22,-69],[-58,-131],[-116,-191],[-34,-31],[-234,-141],[-183,-164],[-173,-211],[-47,-38],[-59,-15],[-56,-7],[-34,-16],[-32,-20],[-48,-18],[-54,-4],[-150,23],[-61,-30],[-21,-67],[2,-124],[-21,-62],[-70,-106],[-15,-66],[-12,-32],[-25,-18],[-25,-3],[-11,12],[-13,28],[-31,2],[-243,-81],[-88,-45],[-69,-57],[-9,-17],[-19,-50],[-9,-15],[-89,-30],[-16,-49],[-38,-42],[-70,-59],[-63,-85],[-19,10],[-7,84],[6,34],[24,59],[13,61],[18,25],[18,19],[10,14],[3,29],[-4,63],[1,45],[-1,32],[1,15],[8,15],[23,18],[14,72],[23,57],[56,101],[-6,4],[-10,58],[42,-15],[18,46],[12,60],[25,31],[29,15],[39,37],[38,46],[28,43],[-36,0],[54,96],[42,46],[109,37],[46,41],[39,54],[180,322],[63,76],[205,197],[45,86],[20,65],[20,44],[34,26],[61,8],[32,30],[21,6],[8,-27],[11,-19],[25,-5],[30,5],[24,10],[31,26],[16,25],[32,100],[5,7],[14,14],[9,22],[-5,22],[-14,27],[33,35],[104,74],[34,14],[43,32],[62,139],[37,32],[106,-16],[55,4],[60,30],[-3,-34],[4,-29],[12,-22],[23,-16],[34,29],[25,32],[49,82],[25,29],[189,138],[17,15],[4,26],[-11,63],[7,35],[38,35],[61,33],[55,42],[61,166],[158,124],[53,104],[75,71],[17,22],[5,16],[12,14],[9,15],[946,0]],[[15584,1613],[65,-17],[36,-15],[10,-18],[-30,-57],[-44,-61],[-53,-49],[-59,-19],[-64,-8],[-51,-22],[-91,-71],[-15,-16],[-7,-11],[-14,-6],[-33,-6],[-63,1],[-32,10],[-13,17],[-22,41],[-54,28],[-65,17],[-56,7],[-113,-3],[-46,13],[-18,41],[11,47],[77,125],[12,56],[12,31],[30,34],[34,24],[25,5],[57,-9],[58,9],[73,39],[38,13],[69,-4],[67,-25],[196,-112],[73,-29]]],"transform":{"scale":[0.00038468642592259697,0.00033749911829997924],"translate":[97.96568941603631,0.846808793092915]},"objects":{"base_map.topojson":{"type":"GeometryCollection","geometries":[{"arcs":[[[0,1]],[[2,3]],[[4]],[[5]],[[6]],[[7]],[[8]],[[9]],[[10]],[[11]],[[12]],[[13]],[[14]],[[15]],[[16]],[[17]],[[18]],[[19]],[[20]],[[21]],[[22]],[[23]],[[24]],[[25]],[[26]],[[27]],[[28]],[[29]],[[30]],[[31]],[[32]],[[33]],[[34]],[[35]],[[36]],[[37]],[[38]],[[39]]],"type":"MultiPolygon","properties":{"featurecla":"Admin-0 country","scalerank":0,"LABELRANK":2,"SOVEREIGNT":"Indonesia","SOV_A3":"IDN","ADM0_DIF":0,"LEVEL":2,"TYPE":"Sovereign country","TLC":"1","ADMIN":"Indonesia","ADM0_A3":"IDN","GEOU_DIF":0,"GEOUNIT":"Indonesia","GU_A3":"IDN","SU_DIF":0,"SUBUNIT":"Indonesia","SU_A3":"IDN","BRK_DIFF":0,"NAME":"Indonesia","NAME_LONG":"Indonesia","BRK_A3":"IDN","BRK_NAME":"Indonesia","BRK_GROUP":"","ABBREV":"Indo.","POSTAL":"INDO","FORMAL_EN":"Republic of Indonesia","FORMAL_FR":"","NAME_CIAWF":"Indonesia","NOTE_ADM0":"","NOTE_BRK":"","NAME_SORT":"Indonesia","NAME_ALT":"","MAPCOLOR7":6,"MAPCOLOR8":6,"MAPCOLOR9":6,"MAPCOLOR13":11,"POP_EST":270625568,"POP_RANK":17,"POP_YEAR":2019,"GDP_MD":1119190,"GDP_YEAR":2019,"ECONOMY":"4. Emerging region: MIKT","INCOME_GRP":"4. Lower middle income","FIPS_10":"ID","ISO_A2":"ID","ISO_A2_EH":"ID","ISO_A3":"IDN","ISO_A3_EH":"IDN","ISO_N3":"360","ISO_N3_EH":"360","UN_A3":"360","WB_A2":"ID","WB_A3":"IDN","WOE_ID":23424846,"WOE_ID_EH":23424846,"WOE_NOTE":"Exact WOE match as country","ADM0_ISO":"IDN","ADM0_DIFF":"","ADM0_TLC":"IDN","ADM0_A3_US":"IDN","ADM0_A3_FR":"IDN","ADM0_A3_RU":"IDN","ADM0_A3_ES":"IDN","ADM0_A3_CN":"IDN","ADM0_A3_TW":"IDN","ADM0_A3_IN":"IDN","ADM0_A3_NP":"IDN","ADM0_A3_PK":"IDN","ADM0_A3_DE":"IDN","ADM0_A3_GB":"IDN","ADM0_A3_BR":"IDN","ADM0_A3_IL":"IDN","ADM0_A3_PS":"IDN","ADM0_A3_SA":"IDN","ADM0_A3_EG":"IDN","ADM0_A3_MA":"IDN","ADM0_A3_PT":"IDN","ADM0_A3_AR":"IDN","ADM0_A3_JP":"IDN","ADM0_A3_KO":"IDN","ADM0_A3_VN":"IDN","ADM0_A3_TR":"IDN","ADM0_A3_ID":"IDN","ADM0_A3_PL":"IDN","ADM0_A3_GR":"IDN","ADM0_A3_IT":"IDN","ADM0_A3_NL":"IDN","ADM0_A3_SE":"IDN","ADM0_A3_BD":"IDN","ADM0_A3_UA":"IDN","ADM0_A3_UN":-99,"ADM0_A3_WB":-99,"CONTINENT":"Asia","REGION_UN":"Asia","SUBREGION":"South-Eastern Asia","REGION_WB":"East Asia & Pacific","NAME_LEN":9,"LONG_LEN":9,"ABBREV_LEN":5,"TINY":-99,"HOMEPART":1,"MIN_ZOOM":0,"MIN_LABEL":1.7,"MAX_LABEL":6.7,"LABEL_X":101.892949,"LABEL_Y":-0.954404,"NE_ID":1159320845,"WIKIDATAID":"Q252","NAME_AR":"إندونيسيا","NAME_BN":"ইন্দোনেশিয়া","NAME_DE":"Indonesien","NAME_EN":"Indonesia","NAME_ES":"Indonesia","NAME_FA":"اندونزی","NAME_FR":"Indonésie","NAME_EL":"Ινδονησία","NAME_HE":"אינדונזיה","NAME_HI":"इंडोनेशिया","NAME_HU":"Indonézia","NAME_ID":"Indonesia","NAME_IT":"Indonesia","NAME_JA":"インドネシア","NAME_KO":"인도네시아","NAME_NL":"Indonesië","NAME_PL":"Indonezja","NAME_PT":"Indonésia","NAME_RU":"Индонезия","NAME_SV":"Indonesien","NAME_TR":"Endonezya","NAME_UK":"Індонезія","NAME_UR":"انڈونیشیا","NAME_VI":"Indonesia","NAME_ZH":"印度尼西亚","NAME_ZHT":"印度尼西亞","FCLASS_ISO":"Admin-0 country","TLC_DIFF":"","FCLASS_TLC":"Admin-0 country","FCLASS_US":"","FCLASS_FR":"","FCLASS_RU":"","FCLASS_ES":"","FCLASS_CN":"","FCLASS_TW":"","FCLASS_IN":"","FCLASS_NP":"","FCLASS_PK":"","FCLASS_DE":"","FCLASS_GB":"","FCLASS_BR":"","FCLASS_IL":"","FCLASS_PS":"","FCLASS_SA":"","FCLASS_EG":"","FCLASS_MA":"","FCLASS_PT":"","FCLASS_AR":"","FCLASS_JP":"","FCLASS_KO":"","FCLASS_VN":"","FCLASS_TR":"","FCLASS_ID":"","FCLASS_PL":"","FCLASS_GR":"","FCLASS_IT":"","FCLASS_NL":"","FCLASS_SE":"","FCLASS_BD":"","FCLASS_UA":""}},{"arcs":[[[40,-1]],[[41,-4,42,43,44,45]],[[46,47]],[[48]],[[49]],[[50]],[[51]],[[52]],[[53]],[[54]],[[55]],[[56]],[[57]],[[58]],[[59]],[[60]],[[61]]],"type":"MultiPolygon","properties":{"featurecla":"Admin-0 country","scalerank":0,"LABELRANK":3,"SOVEREIGNT":"Malaysia","SOV_A3":"MYS","ADM0_DIF":0,"LEVEL":2,"TYPE":"Sovereign country","TLC":"1","ADMIN":"Malaysia","ADM0_A3":"MYS","GEOU_DIF":0,"GEOUNIT":"Malaysia","GU_A3":"MYS","SU_DIF":0,"SUBUNIT":"Malaysia","SU_A3":"MYS","BRK_DIFF":0,"NAME":"Malaysia","NAME_LONG":"Malaysia","BRK_A3":"MYS","BRK_NAME":"Malaysia","BRK_GROUP":"","ABBREV":"Malay.","POSTAL":"MY","FORMAL_EN":"Malaysia","FORMAL_FR":"","NAME_CIAWF":"Malaysia","NOTE_ADM0":"","NOTE_BRK":"","NAME_SORT":"Malaysia","NAME_ALT":"","MAPCOLOR7":2,"MAPCOLOR8":4,"MAPCOLOR9":3,"MAPCOLOR13":6,"POP_EST":31949777,"POP_RANK":15,"POP_YEAR":2019,"GDP_MD":364681,"GDP_YEAR":2019,"ECONOMY":"6. Developing region","INCOME_GRP":"3. Upper middle income","FIPS_10":"MY","ISO_A2":"MY","ISO_A2_EH":"MY","ISO_A3":"MYS","ISO_A3_EH":"MYS","ISO_N3":"458","ISO_N3_EH":"458","UN_A3":"458","WB_A2":"MY","WB_A3":"MYS","WOE_ID":23424901,"WOE_ID_EH":23424901,"WOE_NOTE":"Exact WOE match as country","ADM0_ISO":"MYS","ADM0_DIFF":"","ADM0_TLC":"MYS","ADM0_A3_US":"MYS","ADM0_A3_FR":"MYS","ADM0_A3_RU":"MYS","ADM0_A3_ES":"MYS","ADM0_A3_CN":"MYS","ADM0_A3_TW":"MYS","ADM0_A3_IN":"MYS","ADM0_A3_NP":"MYS","ADM0_A3_PK":"MYS","ADM0_A3_DE":"MYS","ADM0_A3_GB":"MYS","ADM0_A3_BR":"MYS","ADM0_A3_IL":"MYS","ADM0_A3_PS":"MYS","ADM0_A3_SA":"MYS","ADM0_A3_EG":"MYS","ADM0_A3_MA":"MYS","ADM0_A3_PT":"MYS","ADM0_A3_AR":"MYS","ADM0_A3_JP":"MYS","ADM0_A3_KO":"MYS","ADM0_A3_VN":"MYS","ADM0_A3_TR":"MYS","ADM0_A3_ID":"MYS","ADM0_A3_PL":"MYS","ADM0_A3_GR":"MYS","ADM0_A3_IT":"MYS","ADM0_A3_NL":"MYS","ADM0_A3_SE":"MYS","ADM0_A3_BD":"MYS","ADM0_A3_UA":"MYS","ADM0_A3_UN":-99,"ADM0_A3_WB":-99,"CONTINENT":"Asia","REGION_UN":"Asia","SUBREGION":"South-Eastern Asia","REGION_WB":"East Asia & Pacific","NAME_LEN":8,"LONG_LEN":8,"ABBREV_LEN":6,"TINY":-99,"HOMEPART":1,"MIN_ZOOM":0,"MIN_LABEL":3,"MAX_LABEL":8,"LABEL_X":113.83708,"LABEL_Y":2.528667,"NE_ID":1159321083,"WIKIDATAID":"Q833","NAME_AR":"ماليزيا","NAME_BN":"মালয়েশিয়া","NAME_DE":"Malaysia","NAME_EN":"Malaysia","NAME_ES":"Malasia","NAME_FA":"مالزی","NAME_FR":"Malaisie","NAME_EL":"Μαλαισία","NAME_HE":"מלזיה","NAME_HI":"मलेशिया","NAME_HU":"Malajzia","NAME_ID":"Malaysia","NAME_IT":"Malaysia","NAME_JA":"マレーシア","NAME_KO":"말레이시아","NAME_NL":"Maleisië","NAME_PL":"Malezja","NAME_PT":"Malásia","NAME_RU":"Малайзия","NAME_SV":"Malaysia","NAME_TR":"Malezya","NAME_UK":"Малайзія","NAME_UR":"ملائیشیا","NAME_VI":"Malaysia","NAME_ZH":"马来西亚","NAME_ZHT":"馬來西亞","FCLASS_ISO":"Admin-0 country","TLC_DIFF":"","FCLASS_TLC":"Admin-0 country","FCLASS_US":"","FCLASS_FR":"","FCLASS_RU":"","FCLASS_ES":"","FCLASS_CN":"","FCLASS_TW":"","FCLASS_IN":"","FCLASS_NP":"","FCLASS_PK":"","FCLASS_DE":"","FCLASS_GB":"","FCLASS_BR":"","FCLASS_IL":"","FCLASS_PS":"","FCLASS_SA":"","FCLASS_EG":"","FCLASS_MA":"","FCLASS_PT":"","FCLASS_AR":"","FCLASS_JP":"","FCLASS_KO":"","FCLASS_VN":"","FCLASS_TR":"","FCLASS_ID":"","FCLASS_PL":"","FCLASS_GR":"","FCLASS_IT":"","FCLASS_NL":"","FCLASS_SE":"","FCLASS_BD":"","FCLASS_UA":""}},{"arcs":[[[62]],[[63]],[[64]],[[65]],[[66]]],"type":"MultiPolygon","properties":{"featurecla":"Admin-0 country","scalerank":0,"LABELRANK":2,"SOVEREIGNT":"Vietnam","SOV_A3":"VNM","ADM0_DIF":0,"LEVEL":2,"TYPE":"Sovereign country","TLC":"1","ADMIN":"Vietnam","ADM0_A3":"VNM","GEOU_DIF":0,"GEOUNIT":"Vietnam","GU_A3":"VNM","SU_DIF":0,"SUBUNIT":"Vietnam","SU_A3":"VNM","BRK_DIFF":0,"NAME":"Vietnam","NAME_LONG":"Vietnam","BRK_A3":"VNM","BRK_NAME":"Vietnam","BRK_GROUP":"","ABBREV":"Viet.","POSTAL":"VN","FORMAL_EN":"Socialist Republic of Vietnam","FORMAL_FR":"","NAME_CIAWF":"Vietnam","NOTE_ADM0":"","NOTE_BRK":"","NAME_SORT":"Vietnam","NAME_ALT":"","MAPCOLOR7":5,"MAPCOLOR8":6,"MAPCOLOR9":5,"MAPCOLOR13":4,"POP_EST":96462106,"POP_RANK":16,"POP_YEAR":2019,"GDP_MD":261921,"GDP_YEAR":2019,"ECONOMY":"5. Emerging region: G20","INCOME_GRP":"4. Lower middle income","FIPS_10":"VM","ISO_A2":"VN","ISO_A2_EH":"VN","ISO_A3":"VNM","ISO_A3_EH":"VNM","ISO_N3":"704","ISO_N3_EH":"704","UN_A3":"704","WB_A2":"VN","WB_A3":"VNM","WOE_ID":23424984,"WOE_ID_EH":23424984,"WOE_NOTE":"Exact WOE match as country","ADM0_ISO":"VNM","ADM0_DIFF":"","ADM0_TLC":"VNM","ADM0_A3_US":"VNM","ADM0_A3_FR":"VNM","ADM0_A3_RU":"VNM","ADM0_A3_ES":"VNM","ADM0_A3_CN":"VNM","ADM0_A3_TW":"VNM","ADM0_A3_IN":"VNM","ADM0_A3_NP":"VNM","ADM0_A3_PK":"VNM","ADM0_A3_DE":"VNM","ADM0_A3_GB":"VNM","ADM0_A3_BR":"VNM","ADM0_A3_IL":"VNM","ADM0_A3_PS":"VNM","ADM0_A3_SA":"VNM","ADM0_A3_EG":"VNM","ADM0_A3_MA":"VNM","ADM0_A3_PT":"VNM","ADM0_A3_AR":"VNM","ADM0_A3_JP":"VNM","ADM0_A3_KO":"VNM","ADM0_A3_VN":"VNM","ADM0_A3_TR":"VNM","ADM0_A3_ID":"VNM","ADM0_A3_PL":"VNM","ADM0_A3_GR":"VNM","ADM0_A3_IT":"VNM","ADM0_A3_NL":"VNM","ADM0_A3_SE":"VNM","ADM0_A3_BD":"VNM","ADM0_A3_UA":"VNM","ADM0_A3_UN":-99,"ADM0_A3_WB":-99,"CONTINENT":"Asia","REGION_UN":"Asia","SUBREGION":"South-Eastern Asia","REGION_WB":"East Asia & Pacific","NAME_LEN":7,"LONG_LEN":7,"ABBREV_LEN":5,"TINY":2,"HOMEPART":1,"MIN_ZOOM":0,"MIN_LABEL":2,"MAX_LABEL":7,"LABEL_X":105.387292,"LABEL_Y":21.715416,"NE_ID":1159321417,"WIKIDATAID":"Q881","NAME_AR":"فيتنام","NAME_BN":"ভিয়েতনাম","NAME_DE":"Vietnam","NAME_EN":"Vietnam","NAME_ES":"Vietnam","NAME_FA":"ویتنام","NAME_FR":"Viêt Nam","NAME_EL":"Βιετνάμ","NAME_HE":"וייטנאם","NAME_HI":"वियतनाम","NAME_HU":"Vietnám","NAME_ID":"Vietnam","NAME_IT":"Vietnam","NAME_JA":"ベトナム","NAME_KO":"베트남","NAME_NL":"Vietnam","NAME_PL":"Wietnam","NAME_PT":"Vietname","NAME_RU":"Вьетнам","NAME_SV":"Vietnam","NAME_TR":"Vietnam","NAME_UK":"В'єтнам","NAME_UR":"ویتنام","NAME_VI":"Việt Nam","NAME_ZH":"越南","NAME_ZHT":"越南","FCLASS_ISO":"Admin-0 country","TLC_DIFF":"","FCLASS_TLC":"Admin-0 country","FCLASS_US":"","FCLASS_FR":"","FCLASS_RU":"","FCLASS_ES":"","FCLASS_CN":"","FCLASS_TW":"","FCLASS_IN":"","FCLASS_NP":"","FCLASS_PK":"","FCLASS_DE":"","FCLASS_GB":"","FCLASS_BR":"","FCLASS_IL":"","FCLASS_PS":"","FCLASS_SA":"","FCLASS_EG":"","FCLASS_MA":"","FCLASS_PT":"","FCLASS_AR":"","FCLASS_JP":"","FCLASS_KO":"","FCLASS_VN":"","FCLASS_TR":"","FCLASS_ID":"","FCLASS_PL":"","FCLASS_GR":"","FCLASS_IT":"","FCLASS_NL":"","FCLASS_SE":"","FCLASS_BD":"","FCLASS_UA":""}},{"arcs":[[[67,-48,68]],[[69]],[[70]],[[71]],[[72]],[[73]],[[74]],[[75]],[[76]],[[77]],[[78]],[[79]],[[80]]],"type":"MultiPolygon","properties":{"featurecla":"Admin-0 country","scalerank":0,"LABELRANK":3,"SOVEREIGNT":"Thailand","SOV_A3":"THA","ADM0_DIF":0,"LEVEL":2,"TYPE":"Sovereign country","TLC":"1","ADMIN":"Thailand","ADM0_A3":"THA","GEOU_DIF":0,"GEOUNIT":"Thailand","GU_A3":"THA","SU_DIF":0,"SUBUNIT":"Thailand","SU_A3":"THA","BRK_DIFF":0,"NAME":"Thailand","NAME_LONG":"Thailand","BRK_A3":"THA","BRK_NAME":"Thailand","BRK_GROUP":"","ABBREV":"Thai.","POSTAL":"TH","FORMAL_EN":"Kingdom of Thailand","FORMAL_FR":"","NAME_CIAWF":"Thailand","NOTE_ADM0":"","NOTE_BRK":"","NAME_SORT":"Thailand","NAME_ALT":"","MAPCOLOR7":3,"MAPCOLOR8":6,"MAPCOLOR9":8,"MAPCOLOR13":1,"POP_EST":69625582,"POP_RANK":16,"POP_YEAR":2019,"GDP_MD":543548,"GDP_YEAR":2019,"ECONOMY":"5. Emerging region: G20","INCOME_GRP":"3. Upper middle income","FIPS_10":"TH","ISO_A2":"TH","ISO_A2_EH":"TH","ISO_A3":"THA","ISO_A3_EH":"THA","ISO_N3":"764","ISO_N3_EH":"764","UN_A3":"764","WB_A2":"TH","WB_A3":"THA","WOE_ID":23424960,"WOE_ID_EH":23424960,"WOE_NOTE":"Exact WOE match as country","ADM0_ISO":"THA","ADM0_DIFF":"","ADM0_TLC":"THA","ADM0_A3_US":"THA","ADM0_A3_FR":"THA","ADM0_A3_RU":"THA","ADM0_A3_ES":"THA","ADM0_A3_CN":"THA","ADM0_A3_TW":"THA","ADM0_A3_IN":"THA","ADM0_A3_NP":"THA","ADM0_A3_PK":"THA","ADM0_A3_DE":"THA","ADM0_A3_GB":"THA","ADM0_A3_BR":"THA","ADM0_A3_IL":"THA","ADM0_A3_PS":"THA","ADM0_A3_SA":"THA","ADM0_A3_EG":"THA","ADM0_A3_MA":"THA","ADM0_A3_PT":"THA","ADM0_A3_AR":"THA","ADM0_A3_JP":"THA","ADM0_A3_KO":"THA","ADM0_A3_VN":"THA","ADM0_A3_TR":"THA","ADM0_A3_ID":"THA","ADM0_A3_PL":"THA","ADM0_A3_GR":"THA","ADM0_A3_IT":"THA","ADM0_A3_NL":"THA","ADM0_A3_SE":"THA","ADM0_A3_BD":"THA","ADM0_A3_UA":"THA","ADM0_A3_UN":-99,"ADM0_A3_WB":-99,"CONTINENT":"Asia","REGION_UN":"Asia","SUBREGION":"South-Eastern Asia","REGION_WB":"East Asia & Pacific","NAME_LEN":8,"LONG_LEN":8,"ABBREV_LEN":5,"TINY":-99,"HOMEPART":1,"MIN_ZOOM":0,"MIN_LABEL":2.7,"MAX_LABEL":8,"LABEL_X":101.073198,"LABEL_Y":15.45974,"NE_ID":1159321305,"WIKIDATAID":"Q869","NAME_AR":"تايلاند","NAME_BN":"থাইল্যান্ড","NAME_DE":"Thailand","NAME_EN":"Thailand","NAME_ES":"Tailandia","NAME_FA":"تایلند","NAME_FR":"Thaïlande","NAME_EL":"Ταϊλάνδη","NAME_HE":"תאילנד","NAME_HI":"थाईलैण्ड","NAME_HU":"Thaiföld","NAME_ID":"Thailand","NAME_IT":"Thailandia","NAME_JA":"タイ王国","NAME_KO":"태국","NAME_NL":"Thailand","NAME_PL":"Tajlandia","NAME_PT":"Tailândia","NAME_RU":"Таиланд","NAME_SV":"Thailand","NAME_TR":"Tayland","NAME_UK":"Таїланд","NAME_UR":"تھائی لینڈ","NAME_VI":"Thái Lan","NAME_ZH":"泰国","NAME_ZHT":"泰國","FCLASS_ISO":"Admin-0 country","TLC_DIFF":"","FCLASS_TLC":"Admin-0 country","FCLASS_US":"","FCLASS_FR":"","FCLASS_RU":"","FCLASS_ES":"","FCLASS_CN":"","FCLASS_TW":"","FCLASS_IN":"","FCLASS_NP":"","FCLASS_PK":"","FCLASS_DE":"","FCLASS_GB":"","FCLASS_BR":"","FCLASS_IL":"","FCLASS_PS":"","FCLASS_SA":"","FCLASS_EG":"","FCLASS_MA":"","FCLASS_PT":"","FCLASS_AR":"","FCLASS_JP":"","FCLASS_KO":"","FCLASS_VN":"","FCLASS_TR":"","FCLASS_ID":"","FCLASS_PL":"","FCLASS_GR":"","FCLASS_IT":"","FCLASS_NL":"","FCLASS_SE":"","FCLASS_BD":"","FCLASS_UA":""}},{"arcs":[[[-44,81]],[[-46,82]]],"type":"MultiPolygon","properties":{"featurecla":"Admin-0 country","scalerank":0,"LABELRANK":6,"SOVEREIGNT":"Brunei","SOV_A3":"BRN","ADM0_DIF":0,"LEVEL":2,"TYPE":"Sovereign country","TLC":"1","ADMIN":"Brunei","ADM0_A3":"BRN","GEOU_DIF":0,"GEOUNIT":"Brunei","GU_A3":"BRN","SU_DIF":0,"SUBUNIT":"Brunei","SU_A3":"BRN","BRK_DIFF":0,"NAME":"Brunei","NAME_LONG":"Brunei Darussalam","BRK_A3":"BRN","BRK_NAME":"Brunei","BRK_GROUP":"","ABBREV":"Brunei","POSTAL":"BN","FORMAL_EN":"Negara Brunei Darussalam","FORMAL_FR":"","NAME_CIAWF":"Brunei","NOTE_ADM0":"","NOTE_BRK":"","NAME_SORT":"Brunei","NAME_ALT":"","MAPCOLOR7":4,"MAPCOLOR8":6,"MAPCOLOR9":6,"MAPCOLOR13":12,"POP_EST":433285,"POP_RANK":10,"POP_YEAR":2019,"GDP_MD":13469,"GDP_YEAR":2019,"ECONOMY":"6. Developing region","INCOME_GRP":"2. High income: nonOECD","FIPS_10":"BX","ISO_A2":"BN","ISO_A2_EH":"BN","ISO_A3":"BRN","ISO_A3_EH":"BRN","ISO_N3":"096","ISO_N3_EH":"096","UN_A3":"096","WB_A2":"BN","WB_A3":"BRN","WOE_ID":23424773,"WOE_ID_EH":23424773,"WOE_NOTE":"Exact WOE match as country","ADM0_ISO":"BRN","ADM0_DIFF":"","ADM0_TLC":"BRN","ADM0_A3_US":"BRN","ADM0_A3_FR":"BRN","ADM0_A3_RU":"BRN","ADM0_A3_ES":"BRN","ADM0_A3_CN":"BRN","ADM0_A3_TW":"BRN","ADM0_A3_IN":"BRN","ADM0_A3_NP":"BRN","ADM0_A3_PK":"BRN","ADM0_A3_DE":"BRN","ADM0_A3_GB":"BRN","ADM0_A3_BR":"BRN","ADM0_A3_IL":"BRN","ADM0_A3_PS":"BRN","ADM0_A3_SA":"BRN","ADM0_A3_EG":"BRN","ADM0_A3_MA":"BRN","ADM0_A3_PT":"BRN","ADM0_A3_AR":"BRN","ADM0_A3_JP":"BRN","ADM0_A3_KO":"BRN","ADM0_A3_VN":"BRN","ADM0_A3_TR":"BRN","ADM0_A3_ID":"BRN","ADM0_A3_PL":"BRN","ADM0_A3_GR":"BRN","ADM0_A3_IT":"BRN","ADM0_A3_NL":"BRN","ADM0_A3_SE":"BRN","ADM0_A3_BD":"BRN","ADM0_A3_UA":"BRN","ADM0_A3_UN":-99,"ADM0_A3_WB":-99,"CONTINENT":"Asia","REGION_UN":"Asia","SUBREGION":"South-Eastern Asia","REGION_WB":"East Asia & Pacific","NAME_LEN":6,"LONG_LEN":17,"ABBREV_LEN":6,"TINY":2,"HOMEPART":1,"MIN_ZOOM":0,"MIN_LABEL":4,"MAX_LABEL":9,"LABEL_X":114.551943,"LABEL_Y":4.448298,"NE_ID":1159320451,"WIKIDATAID":"Q921","NAME_AR":"بروناي","NAME_BN":"ব্রুনাই","NAME_DE":"Brunei","NAME_EN":"Brunei","NAME_ES":"Brunéi","NAME_FA":"برونئی","NAME_FR":"Brunei","NAME_EL":"Μπρουνέι","NAME_HE":"ברוניי","NAME_HI":"ब्रुनेई","NAME_HU":"Brunei","NAME_ID":"Brunei Darussalam","NAME_IT":"Brunei","NAME_JA":"ブルネイ","NAME_KO":"브루나이","NAME_NL":"Brunei","NAME_PL":"Brunei","NAME_PT":"Brunei","NAME_RU":"Бруней","NAME_SV":"Brunei","NAME_TR":"Brunei","NAME_UK":"Бруней","NAME_UR":"برونائی دار السلام","NAME_VI":"Brunei","NAME_ZH":"文莱","NAME_ZHT":"汶萊","FCLASS_ISO":"Admin-0 country","TLC_DIFF":"","FCLASS_TLC":"Admin-0 country","FCLASS_US":"","FCLASS_FR":"","FCLASS_RU":"","FCLASS_ES":"","FCLASS_CN":"","FCLASS_TW":"","FCLASS_IN":"","FCLASS_NP":"","FCLASS_PK":"","FCLASS_DE":"","FCLASS_GB":"","FCLASS_BR":"","FCLASS_IL":"","FCLASS_PS":"","FCLASS_SA":"","FCLASS_EG":"","FCLASS_MA":"","FCLASS_PT":"","FCLASS_AR":"","FCLASS_JP":"","FCLASS_KO":"","FCLASS_VN":"","FCLASS_TR":"","FCLASS_ID":"","FCLASS_PL":"","FCLASS_GR":"","FCLASS_IT":"","FCLASS_NL":"","FCLASS_SE":"","FCLASS_BD":"","FCLASS_UA":""}},{"arcs":[[[83]],[[84]],[[85]],[[86]],[[87]],[[88]],[[89]]],"type":"MultiPolygon","properties":{"featurecla":"Admin-0 country","scalerank":0,"LABELRANK":2,"SOVEREIGNT":"Philippines","SOV_A3":"PHL","ADM0_DIF":0,"LEVEL":2,"TYPE":"Sovereign country","TLC":"1","ADMIN":"Philippines","ADM0_A3":"PHL","GEOU_DIF":0,"GEOUNIT":"Philippines","GU_A3":"PHL","SU_DIF":0,"SUBUNIT":"Philippines","SU_A3":"PHL","BRK_DIFF":0,"NAME":"Philippines","NAME_LONG":"Philippines","BRK_A3":"PHL","BRK_NAME":"Philippines","BRK_GROUP":"","ABBREV":"Phil.","POSTAL":"PH","FORMAL_EN":"Republic of the Philippines","FORMAL_FR":"","NAME_CIAWF":"Philippines","NOTE_ADM0":"","NOTE_BRK":"","NAME_SORT":"Philippines","NAME_ALT":"","MAPCOLOR7":3,"MAPCOLOR8":2,"MAPCOLOR9":2,"MAPCOLOR13":8,"POP_EST":108116615,"POP_RANK":17,"POP_YEAR":2019,"GDP_MD":376795,"GDP_YEAR":2019,"ECONOMY":"5. Emerging region: G20","INCOME_GRP":"4. Lower middle income","FIPS_10":"RP","ISO_A2":"PH","ISO_A2_EH":"PH","ISO_A3":"PHL","ISO_A3_EH":"PHL","ISO_N3":"608","ISO_N3_EH":"608","UN_A3":"608","WB_A2":"PH","WB_A3":"PHL","WOE_ID":23424934,"WOE_ID_EH":23424934,"WOE_NOTE":"Exact WOE match as country","ADM0_ISO":"PHL","ADM0_DIFF":"","ADM0_TLC":"PHL","ADM0_A3_US":"PHL","ADM0_A3_FR":"PHL","ADM0_A3_RU":"PHL","ADM0_A3_ES":"PHL","ADM0_A3_CN":"PHL","ADM0_A3_TW":"PHL","ADM0_A3_IN":"PHL","ADM0_A3_NP":"PHL","ADM0_A3_PK":"PHL","ADM0_A3_DE":"PHL","ADM0_A3_GB":"PHL","ADM0_A3_BR":"PHL","ADM0_A3_IL":"PHL","ADM0_A3_PS":"PHL","ADM0_A3_SA":"PHL","ADM0_A3_EG":"PHL","ADM0_A3_MA":"PHL","ADM0_A3_PT":"PHL","ADM0_A3_AR":"PHL","ADM0_A3_JP":"PHL","ADM0_A3_KO":"PHL","ADM0_A3_VN":"PHL","ADM0_A3_TR":"PHL","ADM0_A3_ID":"PHL","ADM0_A3_PL":"PHL","ADM0_A3_GR":"PHL","ADM0_A3_IT":"PHL","ADM0_A3_NL":"PHL","ADM0_A3_SE":"PHL","ADM0_A3_BD":"PHL","ADM0_A3_UA":"PHL","ADM0_A3_UN":-99,"ADM0_A3_WB":-99,"CONTINENT":"Asia","REGION_UN":"Asia","SUBREGION":"South-Eastern Asia","REGION_WB":"East Asia & Pacific","NAME_LEN":11,"LONG_LEN":11,"ABBREV_LEN":5,"TINY":-99,"HOMEPART":1,"MIN_ZOOM":0,"MIN_LABEL":2.5,"MAX_LABEL":7,"LABEL_X":122.465,"LABEL_Y":11.198,"NE_ID":1159321169,"WIKIDATAID":"Q928","NAME_AR":"الفلبين","NAME_BN":"ফিলিপাইন","NAME_DE":"Philippinen","NAME_EN":"Philippines","NAME_ES":"Filipinas","NAME_FA":"فیلیپین","NAME_FR":"Philippines","NAME_EL":"Φιλιππίνες","NAME_HE":"הפיליפינים","NAME_HI":"फ़िलीपीन्स","NAME_HU":"Fülöp-szigetek","NAME_ID":"Filipina","NAME_IT":"Filippine","NAME_JA":"フィリピン","NAME_KO":"필리핀","NAME_NL":"Filipijnen","NAME_PL":"Filipiny","NAME_PT":"Filipinas","NAME_RU":"Филиппины","NAME_SV":"Filippinerna","NAME_TR":"Filipinler","NAME_UK":"Філіппіни","NAME_UR":"فلپائن","NAME_VI":"Philippines","NAME_ZH":"菲律宾","NAME_ZHT":"菲律賓","FCLASS_ISO":"Admin-0 country","TLC_DIFF":"","FCLASS_TLC":"Admin-0 country","FCLASS_US":"","FCLASS_FR":"","FCLASS_RU":"","FCLASS_ES":"","FCLASS_CN":"","FCLASS_TW":"","FCLASS_IN":"","FCLASS_NP":"","FCLASS_PK":"","FCLASS_DE":"","FCLASS_GB":"","FCLASS_BR":"","FCLASS_IL":"","FCLASS_PS":"","FCLASS_SA":"","FCLASS_EG":"","FCLASS_MA":"","FCLASS_PT":"","FCLASS_AR":"","FCLASS_JP":"","FCLASS_KO":"","FCLASS_VN":"","FCLASS_TR":"","FCLASS_ID":"","FCLASS_PL":"","FCLASS_GR":"","FCLASS_IT":"","FCLASS_NL":"","FCLASS_SE":"","FCLASS_BD":"","FCLASS_UA":""}},{"arcs":[[90]],"type":"Polygon","properties":{"featurecla":"Admin-0 country","scalerank":3,"LABELRANK":6,"SOVEREIGNT":"Singapore","SOV_A3":"SGP","ADM0_DIF":0,"LEVEL":2,"TYPE":"Sovereign country","TLC":"1","ADMIN":"Singapore","ADM0_A3":"SGP","GEOU_DIF":0,"GEOUNIT":"Singapore","GU_A3":"SGP","SU_DIF":0,"SUBUNIT":"Singapore","SU_A3":"SGP","BRK_DIFF":0,"NAME":"Singapore","NAME_LONG":"Singapore","BRK_A3":"SGP","BRK_NAME":"Singapore","BRK_GROUP":"","ABBREV":"Sing.","POSTAL":"SG","FORMAL_EN":"Republic of Singapore","FORMAL_FR":"","NAME_CIAWF":"Singapore","NOTE_ADM0":"","NOTE_BRK":"","NAME_SORT":"Singapore","NAME_ALT":"","MAPCOLOR7":5,"MAPCOLOR8":3,"MAPCOLOR9":7,"MAPCOLOR13":3,"POP_EST":5703569,"POP_RANK":13,"POP_YEAR":2019,"GDP_MD":372062,"GDP_YEAR":2019,"ECONOMY":"6. Developing region","INCOME_GRP":"2. High income: nonOECD","FIPS_10":"SN","ISO_A2":"SG","ISO_A2_EH":"SG","ISO_A3":"SGP","ISO_A3_EH":"SGP","ISO_N3":"702","ISO_N3_EH":"702","UN_A3":"702","WB_A2":"SG","WB_A3":"SGP","WOE_ID":23424948,"WOE_ID_EH":23424948,"WOE_NOTE":"Exact WOE match as country","ADM0_ISO":"SGP","ADM0_DIFF":"","ADM0_TLC":"SGP","ADM0_A3_US":"SGP","ADM0_A3_FR":"SGP","ADM0_A3_RU":"SGP","ADM0_A3_ES":"SGP","ADM0_A3_CN":"SGP","ADM0_A3_TW":"SGP","ADM0_A3_IN":"SGP","ADM0_A3_NP":"SGP","ADM0_A3_PK":"SGP","ADM0_A3_DE":"SGP","ADM0_A3_GB":"SGP","ADM0_A3_BR":"SGP","ADM0_A3_IL":"SGP","ADM0_A3_PS":"SGP","ADM0_A3_SA":"SGP","ADM0_A3_EG":"SGP","ADM0_A3_MA":"SGP","ADM0_A3_PT":"SGP","ADM0_A3_AR":"SGP","ADM0_A3_JP":"SGP","ADM0_A3_KO":"SGP","ADM0_A3_VN":"SGP","ADM0_A3_TR":"SGP","ADM0_A3_ID":"SGP","ADM0_A3_PL":"SGP","ADM0_A3_GR":"SGP","ADM0_A3_IT":"SGP","ADM0_A3_NL":"SGP","ADM0_A3_SE":"SGP","ADM0_A3_BD":"SGP","ADM0_A3_UA":"SGP","ADM0_A3_UN":-99,"ADM0_A3_WB":-99,"CONTINENT":"Asia","REGION_UN":"Asia","SUBREGION":"South-Eastern Asia","REGION_WB":"East Asia & Pacific","NAME_LEN":9,"LONG_LEN":9,"ABBREV_LEN":5,"TINY":3,"HOMEPART":1,"MIN_ZOOM":0,"MIN_LABEL":4,"MAX_LABEL":9,"LABEL_X":103.816925,"LABEL_Y":1.366587,"NE_ID":1159321247,"WIKIDATAID":"Q334","NAME_AR":"سنغافورة","NAME_BN":"সিঙ্গাপুর","NAME_DE":"Singapur","NAME_EN":"Singapore","NAME_ES":"Singapur","NAME_FA":"سنگاپور","NAME_FR":"Singapour","NAME_EL":"Σιγκαπούρη","NAME_HE":"סינגפור","NAME_HI":"सिंगापुर","NAME_HU":"Szingapúr","NAME_ID":"Singapura","NAME_IT":"Singapore","NAME_JA":"シンガポール","NAME_KO":"싱가포르","NAME_NL":"Singapore","NAME_PL":"Singapur","NAME_PT":"Singapura","NAME_RU":"Сингапур","NAME_SV":"Singapore","NAME_TR":"Singapur","NAME_UK":"Сінгапур","NAME_UR":"سنگاپور","NAME_VI":"Singapore","NAME_ZH":"新加坡","NAME_ZHT":"新加坡","FCLASS_ISO":"Admin-0 country","TLC_DIFF":"","FCLASS_TLC":"Admin-0 country","FCLASS_US":"","FCLASS_FR":"","FCLASS_RU":"","FCLASS_ES":"","FCLASS_CN":"","FCLASS_TW":"","FCLASS_IN":"","FCLASS_NP":"","FCLASS_PK":"","FCLASS_DE":"","FCLASS_GB":"","FCLASS_BR":"","FCLASS_IL":"","FCLASS_PS":"","FCLASS_SA":"","FCLASS_EG":"","FCLASS_MA":"","FCLASS_PT":"","FCLASS_AR":"","FCLASS_JP":"","FCLASS_KO":"","FCLASS_VN":"","FCLASS_TR":"","FCLASS_ID":"","FCLASS_PL":"","FCLASS_GR":"","FCLASS_IT":"","FCLASS_NL":"","FCLASS_SE":"","FCLASS_BD":"","FCLASS_UA":""}}]}}}