{"type":"Topology","arcs":[[[49664,14673],[0,0],[91,-18],[120,0],[182,0],[144,-2]],[[50201,14653],[14,-35],[16,-135],[43,-120],[-88,-69],[-38,-15],[-38,-1],[-90,26],[-51,85],[-149,96],[-62,95],[-94,93]],[[49303,14662],[0,0],[-31,-23],[-71,-73],[-26,-16],[-29,4],[-356,138],[3,-13],[8,-33],[6,-15],[20,-20],[25,-9],[20,-12],[9,-32],[-11,-14],[-18,-32],[-1,-32],[38,-15],[55,-4],[52,-13],[41,-25],[24,-38],[-19,-43],[0,-28],[28,-12],[27,10],[28,21],[28,12],[26,-14],[247,-276],[38,-30],[88,-20],[45,-24],[29,-33],[-2,-37],[-42,-33],[-58,-8],[-60,15],[-99,77],[-54,22],[-123,9],[0,-20],[75,-7],[73,-38],[64,-54],[52,-54],[35,-17],[41,7],[42,14],[36,7],[21,-10],[78,-55],[15,-29],[138,-155],[13,-35],[2,-25],[-16,-15],[-43,-5],[-154,19],[33,-45],[52,-35],[113,-43],[108,-23],[30,-25],[-9,-54],[-23,-26],[-78,-49],[-28,-29],[-43,-75],[-33,-21],[-258,-27],[-58,13],[-109,56],[-51,13],[-57,26],[-34,62],[-25,73],[-42,81],[-8,32],[-5,66],[-11,21],[-27,19],[-54,31],[30,-64],[6,-18],[26,-174],[20,-43],[36,-53],[27,-74],[2,-74],[-38,-54],[-41,3],[-115,62],[-53,16],[-340,-4],[-218,42],[-341,-4],[-92,-42],[-66,-112],[62,41],[77,25],[82,12],[145,2],[79,-15],[46,-39],[-30,-78],[-14,-66],[27,-78],[46,-71],[40,-44],[28,-14],[99,-27],[36,-23],[20,-24],[36,-76],[51,32],[78,6],[81,-12],[60,-26],[21,-5],[17,4],[12,-2],[4,-26],[0,-83],[-4,-40],[-13,-36],[-19,-26],[-27,-10],[-26,-15],[-24,-31],[-31,-58],[-18,-19],[-24,-21],[-22,-23],[-8,-29],[-9,-122],[-9,-32],[-39,-41],[-30,5],[-57,58],[-80,35],[-21,5],[-24,-9],[-1,-23],[9,-29],[6,-31],[31,-33],[188,-121],[46,-17],[52,-6],[108,1],[61,-13],[10,-32],[-9,-46],[2,-51],[70,-80],[102,-9],[115,11],[111,-26],[30,-22],[10,-19],[6,-22],[19,-28],[11,-32],[-13,-30],[-26,-22],[-28,-9],[-22,-21],[-68,-96],[-27,-28],[41,-14],[56,5],[55,18],[38,23],[50,10],[52,-35],[33,-46],[-7,-22],[-47,-11],[-97,-51],[-47,-18],[-183,-22],[0,-21],[63,1],[192,-42],[254,-20],[-30,-45],[-55,-23],[-60,-17],[-45,-28],[-98,-81],[-20,-34],[36,-40],[106,-39],[108,-15],[100,-29],[84,-79],[21,-47],[11,-58],[12,-197],[18,-58],[23,-49],[26,-43],[108,-104],[39,-63],[257,-255],[23,-30],[32,-66],[19,-26],[45,-131],[35,-54],[20,53],[49,-44],[50,-88],[36,-100],[9,-79],[-21,-47],[-89,-126],[-34,-33],[-183,-51],[-53,-29],[-38,-57],[-5,-59],[-10,-58],[-54,-53],[-1,-39],[-84,6],[-150,33],[48,-55],[100,-60],[49,-54],[-108,-35],[-90,-6],[-90,6],[-97,24],[-37,-4],[24,-41],[39,-19],[101,-11],[42,-13],[34,-34],[33,-43],[30,-24],[31,21],[16,0],[4,-128],[-7,-68],[-23,-30],[-18,-16],[2,-36],[14,-35],[20,-16],[28,5],[8,6],[5,-5],[21,-26],[25,-49],[23,-62],[32,-53],[55,-22],[54,-10],[41,-23],[37,-27],[42,-22],[64,2],[30,-6],[12,-25],[-4,-38],[-6,-29],[2,-26],[18,-30],[190,-236],[155,-69],[227,-207],[106,-62],[110,-25],[45,-32],[64,-78],[60,-15],[22,-18],[-18,-39],[-39,-33],[-11,-22],[14,-28],[26,-13],[62,-1],[29,-15],[5,-21],[8,-76],[6,-25],[18,0],[35,22],[42,-19],[84,-65],[32,-10],[122,-10],[82,-48],[163,-212],[100,-49],[43,-31],[66,-73],[59,-82],[22,-61],[-11,-13],[-19,-5],[-17,-9],[-8,-26],[89,-42],[30,-31],[45,-60],[81,-184],[37,-6],[20,-1],[25,7],[17,14],[32,38],[24,9],[49,-7],[135,-56],[42,-29],[12,-31],[-6,-33],[-11,-35],[-4,-33],[8,-14],[15,-13],[13,-20],[1,-35],[-23,-42],[-85,-80],[-37,-69],[-44,-32],[-198,-99],[-36,-36],[-28,-81],[-33,-35],[-41,-27],[-39,-13],[-31,-1],[-32,4],[-29,10],[-57,39],[-64,18],[-31,23],[-52,31],[-61,1],[-62,-18],[-149,-80],[-20,-16],[-27,-13],[-28,11],[-28,20],[-26,11],[-53,12],[-108,48],[-119,5],[-25,-8],[-21,-46],[-22,-24],[-28,-19],[-21,-8],[-44,17],[-29,38],[-25,47],[-37,42],[-42,18],[-341,49],[-155,53],[-86,47],[-73,60],[-64,79],[-43,88],[-61,199],[-42,83],[-36,29],[-103,60],[-22,25],[-12,25],[-28,0],[-31,-15],[-21,-19],[-7,-28],[5,-28],[22,-49],[85,-119],[12,-22],[98,-145],[12,-51],[13,-119],[22,-47],[8,-12],[19,-39],[7,-5],[22,-11],[7,-6],[21,-40],[15,-42],[10,-47],[6,-67],[-9,-62],[-33,-26],[-41,-8],[-29,-1],[-30,9],[-25,21],[-29,56],[-18,25],[-21,17],[-25,13],[-29,10],[-34,2],[-31,-6],[-20,-15],[-15,-14],[-13,-7],[-90,-4],[-55,-12],[-48,-25],[-60,-58],[-120,-155],[-36,-75],[-12,-189],[-15,-47],[-62,-59],[-19,-32],[-11,-30],[-14,-65],[-11,-30],[-144,-188],[-20,-69],[7,-29],[28,-76],[3,-28],[-21,-32],[-31,-20],[-32,-15],[-26,-15],[-43,-54],[-41,-119],[-97,-175],[-7,-32],[4,-15],[9,-13],[11,-24],[8,-62],[-9,-49],[-24,-42],[-61,-66],[-19,-33],[-10,-37],[6,-38],[16,-8],[26,-1],[29,-7],[21,-25],[-27,-21],[-61,-25],[-22,-17],[-15,-31],[2,-20],[8,-20],[5,-29],[-2,-33],[-3,-16],[0,-13],[5,-22],[18,-9],[26,0],[13,-11],[-21,-41],[29,-13],[24,-21],[20,-30],[18,-38],[15,-68],[3,-38],[-9,-17],[-5,-13],[-32,-51],[-15,-31],[-33,-32],[-15,-16],[-11,-20],[-41,-110],[-11,-46],[-9,-124],[-14,-59],[-57,-103],[-3,-72],[22,-54],[41,-79],[45,-66],[29,-17],[26,7],[4,-50],[-8,-67],[-13,-44],[-57,-72],[-26,-47],[2,-35],[21,-55],[-10,-68],[-28,-65],[-28,-49],[0,-22],[89,49],[319,258],[52,23],[39,-11],[23,-53],[-20,-33],[-32,-26],[-17,-32],[-20,-28],[-92,-27],[-33,-16],[-9,-36],[92,-25],[25,-31],[-4,-115],[-10,-45],[-34,-55],[-6,-12],[-12,-6],[-82,-5],[-18,-7],[-15,-12],[0,-21],[44,-17],[48,-9],[28,-22],[-11,-54],[-31,-30],[-36,-22],[-17,-27],[30,-45],[-31,-15],[-32,2],[-73,13],[-37,-10],[-7,-20],[15,-21],[29,-9],[55,-10],[144,-43],[72,-10],[30,-10],[3,-4],[-21476,0],[44,13],[20,18],[-8,25],[-24,9],[-68,-9],[-26,11],[-48,76],[-24,26],[-57,44],[-61,28],[-28,6],[-44,3],[-20,11],[0,20],[12,5],[25,18],[-11,11],[-14,19],[-12,11],[0,18],[48,0],[87,-18],[48,0],[0,18],[-62,50],[-69,30],[-81,11],[-175,-8],[-41,-18],[-15,12],[-16,18],[-40,18],[-11,19],[-8,21],[-9,13],[-26,16],[-8,3],[-11,0],[-27,1],[-27,-3],[-20,-9],[-22,-1],[-30,23],[-55,60],[-24,39],[-18,48],[-54,268],[-6,121],[5,26],[26,4],[62,-1],[-86,137],[-33,81],[28,70],[0,19],[-32,13],[-34,8],[-24,-14],[-1,-48],[-44,28],[-11,48],[13,50],[25,37],[26,15],[42,13],[86,13],[74,-6],[77,-21],[68,-32],[44,-43],[17,0],[-16,47],[-53,62],[-21,36],[-6,34],[6,120],[-10,165],[-19,80],[-51,95],[-8,44],[-2,88],[11,41],[30,1],[67,-32],[272,-39],[-53,51],[-116,89],[-157,151],[-27,14],[-171,392],[-147,131],[-35,19],[-45,10],[-167,15],[-64,40],[-21,76],[27,118],[30,85],[5,43],[1,68],[-16,60],[-67,117],[-9,79],[12,32],[37,67],[7,34],[0,123],[-10,74],[-26,61],[-109,160],[3,27],[20,29],[13,61],[-19,71],[-70,102],[-2,62],[19,29],[38,41],[43,37],[35,16],[52,8],[40,24],[34,39],[30,52],[40,125],[-1,118],[-141,434],[-7,71],[22,42],[52,18],[107,12],[106,33],[199,89],[92,65],[41,42],[151,212],[33,70],[40,64],[61,44],[0,20],[-68,8],[-35,-46],[-27,-58],[-42,-28],[-35,-32],[-61,-141],[-31,-32],[-10,-16],[-13,-36],[-19,-36],[-31,-16],[-31,-7],[-25,-17],[-43,-37],[-58,-21],[-143,-15],[-69,-26],[12,95],[41,80],[91,134],[37,100],[17,94],[0,345],[32,105],[61,80],[414,323],[51,76],[83,176],[46,77],[48,58],[8,12],[3,8],[6,6],[6,10],[3,17],[-6,10],[-13,4],[-13,-4],[-6,-10],[-126,-111],[6,53],[29,33],[38,31],[37,46],[18,52],[3,53],[-5,100],[17,103],[47,38],[173,22],[362,104],[46,22],[37,30],[32,40],[80,159],[27,27]],[[28376,8442],[-49,-160],[-70,-139],[-40,-67],[-28,-37],[-97,-92],[-22,-38],[-3,-45],[17,-109],[-1,-22],[1,-22],[13,-37],[18,-37],[24,-37],[30,-28],[35,-14],[116,-1],[47,-20],[14,-57],[-18,-236],[3,-138],[14,-58],[30,-62],[50,-72],[236,-229],[18,-32],[6,-84],[16,-5],[50,32],[19,-21],[47,-127],[46,-42],[53,-6],[52,7],[51,0],[48,-27],[33,-48],[51,-177],[31,-63],[33,-32],[95,-52],[49,-51],[56,-114],[60,-50],[50,-21],[155,-24],[48,-28],[39,-60],[57,-128],[132,-217],[13,-73],[5,-61],[25,-10],[35,13],[39,7],[134,-34],[33,-15],[44,-44],[110,-172],[100,-89],[122,-67],[125,-17],[112,59],[26,36],[9,23],[10,9],[30,-2],[20,-14],[18,-23],[23,-21],[36,-5],[35,14],[49,53],[29,20],[14,0],[30,-12],[11,0],[52,23],[3,9],[33,20],[8,-5],[26,-26],[15,-3],[19,15],[6,24],[2,53],[26,47],[147,142],[74,40],[79,16],[166,6],[593,172],[52,-6],[355,-178],[59,-19],[56,-3],[52,11],[104,37],[47,-1],[27,-28],[15,-45],[10,-51],[30,-67],[32,18],[62,100],[222,97],[38,6],[48,-4],[71,-22],[137,-66],[76,-25],[159,46],[230,316],[167,60],[213,-1],[67,11],[36,17],[19,36],[139,453],[82,188],[9,32],[2,35],[-16,26],[-60,2],[-14,26],[20,75],[49,44],[304,164],[63,24],[164,17],[46,17],[46,40],[37,42],[42,34],[65,17],[788,-46],[69,-24],[18,-1],[31,16],[19,25],[16,29],[26,26],[49,20],[43,-6],[45,-17],[51,-13],[128,5],[45,-7],[64,-29],[44,-29],[25,-41],[2,-68],[-15,-65],[-30,-58],[-41,-49],[-80,-67],[-16,-33],[8,-23],[39,-2],[101,39],[104,20],[101,-10],[97,-53],[87,-77],[37,-13],[119,-8],[154,-36],[126,-53],[195,-172],[120,-5],[104,49],[56,18],[56,-3],[57,-36],[133,-180],[75,-42],[65,17],[419,319],[159,227],[60,59],[49,22],[381,68],[107,2],[97,-35],[26,-27],[25,-32],[27,-29],[34,-13],[26,9],[57,45],[7,3],[392,187],[50,15],[62,-10],[61,-34],[209,-168],[57,-20],[62,17],[42,45],[17,58],[0,64],[-12,64],[0,72],[30,51],[92,85],[39,51],[69,128],[49,157],[29,208],[-3,93],[-8,37],[-8,22],[-4,21],[8,33],[14,26],[24,28],[28,24],[26,12],[143,20],[148,64],[34,37],[4,56],[-11,64],[0,52],[12,50],[23,62],[6,37],[1,46],[-11,40],[-26,19],[-61,-8],[-42,-22],[-31,4],[-27,66],[-3,26],[3,100],[-6,30],[-30,48],[-10,26],[-2,56],[30,163],[40,118],[80,52],[205,31],[71,27],[16,35],[-7,46],[-4,63],[18,65],[33,20],[101,-9],[51,37],[112,109],[46,23],[41,27],[99,128],[57,41],[119,12],[56,21],[35,58],[-6,53],[-30,71],[-41,69],[-40,48],[-26,20],[-32,18],[-34,12],[-32,3],[-28,-10],[-58,-31],[-29,1],[-39,42],[5,61],[24,67],[11,61],[-8,30],[-28,59],[-3,30],[16,37],[24,11],[28,6],[29,23],[29,73],[-17,59],[-70,101],[-13,40],[6,13],[22,12],[36,35],[21,34],[10,31],[7,31],[11,35],[35,63],[43,46],[151,117],[31,40],[45,105],[45,77],[36,-12],[68,-114],[75,-41],[84,16],[172,85],[109,13],[43,21],[21,59],[10,127],[16,54],[92,138],[-7,23],[-39,15],[-42,58],[-2,52],[92,451],[48,139],[57,66],[26,-5],[23,-13],[24,-8],[28,12],[15,28],[-2,33],[-21,62],[-44,89],[-9,38],[0,30],[5,61],[-3,31],[-65,180],[-11,72],[0,119],[16,118],[102,348],[-1,99],[-38,44],[-54,34],[-41,43],[1,68],[18,21],[93,58],[25,33],[51,117],[33,129],[29,265],[16,52],[20,69],[24,29],[53,16],[18,20],[19,28],[113,118],[20,-10],[18,-25],[26,-17],[37,11],[12,31],[11,38],[100,97],[12,90],[-2,99],[26,95],[34,40],[32,4],[23,-24],[12,-48],[25,-43],[53,-15],[111,-9],[63,-26],[33,-21],[16,-22],[11,-49],[16,-48],[28,-36],[44,-18],[33,21],[127,143],[48,33],[28,25],[20,37],[21,65],[29,-18],[27,-5],[62,-4],[118,-36],[37,-6],[75,25],[73,42],[68,15],[71,-78],[18,-1],[18,3],[18,-8],[10,-15],[10,-38],[67,-129],[26,-14],[28,-4],[27,10],[65,76],[29,-1],[30,-14],[46,14],[22,24],[-6,19],[-13,22],[-2,31],[21,43],[56,62],[18,38],[29,-4],[115,-190],[35,-2],[67,38],[70,-30],[51,1],[50,17],[83,80],[47,-7],[97,-77],[101,-26],[208,45],[109,0],[149,-46],[486,11],[26,15],[42,44],[32,9],[39,-8],[20,-20],[15,-28],[21,-31],[98,-78],[214,-124],[149,-178],[62,-43],[73,-23],[91,-16],[42,-2],[73,5],[43,-18],[23,-24]],[[27338,0],[-19,118],[15,55],[31,30],[42,-5],[50,-49],[43,-28],[183,-3],[40,-22],[82,-68],[70,-19],[16,-8],[4,-1],[-557,0]],[[14731,1390],[20,-9],[16,-21],[9,-26],[0,-26],[-12,-31],[-16,-5],[-20,2],[-25,-7],[-35,-19],[-27,-4],[-74,4],[-31,20],[-14,44],[10,42],[43,15],[156,21]],[[10396,3074],[41,36],[79,37],[77,15],[36,-29],[-52,-36],[-85,-44],[-75,-18],[-21,39]],[[11031,4073],[13,-48],[3,-25],[-2,-24],[-9,-38],[-12,-14],[-14,7],[-19,24],[-17,34],[-32,94],[-7,38],[-6,18],[-10,18],[-1,15],[17,10],[32,-7],[28,-28],[21,-38],[15,-36]],[[12159,4305],[29,-11],[11,-25],[-1,-34],[-9,-33],[-31,-80],[-22,-42],[-23,-21],[-45,9],[-7,44],[12,48],[13,22],[18,19],[36,85],[19,19]],[[11119,4578],[21,-39],[-12,-67],[-31,-67],[-32,-39],[-16,7],[-15,29],[-9,33],[-4,22],[4,24],[8,24],[12,21],[26,31],[15,12],[17,9],[16,0]],[[14954,4593],[109,-13],[42,-19],[-3,-31],[-19,-34],[-30,-4],[-79,19],[-48,0],[-34,-12],[-79,-49],[2,70],[30,44],[50,22],[59,7]],[[12585,4717],[92,-76],[41,-48],[24,-55],[-6,-40],[-31,-12],[-32,10],[-16,24],[-16,54],[-59,95],[3,48]],[[12042,4955],[28,-30],[18,-46],[-1,-44],[-27,-28],[-29,0],[-35,12],[-31,21],[-13,28],[-17,20],[-30,24],[-9,20],[123,28],[23,-5]],[[5398,7670],[-14,49],[11,59],[6,64],[-30,65],[-34,55],[-22,65],[-26,137],[-54,138],[-164,238],[-53,138],[-9,141],[34,122],[75,93],[118,53],[58,3],[376,-24],[22,-33],[-5,-118],[28,-64],[303,-224],[312,-294],[45,-66],[23,-67],[3,-63],[-9,-127],[8,-67],[66,-169],[69,-260],[52,-111],[79,-81],[178,-91],[93,-24],[99,-45],[64,-3],[217,44],[101,5],[99,-29],[77,-51],[642,-619],[255,-153],[67,-87],[26,-138],[-17,-115],[1,-76],[25,-34],[43,-17],[38,-40],[26,-53],[10,-54],[-21,-232],[3,-115],[38,-125],[83,-126],[214,-194],[275,-339],[103,-90],[120,-71],[60,-24],[52,-13],[114,-6],[56,7],[84,29],[51,7],[301,-58],[253,-14],[109,-56],[94,-95],[271,-352],[72,-128],[23,-139],[-47,-81],[-99,-65],[-200,-100],[-106,-89],[-59,-40],[-99,-25],[-304,-174],[-37,-33],[-44,-27],[-184,-45],[-49,-25],[-20,-14],[-21,-22],[-53,-108],[-27,-15],[-71,16],[-48,40],[-90,109],[-44,19],[-69,15],[-60,5],[-18,-9],[25,-21],[25,-8],[60,-1],[23,-6],[16,-16],[24,-39],[58,-70],[74,-70],[85,-32],[90,45],[18,24],[24,42],[14,18],[29,24],[62,29],[27,19],[46,20],[122,-17],[58,7],[145,74],[179,23],[44,19],[185,136],[52,16],[40,19],[132,144],[48,31],[61,26],[63,18],[55,7],[60,23],[40,56],[53,128],[59,57],[149,31],[74,43],[73,56],[70,14],[73,-19],[83,-41],[157,-102],[159,-143],[123,-174],[50,-197],[29,59],[20,28],[25,18],[29,-1],[27,-15],[24,-17],[67,-26],[56,-44],[51,-54],[34,-48],[44,-113],[106,-614],[21,-33],[15,-14],[-7,-31],[-25,-47],[-27,-16],[-35,-2],[-58,7],[-225,-20],[-20,-13],[2,-56],[-18,-13],[-34,-3],[-22,-7],[-19,-1],[-25,11],[-21,24],[-29,60],[-23,18],[-16,-1],[-24,-8],[-22,-14],[-10,-17],[5,-33],[18,-6],[19,-2],[13,-21],[-4,-25],[-10,-31],[-6,-31],[24,-63],[-30,-28],[-46,-19],[-37,-9],[-96,-2],[-36,-12],[-14,-37],[-16,-86],[-43,-71],[-63,-57],[-75,-44],[-299,-62],[-81,-60],[43,-1],[78,-15],[42,-3],[46,11],[81,39],[44,9],[73,28],[91,49],[79,21],[36,-57],[-21,-69],[-101,-106],[-23,-79],[-29,-68],[-72,-35],[-169,-31],[0,-21],[89,-40],[56,-12],[46,20],[31,8],[139,4],[28,-5],[26,-9],[23,-16],[23,-22],[27,-18],[58,-9],[101,-73],[21,-37],[-17,-58],[-50,-58],[-69,-43],[-83,-29],[-258,-55],[-43,25],[-30,57],[-46,123],[20,-194],[11,-26],[58,-53],[21,-34],[5,-70],[-21,-89],[-39,-81],[-55,-48],[0,-20],[42,-33],[-8,-45],[-43,-37],[-63,-8],[29,-46],[51,-47],[44,-25],[-8371,0],[-169,202],[-68,99],[-115,232],[-147,208],[-89,95],[-187,140],[-29,34],[-24,69],[-57,52],[-119,77],[-52,56],[-27,56],[-10,64],[-1,78],[-10,58],[-23,36],[-30,27],[-28,34],[-25,42],[-17,39],[-9,41],[-3,52],[8,64],[16,60],[8,62],[-14,69],[-38,67],[-153,150],[-149,182],[-58,53],[-203,125],[-115,45],[-107,17],[-61,1],[-50,7],[-41,24],[-38,48],[-57,113],[-41,40],[-66,11],[-52,-15],[-95,-53],[-43,-12],[-28,3],[-31,10],[-28,16],[-21,21],[-25,32],[-13,7],[-17,-5],[-36,-4],[-18,8],[-52,39],[-12,14],[4,32],[36,41],[15,31],[0,67],[-27,39],[-45,22],[-55,16],[48,138],[10,61],[-14,216],[-12,74],[-32,44],[-32,-28],[-3,49],[17,143],[-9,70],[-28,61],[-45,26],[-64,-33],[-22,92],[19,267],[-15,112],[-94,125],[-23,20],[-43,19],[-11,46],[9,117],[-12,104],[-154,588],[-36,97],[0,7580],[142,-27],[54,-40],[82,-67],[47,-18],[67,-23],[57,-38],[73,-80],[207,-108],[238,-185],[260,-230],[41,-27],[98,-22],[33,-26],[54,-65],[66,-45],[29,-29],[20,-80],[23,-41],[57,-73],[80,-81],[83,-50],[253,-69],[91,-40],[47,-7],[35,-26],[82,-179],[138,-145],[50,-75],[13,-107],[85,20],[56,-54],[51,-74],[71,-37],[59,-44],[28,-102],[20,-345],[-5,-41],[-19,-40],[-26,-38],[-22,-42],[-9,-55],[-7,-23],[-27,-47],[-2,-22],[15,-25],[22,-11],[24,-6],[20,-11],[22,-30],[-2,-13],[-11,-10],[0,-19],[56,-103],[-8,-33],[6,-20],[16,-3],[22,17],[15,31],[-8,21],[-16,19],[-9,21],[-3,101],[-6,21],[-84,56],[-17,17],[31,46],[87,40],[96,-13],[58,-114],[2,-41],[-4,-82],[2,-41],[30,-99],[5,-34],[15,-59],[37,-75],[42,-46],[34,23],[-3,42],[-42,109],[-11,46],[0,125],[10,55],[26,54],[34,40],[41,26],[52,14],[64,4],[19,-11],[5,-25],[2,-31],[11,-26],[20,-15],[46,-22],[16,-13],[8,-22],[8,-82],[9,-25],[24,-49],[5,-17],[13,-20],[68,-54],[23,-8],[10,-20],[4,-25],[1,-1],[179,-596],[62,-127],[77,-118],[193,-222],[142,-127],[150,-83],[128,16],[324,-258],[63,-26],[51,-70],[23,-16],[39,-35],[44,-82],[37,-93],[15,-68],[9,-96],[28,-88],[45,-65],[64,-29]],[[11597,4076],[11,-62],[5,-88],[-11,-78],[-39,-34],[-225,-53],[-33,-17],[-33,-3],[-46,30],[-34,47],[-12,50],[2,53],[59,273],[53,92],[86,38],[49,-12],[44,-31],[39,-41],[31,-44],[31,-57],[23,-63]],[[12191,4654],[12,-32],[3,-28],[-2,-62],[-87,130],[-39,33],[-94,36],[-38,31],[-12,56],[25,-17],[152,-66],[24,-16],[21,-19],[19,-21],[16,-25]],[[12983,4857],[118,-28],[93,-71],[68,-92],[48,-93],[-2,-47],[-23,-16],[-30,7],[-26,24],[-44,88],[-20,24],[-94,52],[-15,21],[-10,24],[-63,88],[0,19]],[[12113,4530],[34,-41],[13,-24],[8,-38],[-78,-172],[-55,-81],[-67,-33],[-49,30],[-33,63],[-25,61],[-26,29],[-101,165],[-14,62],[-4,62],[6,38],[24,65],[19,100],[33,40],[41,9],[41,-27],[24,-46],[20,-54],[26,-45],[85,-33],[29,-38],[49,-92]],[[12939,4757],[40,-33],[37,-76],[23,-84],[-5,-57],[-14,-12],[-15,1],[-15,10],[-52,45],[-99,62],[-46,54],[-42,74],[-12,77],[46,61],[18,-14],[46,-14],[26,-13],[64,-81]],[[13310,5186],[26,-24],[25,-40],[15,-44],[-2,-38],[-20,-23],[-33,-12],[-36,-5],[-29,2],[-27,10],[-145,91],[-27,27],[-18,38],[-2,39],[15,29],[32,5],[45,-32],[0,24],[17,59],[34,-51],[42,-26],[88,-29]],[[15572,5292],[33,-18],[50,-6],[36,-16],[-12,-43],[17,-18],[12,-20],[6,-22],[1,-25],[-8,-19],[-11,-17],[-15,-14],[-18,-11],[-12,30],[-5,35],[-1,49],[-11,17],[-81,76],[19,22]],[[22872,5309],[64,-33],[34,-27],[7,-22],[-69,-89],[-42,-30],[-33,19],[1,17],[16,16],[15,20],[1,29],[-15,9],[-23,-2],[-24,5],[-17,31],[4,29],[21,20],[29,9],[31,-1]],[[11992,5236],[4,-20],[0,-17],[-7,-15],[-14,-12],[-35,-4],[-42,15],[-72,44],[-60,-16],[-45,45],[-69,126],[3,35],[20,59],[28,55],[22,25],[15,6],[49,29],[27,6],[35,-9],[4,-23],[-9,-33],[-2,-35],[15,-71],[13,-36],[16,-28],[15,-11],[35,-4],[15,-8],[8,-13],[0,-14],[-1,-14],[2,-15],[6,-13],[17,-21],[7,-13]],[[10949,4590],[9,-37],[7,-21],[8,-2],[-22,-58],[-15,-111],[-26,-47],[-16,-11],[-27,-16],[-27,-6],[-11,14],[-9,6],[-46,65],[-138,143],[-93,60],[-112,24],[-226,-20],[-57,7],[-114,30],[-55,3],[-221,-59],[-105,-15],[-110,34],[-129,106],[-25,16],[-136,123],[8,64],[40,60],[54,43],[117,32],[30,41],[3,58],[-84,283],[-7,117],[57,81],[102,20],[76,-43],[136,-170],[21,-34],[4,-40],[-22,-49],[-9,-50],[43,-28],[62,-14],[49,-3],[37,10],[72,43],[36,10],[64,-4],[55,-14],[49,-28],[132,-114],[203,-108],[297,-247],[39,-51],[11,-21],[21,-72]],[[11155,4982],[97,-85],[30,-52],[-19,-70],[-106,-73],[-108,19],[-356,251],[-1,10],[-117,122],[-36,20],[-91,37],[-44,7],[-47,16],[-34,38],[-28,41],[-27,29],[-45,12],[-163,-12],[-51,-17],[-58,-34],[-61,-24],[-56,10],[-4,36],[33,58],[88,103],[38,59],[44,127],[37,50],[105,41],[122,-14],[223,-90],[214,-125],[185,-141],[107,-123],[129,-226]],[[13849,5678],[16,-61],[-2,-61],[-54,-212],[-21,2],[-45,46],[-5,-21],[0,-19],[6,-18],[17,-23],[-22,-14],[-11,-18],[-7,-24],[-15,-28],[-2,-13],[5,-35],[-3,-11],[-11,-3],[-30,4],[-13,-1],[-60,-18],[-46,16],[-94,61],[-21,2],[-57,-7],[-28,5],[-14,13],[-85,111],[-31,61],[-11,57],[31,28],[25,-11],[38,-50],[29,-3],[19,19],[-2,26],[-11,30],[-13,63],[-8,19],[3,13],[30,16],[30,3],[54,-22],[22,-3],[40,34],[21,102],[31,28],[28,-20],[78,-106],[38,-38],[17,37],[-1,38],[-13,38],[-21,32],[32,18],[33,5],[33,-6],[32,-18],[28,-28],[12,-17],[9,-18]],[[15192,5486],[5,-48],[29,-149],[-42,-64],[-12,-37],[18,-60],[2,-87],[8,-19],[10,-12],[-7,-28],[-24,-29],[-34,-12],[-35,-6],[-19,-18],[-8,-30],[-1,-39],[-35,-144],[-86,-17],[-221,88],[15,49],[-15,54],[-37,44],[-54,19],[0,22],[64,-3],[30,5],[15,17],[-10,27],[-31,9],[-68,4],[-53,23],[-21,23],[0,36],[17,18],[93,25],[-12,32],[-2,25],[14,45],[15,3],[30,22],[14,25],[-32,12],[-14,9],[-26,42],[-14,10],[-36,-4],[-24,-10],[-115,-71],[-39,-13],[-58,-4],[-24,-10],[-35,-42],[-31,-9],[-90,-5],[-27,5],[-68,40],[-11,55],[3,61],[-26,59],[-2,53],[65,47],[129,52],[30,20],[15,17],[27,47],[11,32],[2,26],[10,18],[40,6],[58,-16],[29,7],[12,39],[15,33],[35,-6],[60,-38],[107,-29],[85,3],[79,33],[90,56],[-11,33],[20,16],[30,-17],[15,-63],[-15,-110],[4,-52],[29,-55],[126,-64],[20,-26]],[[9430,5923],[16,-69],[-9,-74],[-76,-281],[-5,-73],[5,-75],[47,-169],[8,-66],[-9,-28],[-21,-3],[-26,2],[-25,-12],[-79,-78],[-21,-15],[-80,22],[-94,85],[-176,219],[-42,90],[-32,46],[-17,52],[4,74],[22,129],[7,110],[-9,53],[-50,49],[-27,60],[-23,68],[-8,51],[7,26],[24,56],[5,31],[-16,124],[6,64],[18,32],[36,12],[57,2],[101,-28],[82,-69],[142,-177],[200,-165],[41,-48],[17,-27]],[[9489,6287],[41,-205],[-5,-54],[-81,-19],[-116,85],[-165,182],[-111,160],[-42,24],[-26,6],[-51,30],[-398,67],[-103,58],[-102,106],[-81,111],[-58,114],[9,89],[121,36],[50,-12],[126,-68],[42,-33],[43,-26],[60,-16],[165,-16],[159,-35],[80,2],[26,-2],[29,-12],[53,-37],[27,-13],[220,-67],[74,-78],[14,-143],[0,-234]],[[7443,8367],[97,-140],[32,-79],[14,-111],[-20,-67],[-85,-113],[-18,-74],[9,-135],[-8,-57],[-37,-62],[-129,-100],[-17,-34],[-28,-34],[-64,-23],[-73,-14],[-53,-2],[-124,27],[-105,56],[-81,86],[-51,118],[-28,136],[-21,68],[-66,109],[-9,63],[31,250],[33,91],[60,62],[99,22],[46,-11],[93,-37],[52,5],[42,30],[128,147],[91,34],[85,-59],[68,-90],[37,-62]],[[52031,8925],[64,-94],[41,-43],[39,-27],[0,-22],[-59,15],[-58,45],[-50,56],[-33,48],[-27,56],[-30,91],[-1,78],[58,20],[30,-40],[86,-58],[30,-43],[-3,-33],[-40,23],[-83,69],[-30,8],[0,-5],[15,-17],[15,-27],[36,-100]],[[26958,9786],[14,-26],[-8,-21],[-42,-35],[-44,-25],[-69,-25],[-67,-6],[-38,35],[6,41],[21,27],[2,23],[-47,30],[-13,-1],[-26,-23],[-14,-6],[-15,4],[-14,11],[-12,16],[-5,16],[10,35],[29,16],[36,4],[31,-5],[30,-15],[59,-40],[30,-12],[115,-2],[31,-16]],[[19388,10471],[1,-45],[-5,-22],[-10,-16],[-14,27],[-34,50],[-18,69],[-22,44],[-14,40],[11,28],[34,11],[27,-17],[18,-32],[12,-37],[14,-100]],[[26255,11109],[35,89],[68,-1],[45,-60],[-32,-89],[-6,-34],[22,-114],[-7,-47],[-16,-12],[-55,-21],[-20,-10],[-9,-18],[-16,-51],[-9,-13],[-34,4],[-30,25],[-48,53],[-45,26],[-19,17],[-2,21],[2,3],[56,35],[46,41],[39,44],[19,34],[12,38],[4,40]],[[23520,11233],[16,-60],[-5,-24],[-114,-23],[-32,-2],[-29,15],[16,85],[58,40],[61,1],[29,-32]],[[18223,11180],[30,-3],[81,-23],[24,-15],[-16,-41],[-20,0],[0,23],[-16,0],[-57,-219],[-26,-19],[-35,27],[-19,-6],[-16,-20],[-121,-52],[12,-23],[12,-12],[17,-5],[24,0],[21,-10],[8,-22],[-2,-22],[-9,-10],[-32,-5],[-33,-10],[-32,-5],[-31,11],[-21,23],[-14,32],[-8,35],[-2,34],[5,35],[25,73],[12,69],[28,76],[4,25],[-22,34],[-64,40],[-24,28],[26,27],[10,41],[-4,43],[-14,34],[37,18],[20,-52],[7,-9],[6,-5],[45,-26],[12,-10],[7,-50],[-7,-47],[4,-34],[42,-14],[21,-4],[42,-14],[18,0],[14,12],[5,20],[6,19],[20,8]],[[19499,11725],[0,-275],[-16,0],[-56,80],[-42,-19],[-21,23],[-21,30],[-40,8],[11,20],[3,18],[0,19],[2,23],[-29,153],[5,58],[42,-4],[39,8],[55,-35],[48,-56],[20,-51]],[[49135,12188],[46,-28],[18,-21],[7,-35],[-8,-44],[-15,-9],[-22,9],[-26,5],[-83,3],[-27,-3],[-22,-10],[-35,-28],[-17,-3],[-44,29],[-9,48],[19,53],[33,42],[43,23],[49,4],[50,-12],[43,-23]],[[19462,12270],[55,21],[15,-29],[-15,-125],[6,-107],[-6,-28],[-16,-23],[-11,11],[-5,30],[-2,34],[-6,10],[-13,4],[-13,-4],[-6,-10],[2,-21],[26,-83],[13,-20],[7,-20],[-10,-31],[-128,82],[13,14],[4,18],[0,50],[26,63],[8,61],[13,55],[43,48]],[[49457,12499],[40,-3],[44,-9],[38,-20],[27,-34],[6,-48],[-5,-66],[-13,-63],[-31,-81],[5,-173],[-20,-49],[-30,-28],[-28,8],[-12,59],[-22,45],[-141,89],[-40,56],[-34,69],[-24,74],[-9,71],[27,76],[67,30],[155,-3]],[[50166,12679],[5,-34],[1,-54],[-13,-38],[-36,13],[-136,102],[-19,53],[-88,80],[-21,60],[19,71],[50,27],[62,-9],[55,-38],[40,-49],[36,-58],[28,-62],[17,-64]],[[49171,12617],[-54,-64],[-108,26],[-219,100],[-225,0],[-45,8],[-42,20],[-37,28],[-29,27],[-21,31],[-11,36],[1,38],[16,32],[23,23],[31,23],[33,17],[30,2],[27,-13],[49,-38],[28,-8],[227,-20],[38,-31],[72,-94],[43,-20],[27,-6],[54,-27],[63,-15],[21,-20],[8,-27],[0,-28]],[[50040,13582],[-38,-3],[-51,20],[-75,45],[-38,34],[-66,80],[-40,31],[18,-1],[50,16],[20,4],[11,-2],[55,-22],[52,-31],[57,-45],[40,-41],[23,-45],[-18,-40]],[[49651,14517],[112,-69],[23,-24],[9,-85],[-32,-79],[-94,-114],[-107,-13],[-118,97],[-69,145],[49,133],[88,98],[39,25],[33,-26],[67,-88]],[[25076,13809],[27,29],[0,-31],[-45,-156],[-18,-37],[-109,-160],[-21,-48],[-14,-49],[-11,-94],[-16,-26],[-47,-23],[-39,-5],[-84,7],[-39,-2],[-40,-18],[-75,-54],[-30,-12],[-25,11],[-85,73],[-99,43],[-27,17],[63,88],[9,27],[9,40],[19,12],[22,-1],[14,-3],[50,20],[17,42],[11,43],[31,20],[40,0],[30,-4],[28,-17],[38,-39],[74,-101],[35,-21],[-6,40],[-40,142],[-14,9],[-22,42],[-9,12],[-23,5],[-77,-5],[-72,10],[-203,87],[-85,19],[-24,11],[-25,26],[-21,37],[-39,96],[-5,25],[-5,47],[-8,26],[-17,15],[-18,13],[-13,19],[-3,21],[3,69],[-8,31],[-18,14],[-18,10],[-10,19],[8,26],[25,40],[67,88],[26,19],[24,3],[24,0],[26,10],[17,18],[36,51],[10,11],[27,13],[200,222],[31,75],[36,48],[42,45],[36,28],[46,-42],[21,-58],[5,-156],[13,-86],[36,-53],[95,-79],[155,-213],[68,-55],[13,-18],[5,-44],[-1,-81],[16,-39],[-29,-36],[-38,-26],[-33,-30],[-10,-51],[26,15],[22,-7],[42,-49]],[[24043,16497],[20,-12],[-2,-22],[-11,-25],[-7,-23],[-12,-107],[-19,-54],[-32,-22],[-59,2],[-33,7],[-24,14],[-5,9],[0,12],[3,14],[11,16],[29,27],[39,26],[33,29],[15,39],[4,21],[13,24],[18,20],[19,5]],[[14912,1010],[117,-151],[17,-46],[-20,-59],[-50,-51],[-102,-84],[-20,-57],[-12,-147],[-29,-52],[-91,0],[-78,78],[-71,39],[-70,-117],[-27,-118],[-21,-20],[-51,-5],[-27,247],[-27,110],[-25,38],[-38,-6],[-148,169],[-6,46],[25,42],[36,99],[19,36],[73,68],[34,41],[21,55],[18,0],[16,-52],[-28,-123],[12,-71],[18,0],[6,63],[12,60],[18,0],[60,-42],[88,58],[142,150],[52,-52],[20,-14],[57,-26],[17,-13],[16,-19],[28,-48],[19,-26]],[[12704,1394],[58,-34],[56,-60],[29,-70],[-28,-65],[-19,-7],[-97,7],[-38,-10],[-72,-42],[-35,-10],[-21,-9],[-62,-42],[-36,-10],[-22,12],[-31,22],[-32,12],[-32,-17],[-57,-16],[-150,64],[-74,-16],[-3,99],[64,141],[98,129],[95,61],[44,-4],[143,-28],[31,-19],[24,-43],[56,-23],[111,-22]],[[15917,1492],[218,-133],[-24,-40],[-55,13],[-66,28],[-57,9],[-47,-28],[7,-34],[28,-43],[12,-56],[-141,71],[-48,8],[-32,13],[-49,56],[-145,75],[-39,44],[-33,47],[-40,38],[-61,16],[-110,-7],[-42,-13],[-39,-23],[-62,-51],[-28,-11],[-15,2],[-41,19],[-13,-10],[-24,-24],[-21,-15],[-33,-43],[-24,-10],[-34,4],[-12,12],[-6,19],[-11,28],[-27,42],[-25,24],[-37,11],[-65,3],[-32,7],[-19,20],[-10,30],[-2,37],[5,33],[12,17],[37,21],[102,98],[43,66],[18,72],[20,245],[32,87],[56,-54],[4,21],[10,37],[2,23],[19,-38],[43,-28],[85,-37],[146,-149],[15,-34],[-90,-22],[0,-25],[14,-26],[19,-21],[13,-8],[29,10],[20,19],[23,6],[37,-26],[81,-93],[46,-130],[33,-53],[57,-21],[69,8],[17,25],[-2,44],[17,66],[60,24],[75,-81],[137,-211]],[[14776,2416],[-30,-16],[-17,-6],[-26,-1],[28,-56],[8,-28],[1,-36],[-18,0],[-46,71],[-127,133],[-26,82],[16,0],[12,-13],[11,-9],[33,-17],[-13,18],[-40,116],[-5,31],[3,28],[16,16],[19,-9],[19,-27],[30,-53],[133,-190],[19,-34]],[[15282,2416],[51,-83],[-14,-32],[-50,10],[-60,45],[-56,56],[-17,24],[-19,73],[-17,10],[-36,-42],[-29,30],[-43,69],[-28,36],[-7,18],[-4,46],[-7,9],[-21,1],[-18,3],[-16,8],[-17,16],[-12,20],[-6,38],[-7,17],[-69,83],[-13,24],[-9,34],[31,-13],[26,-16],[51,-51],[-2,10],[5,11],[8,10],[9,6],[12,-2],[13,-10],[371,-458]],[[14534,3217],[28,-30],[14,-32],[-3,-35],[-24,-36],[-16,-7],[-15,9],[-11,18],[-9,47],[-13,8],[-18,3],[-18,12],[-70,106],[-20,17],[6,3],[18,12],[9,2],[17,-7],[48,-43],[77,-47]],[[14033,4324],[67,-39],[77,-61],[45,-72],[-27,-74],[-29,20],[-16,31],[-27,72],[-74,86],[-16,37]],[[14213,4324],[-25,-15],[-26,-3],[-25,8],[-51,40],[-57,9],[-23,14],[-37,60],[-9,55],[20,47],[53,34],[48,-15],[29,0],[13,25],[11,9],[25,4],[25,-8],[11,-26],[1,-70],[6,-52],[16,-50],[31,-66],[-36,0]],[[14060,4838],[40,-9],[44,-25],[22,-38],[-23,-49],[-19,-28],[-29,-23],[-137,-70],[-29,-2],[-24,19],[-17,42],[-13,83],[-22,37],[-36,25],[-71,17],[-40,21],[19,44],[-14,115],[13,48],[36,11],[40,-30],[79,-96],[14,-26],[9,-30],[15,-25],[34,-11],[109,0]],[[15377,4448],[43,-2],[35,-35],[-14,-44],[-25,-19],[-21,18],[-28,46],[10,36]],[[15205,4736],[8,-35],[2,-15],[-5,-27],[-13,-19],[-13,-12],[-23,-9],[-33,-1],[-13,13],[12,17],[14,36],[10,58],[25,30],[29,-36]],[[49664,14673],[-17,17],[-141,138],[-10,37],[20,40],[47,37],[54,29],[42,14],[49,-3],[95,-36],[48,-8],[29,-15],[25,-35],[35,-63],[25,-28],[23,-16],[26,-7],[36,-2],[123,-45],[11,-30],[0,0],[17,-44]],[[42908,16905],[44,-1],[40,6],[30,22],[25,100],[31,26],[36,-4],[30,-42],[8,-21],[14,-5],[57,4],[26,-5],[26,-12],[21,-16],[28,-59],[47,-18],[55,-1],[42,9],[32,24],[87,100],[12,18],[105,105],[85,122],[33,19],[53,11],[51,26],[42,33],[25,34],[16,48],[18,122],[4,109],[6,28],[28,62],[22,25],[23,18],[10,22],[-17,41],[-100,-53],[-98,3],[-90,42],[-235,231],[-7,28],[6,25],[-1,19],[-28,8],[-12,-7],[-52,-51],[-14,37],[7,42],[16,46],[18,98],[19,40],[18,31],[9,23],[31,32],[137,91],[32,61],[29,45],[187,151],[92,228],[52,59],[37,-69],[-91,-193],[54,-86],[14,31],[12,81],[12,33],[90,-88],[55,-28],[233,-19],[77,5],[70,26],[81,80],[68,117],[53,132],[32,121],[20,131],[16,58],[28,49],[39,35],[237,150],[41,52],[18,68],[8,139],[16,58],[162,297],[37,129],[-41,89],[-60,-24],[-20,39],[26,56],[81,29],[46,34],[125,211],[56,58],[34,19],[44,7],[32,-12],[39,-21],[33,-7],[15,30],[-11,100],[-33,8],[-50,-28],[-67,-9],[0,19],[72,43],[41,51],[11,10],[20,4],[53,-4],[25,18],[5,10],[0,17],[23,95],[7,20],[13,24],[25,32],[234,202],[40,45],[47,42],[50,25],[39,33],[16,64],[2,46],[0,8],[9,57],[20,45],[35,18],[46,41],[164,248],[40,42],[27,42],[16,53],[5,76],[-4,102],[4,30],[11,24],[33,50],[11,30],[-5,115],[9,51],[75,39],[22,47],[25,118],[3,66],[6,26],[19,11],[11,10],[29,48],[14,36],[23,25],[28,19],[31,5],[8,-12],[27,-68],[109,-80],[16,-34],[36,-215],[-49,32],[-28,10],[-13,-12],[-17,-94],[-1,-18],[30,-30],[42,-16],[38,-27],[17,-62],[-11,-118],[-28,-78],[-88,-143],[-48,-104],[-37,-130],[14,-104],[107,-30],[56,31],[41,55],[32,54],[26,23],[36,18],[118,128],[86,69],[17,37],[10,104],[13,12],[17,6],[19,17],[36,82],[96,110],[14,44],[-16,62],[-60,131],[4,64],[21,34],[21,3],[24,-10],[33,-7],[22,10],[18,21],[7,22],[-10,10],[-20,14],[-5,32],[5,34],[10,21],[28,6],[31,-9],[30,-13],[21,-5],[23,15],[40,39],[17,-2],[20,-13],[68,-33],[21,-6],[9,-12],[137,-93],[15,-15],[11,-23],[2,-51],[-17,-144],[-12,-30],[-36,-22],[-12,-52],[5,-62],[15,-50],[95,-141],[15,-54],[7,-186],[11,-48],[31,-64],[34,-22],[107,4],[41,-15],[35,-35],[57,-75],[66,-68],[46,-38],[43,-16],[43,11],[29,33],[64,119],[41,57],[22,0],[8,-46],[2,-82],[11,-2],[61,-70],[-10,4],[-7,-13],[-3,-20],[2,-14],[10,-5],[34,-10],[10,-5],[40,-41],[26,-15],[34,-5],[37,21],[28,5],[26,-15],[63,-83],[28,-47],[27,-66],[18,0],[10,26],[12,12],[15,-3],[17,-14],[12,-21],[3,-23],[0,-26],[3,-34],[9,-28],[24,-52],[5,-21],[-10,-28],[-18,-27],[-13,-27],[28,-80],[-25,-198],[-17,-45],[-40,-5],[-87,18],[-49,-18],[-48,-37],[-77,-77],[-23,-51],[14,-48],[57,-76],[42,-117],[39,-18],[8,-17],[4,-30],[7,-22],[1,-25],[-12,-37],[-21,-25],[-25,-9],[-20,-13],[-7,-36],[17,-49],[38,-11],[37,-19],[18,-74],[-16,-49],[-38,-41],[-92,-64],[-335,-128],[-64,-78],[47,9],[151,74],[68,20],[187,1],[177,25],[131,-17],[46,6],[16,34],[-23,75],[28,19],[28,-2],[31,-11],[38,-6],[47,3],[125,28],[26,20],[17,37],[36,38],[72,57],[86,126],[47,28],[11,14],[19,9],[37,-11],[90,-104],[6,-30],[-2,-33],[4,-27],[45,-26],[7,-37],[-4,-61],[13,-69],[111,-169],[15,-15],[1,-19],[-77,-119],[-39,-27],[-59,-19],[-62,-3],[-49,20],[-44,-17],[-164,17],[-45,-17],[-28,-36],[-5,-37],[24,-16],[12,-22],[79,-233],[22,-21],[12,-2],[15,7],[32,7],[41,15],[105,55],[44,12],[21,-5],[18,-26],[25,-10],[20,5],[26,12],[27,7],[26,-14],[27,-43],[20,-12],[25,13],[21,33],[0,27],[-12,31],[18,53],[12,21],[16,21],[7,25],[-20,55],[3,32],[41,35],[118,13],[109,55],[57,-14],[138,-82],[13,-5],[13,13],[29,37],[23,9],[26,-12],[24,-18],[17,-9],[52,-14],[271,-178],[93,-86],[36,-25],[46,-24],[39,-29],[15,-38],[-10,-30],[-19,-17],[-19,-11],[-8,-11],[-26,-170],[-18,-64],[-8,-64],[17,-63],[18,0],[27,77],[16,34],[20,25],[12,30],[-4,80],[11,32],[69,54],[58,-1],[50,-40],[125,-171],[50,-54],[46,-23],[70,-14],[52,-40],[34,-59],[17,-73],[20,17],[11,15],[5,20],[-1,30],[124,-107],[49,-16],[55,-28],[45,-63],[9,-63],[-46,-30],[28,-26],[42,-17],[43,0],[31,21],[8,41],[-16,31],[-7,26],[35,25],[64,-2],[125,-75],[80,-3],[206,111],[67,11],[42,-22],[38,-46],[63,-97],[57,-64],[25,-39],[10,-50],[-6,-65],[-25,-99],[-5,-51],[13,-139],[-6,-76],[-61,-59],[-128,-158],[-105,-67],[-483,-198],[-492,-162],[-95,-66],[-62,-30],[-66,-22],[-55,-7],[-41,11],[-83,40],[-76,14],[-55,18],[-34,-1],[-31,-12],[-78,-70],[-58,-39],[-25,1],[-35,27],[-14,22],[-48,92],[-91,120],[-83,48],[-54,19],[-25,-15],[-26,8],[-56,-41],[-82,-78],[-21,17],[-14,-11],[-5,-30],[4,-39],[-102,28],[-94,-64],[-149,-189],[-44,-38],[-20,-23],[-8,-32],[4,-36],[11,-13],[18,-7],[67,-49],[18,-18],[15,-27],[30,-86],[63,-110],[73,-97],[82,-86],[92,-76],[34,-36],[22,-19],[24,-8],[24,0],[56,-9],[20,-9],[12,-18],[21,-55],[12,-21],[17,-16],[19,-14],[45,-21],[7,51],[36,11],[47,-15],[38,-27],[28,-40],[6,-38],[-14,-37],[-29,-38],[-10,-38],[23,-33],[32,-29],[17,-25],[21,-17],[49,27],[76,64],[29,-17],[64,-10],[33,-14],[-15,-41],[31,-56],[104,-128],[2,-22],[-23,-32],[-29,-20],[-23,4],[-26,14],[-41,11],[14,-50],[-12,-45],[-27,-38],[-28,-30],[-40,-33],[-37,-11],[-104,5],[-45,-6],[-85,-28],[-51,-9],[-114,-3],[-61,13],[-41,33],[-35,-53],[-20,-15],[-239,-76],[-215,-22],[-62,-23],[-350,-200],[-58,-2],[-163,54],[-44,8],[-32,16],[-102,106],[-37,25],[-22,11],[-23,5],[-10,13],[-18,56],[-10,13],[-36,4],[-82,37],[-66,13],[-24,9],[-58,46],[-30,53],[-24,58],[-42,57],[-40,-6],[-58,-42],[-51,-51],[-24,-33],[10,-26],[51,-35],[12,-32],[0,-124],[10,-32],[40,-42],[4,-38],[-12,-34],[-23,-28],[-55,-42],[-18,-20],[-13,-26],[-16,-20],[-8,-25],[10,-16],[47,-51],[18,-25],[-27,3],[-23,-3],[-109,-50]],[[28376,8442],[0,-2],[12,-51],[6,-66],[26,-122],[4,-59],[-9,-48],[-13,-41],[-1,-49],[23,-66],[78,-125],[49,-56],[53,-44],[163,-79],[94,-70],[108,-51],[45,-38],[32,-51],[44,-104],[32,-49],[37,-9],[131,3],[31,6],[41,24],[57,8],[337,-3],[35,-9],[51,-41],[30,-9],[12,8],[41,39],[19,12],[25,10],[15,3],[16,-11],[63,-79],[18,-7],[13,53],[26,35],[6,18],[-2,19],[-13,30],[-3,12],[-4,95],[4,28],[33,66],[42,30],[36,-15],[21,-87],[24,-37],[8,-18],[2,-20],[-4,-42],[2,-20],[9,-21],[12,-17],[14,-13],[18,-12],[19,-8],[23,-6],[58,-4],[27,12],[33,56],[79,31],[48,30],[43,6],[34,-54],[-33,-46],[-23,-42],[-13,-46],[-5,-60],[-10,-23],[-47,-55],[-15,-35],[71,34],[37,4],[38,-17],[25,-34],[7,-32],[9,-25],[29,-13],[24,6],[55,32],[31,3],[36,-15],[108,-67],[152,-52],[68,-43],[33,-71],[-16,-75],[-47,-54],[-99,-73],[0,-22],[70,2],[54,11],[49,28],[53,52],[26,56],[-3,58],[-13,55],[-2,46],[71,62],[122,-19],[225,-104],[114,-84],[201,-228],[101,-77],[158,-89],[33,-13],[63,10],[88,52],[55,20],[86,-39],[96,-89],[103,-56],[114,61],[-44,2],[-74,31],[-35,8],[-12,19],[-25,83],[-18,19],[-42,7],[-74,29],[-39,5],[-31,-10],[-95,-50],[-57,-2],[-50,16],[-43,33],[-38,44],[-48,40],[-117,53],[-44,41],[-47,143],[-51,56],[-11,36],[-4,88],[4,25],[35,104],[22,110],[25,38],[152,33],[58,3],[52,-20],[35,-54],[34,-70],[43,-41],[60,31],[34,7],[37,-29],[44,-26],[57,18],[-53,18],[-25,13],[-47,41],[-23,3],[-24,-2],[-52,17],[-17,-2],[-9,8],[-2,36],[-31,49],[-5,13],[-10,11],[-48,11],[-16,7],[-11,14],[-61,118],[-13,41],[-6,45],[13,17],[59,16],[19,19],[-5,17],[-39,29],[-10,24],[8,60],[23,55],[59,103],[83,195],[75,277],[6,70],[14,14],[32,-5],[52,-20],[65,6],[-68,66],[-5,72],[36,38],[47,-4],[53,-22],[96,-21],[22,5],[36,26],[17,22],[49,77],[8,24],[-24,24],[-32,-11],[-26,-31],[-22,-75],[-25,-6],[-28,12],[-72,52],[-55,11],[-189,-32],[-37,6],[-14,32],[-2,69],[16,47],[40,49],[53,28],[53,-12],[-28,57],[-50,20],[-47,11],[-21,24],[4,54],[32,141],[26,210],[33,81],[67,60],[23,-50],[34,-24],[89,-32],[30,-29],[67,-92],[22,-20],[15,-9],[16,-17],[19,-12],[22,6],[83,64],[25,9],[89,15],[19,-5],[48,-40],[52,-33],[-22,54],[-53,62],[-86,90],[-22,37],[-31,126],[-21,44],[82,-6],[74,-21],[63,-3],[52,50],[15,-7],[3,-4],[5,1],[15,10],[-58,24],[-100,28],[-42,30],[-34,32],[-26,32],[-15,47],[1,73],[47,184],[13,117],[18,44],[28,33],[190,165],[288,202],[82,44],[504,113],[404,16],[751,225],[732,218],[403,96],[162,73],[31,-1],[459,162],[89,53],[141,170],[55,115],[-34,66],[20,26],[70,54],[127,126],[28,17],[11,29],[88,157],[206,206],[49,82],[8,24],[6,24],[4,65],[14,30],[62,54],[14,19],[18,32],[126,161],[62,121],[22,68],[8,70],[21,55],[50,47],[109,71],[641,626],[554,816],[56,145],[-19,118],[56,99],[27,127],[-1,142],[-59,282],[17,48],[61,19]],[[39877,15984],[172,-93],[145,-25],[56,-33],[86,-76],[65,-28],[31,-23],[20,-62],[17,-9],[40,-1],[19,-8],[7,-20],[2,-24],[9,-19],[28,-35],[15,-33],[21,-84],[0,-83],[36,-62],[18,-134],[-9,-29],[-37,-36],[-8,-18],[4,-44],[13,-28],[90,-7],[115,-26],[108,22],[49,-3],[33,-40],[55,-189],[26,-59],[38,-57],[166,-174],[56,-45],[21,-22],[13,-31],[19,-74],[13,-24],[109,-14],[125,82],[243,263],[20,43],[15,124],[18,58],[61,103],[19,55],[-9,52],[-83,-38],[-1,61],[15,28],[17,18],[63,70],[29,51],[19,50],[25,113],[6,86],[-20,15],[-39,-8],[-52,22],[-47,83],[-16,110],[-13,350],[-9,66],[-15,62],[-51,111],[-20,55],[2,50],[3,3],[23,24],[97,46],[44,32],[86,92],[47,34],[60,18],[48,-3],[49,-9],[46,1],[42,30],[17,45],[2,51],[9,46],[60,68]],[[42473,16847],[29,15],[25,18],[21,21],[15,28],[18,-62],[3,-116],[16,-108],[0,-1]],[[42600,16642],[-18,-238],[10,-243],[23,-116],[87,-234],[30,-118],[32,-295],[21,-42],[35,-27],[150,-63],[56,-14],[79,9],[22,-9],[41,-39],[27,-13],[51,2],[23,-10],[48,-36],[61,-30],[58,-2],[38,47],[-6,62],[-38,64],[-93,99],[-61,92],[-35,118],[-14,126],[1,118],[21,118],[4,52],[-11,71],[-173,566],[-66,106],[-34,27],[-35,19],[-25,27],[-1,69]],[[8372,20946],[68,-55],[141,-108],[30,-17],[62,18],[12,35],[-22,24],[-43,-16],[30,47],[56,-2],[307,-127],[59,-40],[111,-132],[317,-706],[55,-77],[56,-51],[22,-20],[140,-98],[61,-54],[52,-73],[34,-97],[27,-46],[72,-37],[473,-423],[113,-63],[109,-25],[42,-32],[138,-138],[245,-312],[269,-480],[93,-254],[262,-497],[155,-320],[16,-58],[10,-21],[46,-61],[14,-30],[2,-35],[-20,-88],[4,-68],[26,-125],[45,-453],[-3,-68],[-27,-57],[-18,-59],[33,-134],[-5,-44],[85,-277],[6,-91],[-6,-33],[-36,-105],[-21,-36],[-18,-18],[-37,-51],[-10,-23],[1,-26],[17,-78],[-16,-31],[-15,-10],[-5,-3],[-22,-9],[-21,-17],[-55,-82],[-23,-47],[-3,-53],[18,-94],[98,-276],[-10,-75],[-60,42],[-44,-87],[-29,-134],[-9,-98],[2,-111],[-7,-54],[-46,-1],[-27,-39],[-22,-51],[-10,-42],[2,-59],[14,-50],[102,-253],[10,-37],[46,-74],[90,-97],[62,-101],[-38,-87],[91,20],[-129,-309],[-14,-124],[43,-370],[18,-59],[13,-60],[-57,-725],[17,-119],[86,-213],[123,-186],[312,-350],[5,-2],[32,-16],[40,-9],[47,-3],[14,-9],[39,-41],[29,-11],[25,4],[63,35],[41,-17],[4,-22],[-6,-25],[7,-28],[92,-81],[32,-46],[68,-170],[-23,-69],[-2,-58],[20,-56],[195,-279],[23,-24],[58,-48],[18,-20],[11,-31],[1,-60],[6,-33],[17,-33],[47,-65],[9,-36],[-5,-28],[-26,-59],[-6,-36],[18,-61],[124,-173],[68,-188],[48,-75],[31,-75],[17,-32],[56,-72],[17,-32],[21,-67],[4,-58],[-7,-130],[12,-62],[29,-64],[37,-35],[31,29],[17,0],[74,-145],[23,-137],[49,-78],[14,-44],[4,-102],[15,-41],[32,-42],[21,-38],[-14,-31],[17,-41],[19,-124],[54,-164],[26,-138],[2,-75],[-18,-33],[-22,-27],[8,-131],[-14,-46],[-99,0],[-14,-10],[-27,-43],[-13,-10],[-120,6],[-51,12],[-107,48],[-21,21],[-2,30],[2,57],[-15,43],[-31,32],[-37,28],[-26,30],[-14,109],[71,53],[97,44],[65,83],[-50,13],[-47,-14],[-44,-29],[-89,-75],[-19,-12],[-10,21],[-15,54],[-84,197],[-63,106],[-59,46],[-15,-36],[26,-81],[101,-180],[0,-41],[-13,-84],[6,-39],[11,-43],[7,-46],[-8,-46],[-93,-87],[-126,36],[-230,134],[-67,-6],[-106,-62],[-56,-15],[-106,10],[-40,-5],[-43,-26],[-136,-193],[-79,-72],[-93,20],[-5,13],[-20,31],[-20,22],[-9,-15],[2,-33],[13,-45],[3,-24],[-7,-34],[-48,-79],[-37,-104],[-32,58],[-93,90],[-38,58],[-22,60],[-86,325],[-49,116],[-74,95],[-111,81],[-315,135],[-446,315],[-108,58],[-58,19],[-61,6],[-44,13],[-30,31],[-43,79],[-51,68],[-63,62],[-74,54],[-83,43],[-42,-18],[-131,-22],[-45,1],[-59,37],[-35,59],[-50,127],[-44,58],[-216,196],[-30,37],[-19,38],[23,5],[3,10],[-5,13],[-3,13],[-33,38],[-47,39],[-100,66],[-371,171],[-424,199],[-89,58],[-72,65],[-200,250],[-29,16],[-57,13],[-52,33],[-32,47],[5,52],[-44,12],[-42,18],[-78,53],[-47,-34],[-84,-6],[-32,-43],[-19,74],[-5,96],[-13,83],[-45,35],[-18,10],[-25,24],[-39,48],[-53,173],[-23,32],[-35,17],[-126,13],[-33,23],[-26,32],[-46,37],[-146,29],[-54,28],[-89,17],[-58,28],[-104,84],[-61,83],[-131,226],[-82,79],[-116,31],[-118,13],[-64,48],[45,135],[-59,9],[5,40],[132,184],[38,39],[38,17],[29,33],[0,78],[-20,144],[-17,39],[-76,67],[-17,38],[-53,391],[-15,59],[-38,49],[-91,87],[-11,23],[-9,27],[-15,22],[-53,15],[-26,14],[-22,17],[-9,14],[-18,48],[-126,188],[-82,93],[-16,27],[-22,68],[-52,86],[-26,134],[-20,64],[-43,64],[-192,150],[-65,32],[-26,20],[-15,22],[-41,82],[-68,97],[-45,35],[-123,24],[-28,31],[2,52],[28,70],[47,50],[10,22],[-30,10],[-59,-10],[-29,-10],[-13,-12],[-29,-13],[-65,23],[-68,37],[-36,26],[-30,44],[-16,48],[-7,55],[1,150],[14,49],[33,21],[166,-8],[52,9],[42,59],[46,23],[53,11],[44,-10],[-26,65],[-62,-7],[-63,-36],[-29,-22],[-68,8],[-12,47],[10,70],[-2,78],[-27,40],[-137,105],[-44,48],[-52,43],[-59,12],[-60,-42],[-27,61],[-25,98],[-11,90],[17,40],[-40,14],[-12,37],[-1,47],[-11,46],[-30,34],[-26,6],[-12,18],[14,65],[25,76],[8,41],[3,57],[12,40],[50,41],[12,42],[7,83],[47,195],[34,81],[-40,-18],[-48,14],[-39,40],[-17,56],[9,61],[25,55],[35,27],[41,-28],[18,42],[21,35],[23,27],[27,18],[-63,14],[-58,-25],[-43,-1],[-17,83],[-9,148],[25,39],[76,7],[0,22],[-15,3],[-39,17],[20,42],[-6,20],[-52,20],[-27,4],[-17,-9],[-13,4],[-15,42],[-3,41],[21,51],[0,31],[-15,10],[-26,2],[-23,11],[-8,40],[-27,-16],[-28,-7],[-63,1],[-29,12],[13,27],[27,22],[15,2],[-2,40],[-9,13],[-20,10],[-31,29],[-27,15],[-29,-8],[-26,-19],[-18,-21],[-33,42],[-15,40],[-9,40],[-16,44],[-65,84],[-16,63],[-40,102],[-22,42],[-20,69],[3,24],[10,2],[12,-3],[12,7],[27,34],[30,27],[23,35],[19,99],[39,93],[6,62],[-7,33],[-25,60],[-5,18],[6,37],[26,55],[5,33],[-8,38],[-64,137],[-55,85],[-13,41],[-4,68],[17,258],[-18,70],[-60,120],[-12,64],[-18,255],[24,-12],[31,-8],[30,2],[23,18],[4,29],[-21,19],[-25,13],[-12,13],[29,350],[-70,604],[-23,52],[-38,57],[-32,65],[-47,135],[-95,195],[-32,120],[-41,46],[-86,68],[-67,96],[-57,129],[-41,139],[-17,129],[-10,56]],[[3232,21499],[22,46],[23,66],[11,75],[-1,26],[-9,52],[3,27],[17,31],[24,22],[15,26],[-5,43],[-21,69],[-3,51],[18,122],[3,67],[7,35],[18,24],[37,14],[24,-16],[7,-10],[12,-16],[23,-14],[40,-1],[0,6],[40,28],[24,2],[30,-3],[28,-11],[18,-22],[99,-336],[29,-57],[52,-51],[76,-42],[26,-14],[59,-20],[44,-4],[69,9],[39,-11],[84,-69],[49,-25],[161,-53],[90,-45],[48,-13],[47,7],[170,137],[45,1],[4,-19],[-1,-67],[7,-25],[23,-18],[24,-4],[27,0],[30,-5],[61,-40],[25,-57],[7,-142],[6,-35],[12,-33],[32,-60],[5,-25],[-6,-28],[-8,-25],[-1,-3],[-5,-27],[2,-86],[6,-25],[22,-45],[12,2],[14,20],[33,12],[35,-5],[110,-31],[50,14],[69,84],[51,12],[85,-79],[43,-16],[122,30],[33,-13],[18,-39],[7,-61],[-5,-73],[-24,-25],[-35,-18],[-35,-50],[-3,-69],[43,-45],[49,-42],[19,-60],[-14,-117],[-5,-170],[-18,-98],[-4,-57],[-21,-55],[-48,-20],[-55,-12],[-44,-32],[-108,-249],[-18,-33],[-6,-35],[5,-34],[14,-25],[20,-35],[31,-71],[18,-24],[26,-11],[50,2],[26,-6],[59,-44],[51,-66],[40,-75],[30,-75],[44,-23],[74,26],[123,84],[41,44],[34,53],[23,61],[8,67],[32,135],[81,48],[104,22],[102,54],[93,68],[284,125],[91,40],[61,16],[57,-15],[42,-63],[12,-34],[14,-24],[21,-14],[30,-6],[26,-11],[0,-25],[-8,-30],[-1,-27],[52,-137],[41,-51],[55,-13],[26,15],[2,3],[46,47],[31,11],[35,-12],[21,-30],[17,-37],[23,-32],[56,-34],[43,5],[31,38],[21,64],[14,18],[77,53],[17,27],[9,27],[13,25],[29,21],[86,85],[17,115],[1,127],[40,125],[65,89],[196,170],[70,79],[29,96],[-12,234],[17,158]],[[51026,19742],[36,-13],[8,-29],[-14,-29],[-30,-13],[-16,-3],[-47,-19],[-16,-2],[-20,2],[-25,8],[-18,14],[-5,20],[17,28],[29,23],[32,10],[69,3]],[[33041,9365],[3,-12],[3,-27],[-8,-18],[-25,17],[-27,13],[-24,-13],[-19,-26],[-12,-28],[-29,40],[-43,122],[-28,25],[-51,27],[-12,62],[20,132],[5,122],[-49,497],[5,149],[38,96],[91,-40],[54,-94],[28,-125],[2,-523],[23,-223],[55,-173]],[[14051,10546],[6,-149],[-6,-35],[-32,-27],[-49,-18],[-53,-4],[-38,17],[-51,61],[-20,36],[-2,26],[2,17],[-13,51],[3,25],[12,17],[34,19],[17,15],[25,46],[0,44],[-11,45],[-6,49],[6,32],[15,30],[23,19],[29,-4],[13,-13],[4,-17],[3,-36],[7,-22],[33,-58],[17,-39],[32,-127]],[[52365,15657],[60,-19],[29,-42],[-10,-43],[-61,-19],[-98,0],[-38,-41],[-18,-2],[-15,10],[0,10],[-3,62],[-12,16],[-32,30],[-10,16],[-9,32],[10,9],[27,0],[7,0],[38,1],[135,-20]],[[51795,16127],[35,51],[68,-2],[75,-30],[58,-37],[0,-23],[-39,-3],[-25,-20],[-12,-34],[3,-45],[-51,53],[-12,9],[-14,-14],[-9,-28],[-12,-19],[-20,10],[-41,35],[-43,23],[-41,11],[-36,4],[-10,5],[-24,26],[-12,10],[-91,18],[-180,63],[0,19],[208,0],[29,9],[18,21],[16,21],[19,12],[52,-10],[24,-43],[21,-53],[46,-39]],[[43178,18274],[30,-150],[-2,-73],[-46,-55],[-26,1],[-52,36],[-21,-4],[-53,-50],[-66,-45],[5,45],[74,233],[22,29],[76,79],[41,19],[18,-65]],[[3714,18529],[23,-46],[41,-25],[25,-28],[-48,-103],[-12,-116],[-11,-53],[-64,-139],[-9,-53],[-143,30],[-105,-1],[-4,-7],[-2,-7],[-8,-4],[-14,6],[-12,15],[-2,14],[36,24],[9,42],[-13,157],[5,140],[-6,27],[-12,24],[-12,18],[-6,14],[6,29],[9,23],[2,20],[-17,22],[33,14],[13,-17],[11,-27],[25,-13],[21,8],[16,19],[13,21],[14,13],[50,14],[54,-2],[51,-17],[43,-36]],[[2331,20899],[38,93],[62,28],[34,36],[7,-51],[-19,-25],[-20,-34],[0,-36],[-4,-19],[1,-49],[17,-51],[-10,-45],[-25,-43],[-30,-14],[-42,42],[-15,46],[-24,9],[-20,59],[50,54]],[[2633,21266],[27,-47],[10,-27],[5,-25],[-27,-16],[-38,-12],[-23,-28],[-33,-23],[-13,-43],[-43,30],[-13,72],[-51,-2],[-47,-19],[-41,-58],[-37,-46],[-43,0],[-33,-38],[-33,-17],[-21,-9],[-35,145],[18,52],[-8,77],[-43,17],[-69,16],[-48,-4],[-23,42],[-10,52],[-2,125],[64,-27],[51,25],[86,-3],[40,-31],[91,-12],[39,9],[43,40],[32,53],[26,2],[40,1],[-13,25],[-4,23],[24,-4],[24,-12],[21,-65],[20,-43],[31,-29],[55,-28],[-4,-25],[19,-13],[23,-23],[-12,-36],[-22,-41]],[[49043,22471],[67,-94],[44,-93],[-11,-92],[-100,-91],[-68,-22],[-81,-3],[-81,14],[-67,25],[-25,21],[-9,26],[7,26],[24,22],[28,10],[134,7],[42,12],[30,28],[12,50],[-24,26],[-94,6],[-10,40],[31,36],[108,16],[43,30]],[[47812,24235],[37,-39],[16,-71],[-6,-73],[-28,-44],[-48,52],[-40,-21],[-13,-56],[28,-54],[-253,-72],[12,-28],[23,-16],[14,-17],[-13,-33],[-24,-13],[-38,-4],[-38,5],[-28,12],[128,268],[38,19],[89,24],[36,18],[108,143]],[[48257,24196],[199,39],[62,-20],[32,-50],[3,-70],[-26,-231],[-29,-89],[-40,-57],[-46,26],[-50,-22],[-153,-34],[-33,-16],[-15,-17],[-71,-37],[-24,-18],[-18,-35],[-11,-34],[-14,-30],[-29,-24],[-20,72],[-20,228],[13,49],[10,22],[-3,133],[10,28],[14,14],[42,16],[26,17],[64,72],[59,47],[33,15],[35,6]],[[6254,11328],[-10,-34],[-21,-15],[-41,-12],[-18,26],[19,42],[49,22],[22,-29]],[[6429,11344],[-3,-22],[4,-38],[-7,-69],[-36,-38],[-51,-23],[-40,-31],[-15,-17],[-15,-14],[-20,-8],[-5,19],[5,32],[64,182],[36,63],[46,21],[34,-18],[3,-39]],[[17022,28757],[-35,-77],[-50,-82],[-58,-73],[-91,-82],[-111,-18],[-87,-41],[-78,-105],[-74,-137],[-66,-77],[-176,-54],[-472,-152],[-61,11],[-16,10],[-13,14],[-19,12],[-165,29],[-63,26],[-15,9],[-7,34],[21,7],[32,-13],[50,11],[130,96],[28,19],[24,8],[19,11],[10,32],[-13,30],[-27,16],[-11,14],[35,24],[33,-3],[175,-38],[37,9],[44,24],[37,33],[18,36],[-63,-34],[-84,-25],[-83,-1],[-60,39],[-13,34],[11,16],[31,8],[43,6],[64,0],[19,5],[45,36],[0,18],[-26,51],[-8,60],[14,56],[-168,-83],[-109,-31],[-66,39],[-45,101],[28,114],[8,28],[1477,0]],[[20496,28381],[-61,-7],[0,-33],[27,-44],[16,-38],[-33,14],[-28,-1],[-26,-9],[-31,-4],[-23,-13],[-5,-29],[2,-34],[-2,-27],[3,-14],[4,-13],[-10,-10],[-42,-4],[-13,13],[-41,61],[-9,18],[30,73],[72,79],[86,66],[73,37],[11,-5],[9,-6],[6,-10],[2,-19],[-8,-2],[-27,2],[14,-18],[2,-9],[2,-14]],[[2703,28757],[-2,-6],[34,-92],[53,-584],[21,-96],[45,-78],[149,-102],[24,-43],[11,-52],[58,-130],[43,-72],[17,-59],[15,-27],[21,-13],[58,-28],[12,-9],[15,-36],[35,-9],[42,10],[34,24],[-24,87],[-6,120],[-27,105],[-89,39],[52,26],[79,-66],[73,-94],[32,-63],[135,-394],[83,-595],[104,-538],[66,-339],[193,-1044],[159,-429],[142,-252],[34,-61],[20,-61],[-2,-42],[-68,6],[-34,39],[-94,97],[-52,34],[-20,15],[-74,-3],[-50,29],[35,80],[-26,96],[-18,131],[-37,26],[5,239],[-11,207],[-43,116],[-81,37],[-88,-12],[-60,-102],[-19,-51],[-16,-16],[-29,17],[-16,22],[-8,19],[-2,24],[0,36],[18,58],[90,62],[36,56],[10,116],[-17,158],[-36,150],[-48,91],[-51,21],[-51,-10],[-51,-21],[-54,-12],[-26,-26],[-117,-116],[-31,-42],[-5,-58],[31,-253],[48,-143],[17,-110],[17,-51],[29,-21],[7,-10],[56,-53],[12,-20],[8,-15],[86,-242],[48,-94],[64,-59],[58,-8],[66,-2],[54,-20],[22,-64],[0,-4],[2,-67],[5,-35],[10,-29],[23,-23],[37,-1],[26,-14],[24,-24],[-42,-25],[-24,-11],[-17,-14],[-8,-19],[9,-33],[18,-25],[22,-13],[36,-82],[32,-34],[37,-14],[41,6],[31,-33],[22,-19],[23,-10],[66,-3],[31,6],[64,21],[66,69],[21,36],[-8,82],[-1,52],[68,-95],[407,-628],[51,-48],[71,-29],[42,-17],[60,31],[44,-45],[79,-82],[136,-116],[131,-73],[77,0],[109,4],[326,12],[106,55],[34,65],[88,-17],[37,-34],[49,-14],[18,-13],[6,6],[85,-6],[-21,61],[-40,65],[-174,80],[77,30],[77,-16],[68,-62],[102,-70],[91,-32],[46,-13],[39,-5],[51,-14],[45,-17],[19,-17],[73,-35],[91,-57],[23,-29],[270,-520],[146,-252],[127,-221],[97,-108],[265,-188],[294,-318],[139,-113],[1,-1]],[[3232,21499],[-19,63],[-32,49],[-47,16],[32,96],[3,49],[-26,20],[-34,-10],[-21,-24],[-25,-66],[-88,84],[-76,98],[-9,26],[-7,35],[-10,30],[-19,13],[-34,-20],[-19,-5],[-8,14],[5,22],[24,36],[5,15],[-6,30],[-23,50],[-5,33],[-12,10],[-25,-1],[-26,4],[-11,28],[-12,55],[-29,38],[-69,59],[-63,113],[-42,41],[-47,-19],[-24,-1],[-19,39],[-21,77],[-19,27],[-14,13],[-228,97],[-66,69],[0,121],[12,54],[14,6],[38,1],[10,13],[-3,28],[-15,28],[-29,13],[-40,25],[3,57],[11,62],[-19,40],[43,99],[27,47],[30,19],[8,20],[74,112],[-20,33],[-45,-15],[-49,-32],[-32,-15],[-40,21],[-15,36],[1,106],[-92,-59],[-43,-42],[-19,-1],[-8,43],[-20,0],[-51,16],[-69,123],[-47,140],[14,66],[56,36],[49,85],[35,108],[13,101],[-16,0],[-75,-162],[-51,-61],[-66,28],[-11,47],[13,129],[-10,41],[-36,4],[-27,-43],[-18,-59],[-8,-47],[11,-106],[-10,-42],[-46,-18],[-28,9],[-40,21],[-35,24],[-16,20],[-14,9],[-75,14],[-37,26],[-32,46],[-78,142],[25,49],[4,70],[-9,137],[-6,20],[-26,48],[-6,35],[-12,4],[-57,-1],[-21,8],[35,63],[-4,66],[-19,75],[-20,136],[-18,3],[-23,-13],[-23,-3],[-23,13],[-26,21],[-8,19],[30,8],[11,20],[-17,42],[-32,42],[-35,19],[-43,7],[-21,17],[-36,58],[-53,44],[-52,32],[-41,41],[-18,69],[-17,0],[-6,-102],[-26,-83],[-54,-41],[-94,21],[-60,72],[-15,198],[-35,78],[110,97],[17,36],[4,56],[17,89],[-2,51],[-51,-58],[-25,-11],[-34,6],[-13,17],[-41,77],[-19,22],[-43,14],[-43,27],[-19,60],[3,31],[4,18],[2,17],[-9,25],[-19,26],[-42,27],[-21,20],[-16,31],[-4,22],[-11,8],[-33,-9],[-4,-4],[0,2451],[2703,0]],[[909,21896],[33,-27],[-8,-14],[-27,-12],[-79,-60],[-59,-12],[-55,18],[-41,46],[47,-13],[26,28],[25,35],[48,11],[-20,0],[87,6],[23,-6]],[[2030,21722],[0,-28],[-5,-18],[-11,-13],[-20,-14],[-31,52],[-34,127],[-89,94],[7,41],[29,35],[26,42],[6,30],[-7,55],[1,19],[14,18],[19,10],[16,13],[7,29],[4,55],[11,55],[17,19],[62,-153],[-1,-146],[42,-110],[22,-87],[-3,-42],[-10,-33],[-18,-16],[-24,-3],[-21,-7],[-9,-24]],[[1325,23967],[36,-29],[71,-17],[21,-35],[-35,3],[-33,-3],[-29,-11],[-22,-18],[-38,-72],[-29,-34],[-14,23],[-1,152],[20,69],[53,-28]],[[346,25100],[82,-88],[26,-18],[1,-107],[27,-110],[40,-99],[42,-73],[-46,-36],[-60,39],[-53,72],[-68,173],[-9,29],[3,104],[-5,50],[-17,41],[6,7],[4,2],[3,4],[6,10],[18,0]],[[582,25139],[9,-39],[0,-58],[-9,-55],[-18,-32],[-23,-5],[-23,7],[-18,14],[-8,14],[-6,18],[-16,12],[-17,9],[-15,11],[-66,122],[59,35],[99,-17],[52,-36]],[[39877,15984],[668,-25],[198,43],[182,116],[261,106],[92,38],[56,62],[40,86],[96,110],[319,288],[99,68],[444,305],[342,160],[66,9],[50,-22],[4,-39],[-38,-30],[-83,-42],[-22,-40],[-44,-119],[-7,-36],[-18,-41],[-82,-87],[-27,-47]],[[42600,16642],[49,-57],[48,36],[52,66],[59,35],[58,14],[1,35],[-22,47],[-16,50],[6,23],[17,12],[25,3],[30,-1],[1,0]],[[51867,23189],[-45,21],[-1,-31],[28,-72],[-32,-24],[-41,1],[-70,23],[-83,10],[-26,21],[-19,51],[-3,35],[11,27],[26,22],[40,20],[49,-12],[32,8],[27,15],[35,7],[37,-10],[21,-26],[32,-66],[-18,-20]],[[48029,26338],[-10,-58],[-2,-27],[5,-16],[25,-37],[-12,-22],[-26,-15],[-15,-18],[3,-47],[28,-108],[7,-61],[-3,-16],[-14,-26],[-3,-10],[-2,-58],[2,-3],[17,-21],[5,-13],[-12,-5],[-5,-5],[-19,-22],[-4,-6],[-12,-32],[-30,-39],[-41,-32],[-43,-9],[27,-52],[-21,-19],[-43,6],[-37,22],[15,48],[-14,47],[-54,93],[-53,152],[-2,15],[18,407],[29,-22],[6,-30],[2,-30],[17,-22],[38,0],[14,38],[9,44],[21,22],[119,23],[46,0],[24,-36]],[[47886,26370],[-27,28],[-13,31],[-17,27],[-35,18],[83,77],[48,21],[33,-37],[28,-92],[-1,-20],[-23,-15],[-26,-4],[-26,-8],[-24,-26]],[[48248,26699],[58,-4],[40,-30],[2,-34],[-55,-16],[-61,20],[-25,40],[7,31],[34,-7]],[[48665,27132],[79,-60],[0,-84],[-17,-90],[28,-77],[-22,-35],[-23,-30],[-28,-12],[-35,18],[-77,-45],[-29,68],[-8,108],[-15,73],[17,42],[9,89],[12,35],[22,-15],[23,1],[23,12],[23,20],[-2,-13],[4,-3],[7,1],[9,-3]],[[48446,27109],[28,21],[20,-3],[10,-22],[-2,-38],[-54,-54],[-76,-54],[-65,-9],[-23,78],[21,34],[141,131],[-5,-38],[-3,-10],[-10,-13],[18,-23]],[[50388,28757],[-178,-107],[-186,-165],[-175,-214],[-49,-39],[-59,-14],[-57,-7],[-35,-17],[-32,-20],[-49,-18],[-55,-4],[-152,23],[-62,-30],[-22,-68],[2,-125],[-21,-63],[-71,-107],[-16,-66],[-11,-33],[-26,-18],[-25,-3],[-12,12],[-13,28],[-32,2],[-246,-82],[-90,-45],[-69,-58],[-9,-18],[-20,-50],[-9,-14],[-91,-31],[-16,-50],[-39,-42],[-71,-59],[-64,-87],[-19,11],[-7,84],[6,35],[25,59],[13,62],[17,25],[19,19],[10,15],[3,29],[-4,63],[2,46],[-2,32],[1,16],[8,15],[23,18],[15,73],[24,58],[56,101],[-6,4],[-10,60],[43,-16],[18,46],[12,62],[25,30],[30,16],[39,37],[40,47],[28,44],[-36,0],[54,97],[43,46],[110,37],[48,42],[39,54],[125,222],[1268,0]],[[13359,6369],[66,-17],[36,-15],[11,-19],[-31,-57],[-45,-61],[-54,-49],[-59,-20],[-65,-9],[-52,-22],[-92,-72],[-16,-16],[-7,-10],[-14,-7],[-34,-6],[-64,2],[-32,9],[-14,18],[-22,41],[-55,29],[-66,17],[-57,7],[-115,-3],[-46,13],[-19,41],[11,47],[79,127],[11,57],[13,31],[30,35],[35,24],[26,5],[57,-9],[59,9],[74,39],[39,14],[71,-5],[67,-25],[199,-113],[75,-30]]],"transform":{"scale":[0.000378541602350604,0.0003338509282240176],"translate":[98.90384212168347,-0.7352566807338542]},"objects":{"ne_10m_admin_0_countries":{"type":"GeometryCollection","geometries":[{"arcs":[[[0,1]],[[2,3]],[[4]],[[5]],[[6]],[[7]],[[8]],[[9]],[[10]],[[11]],[[12]],[[13]],[[14]],[[15]],[[16]],[[17]],[[18]],[[19]],[[20]],[[21]],[[22]],[[23]],[[24]],[[25]],[[26]],[[27]],[[28]],[[29]],[[30]],[[31]],[[32]],[[33]],[[34]],[[35]],[[36]],[[37]],[[38]],[[39]],[[40]],[[41]],[[42]],[[43]],[[44]],[[45]],[[46]],[[47]],[[48]],[[49]],[[50]],[[51]],[[52]],[[53]],[[54]],[[55]],[[56]]],"type":"MultiPolygon","properties":{"featurecla":"Admin-0 country","scalerank":0,"LABELRANK":2,"SOVEREIGNT":"Indonesia","SOV_A3":"IDN","ADM0_DIF":0,"LEVEL":2,"TYPE":"Sovereign country","TLC":"1","ADMIN":"Indonesia","ADM0_A3":"IDN","GEOU_DIF":0,"GEOUNIT":"Indonesia","GU_A3":"IDN","SU_DIF":0,"SUBUNIT":"Indonesia","SU_A3":"IDN","BRK_DIFF":0,"NAME":"Indonesia","NAME_LONG":"Indonesia","BRK_A3":"IDN","BRK_NAME":"Indonesia","BRK_GROUP":"","ABBREV":"Indo.","POSTAL":"INDO","FORMAL_EN":"Republic of Indonesia","FORMAL_FR":"","NAME_CIAWF":"Indonesia","NOTE_ADM0":"","NOTE_BRK":"","NAME_SORT":"Indonesia","NAME_ALT":"","MAPCOLOR7":6,"MAPCOLOR8":6,"MAPCOLOR9":6,"MAPCOLOR13":11,"POP_EST":270625568,"POP_RANK":17,"POP_YEAR":2019,"GDP_MD":1119190,"GDP_YEAR":2019,"ECONOMY":"4. Emerging region: MIKT","INCOME_GRP":"4. Lower middle income","FIPS_10":"ID","ISO_A2":"ID","ISO_A2_EH":"ID","ISO_A3":"IDN","ISO_A3_EH":"IDN","ISO_N3":"360","ISO_N3_EH":"360","UN_A3":"360","WB_A2":"ID","WB_A3":"IDN","WOE_ID":23424846,"WOE_ID_EH":23424846,"WOE_NOTE":"Exact WOE match as country","ADM0_ISO":"IDN","ADM0_DIFF":"","ADM0_TLC":"IDN","ADM0_A3_US":"IDN","ADM0_A3_FR":"IDN","ADM0_A3_RU":"IDN","ADM0_A3_ES":"IDN","ADM0_A3_CN":"IDN","ADM0_A3_TW":"IDN","ADM0_A3_IN":"IDN","ADM0_A3_NP":"IDN","ADM0_A3_PK":"IDN","ADM0_A3_DE":"IDN","ADM0_A3_GB":"IDN","ADM0_A3_BR":"IDN","ADM0_A3_IL":"IDN","ADM0_A3_PS":"IDN","ADM0_A3_SA":"IDN","ADM0_A3_EG":"IDN","ADM0_A3_MA":"IDN","ADM0_A3_PT":"IDN","ADM0_A3_AR":"IDN","ADM0_A3_JP":"IDN","ADM0_A3_KO":"IDN","ADM0_A3_VN":"IDN","ADM0_A3_TR":"IDN","ADM0_A3_ID":"IDN","ADM0_A3_PL":"IDN","ADM0_A3_GR":"IDN","ADM0_A3_IT":"IDN","ADM0_A3_NL":"IDN","ADM0_A3_SE":"IDN","ADM0_A3_BD":"IDN","ADM0_A3_UA":"IDN","ADM0_A3_UN":-99,"ADM0_A3_WB":-99,"CONTINENT":"Asia","REGION_UN":"Asia","SUBREGION":"South-Eastern Asia","REGION_WB":"East Asia & Pacific","NAME_LEN":9,"LONG_LEN":9,"ABBREV_LEN":5,"TINY":-99,"HOMEPART":1,"MIN_ZOOM":0,"MIN_LABEL":1.7,"MAX_LABEL":6.7,"LABEL_X":101.892949,"LABEL_Y":-0.954404,"NE_ID":1159320845,"WIKIDATAID":"Q252","NAME_AR":"إندونيسيا","NAME_BN":"ইন্দোনেশিয়া","NAME_DE":"Indonesien","NAME_EN":"Indonesia","NAME_ES":"Indonesia","NAME_FA":"اندونزی","NAME_FR":"Indonésie","NAME_EL":"Ινδονησία","NAME_HE":"אינדונזיה","NAME_HI":"इंडोनेशिया","NAME_HU":"Indonézia","NAME_ID":"Indonesia","NAME_IT":"Indonesia","NAME_JA":"インドネシア","NAME_KO":"인도네시아","NAME_NL":"Indonesië","NAME_PL":"Indonezja","NAME_PT":"Indonésia","NAME_RU":"Индонезия","NAME_SV":"Indonesien","NAME_TR":"Endonezya","NAME_UK":"Індонезія","NAME_UR":"انڈونیشیا","NAME_VI":"Indonesia","NAME_ZH":"印度尼西亚","NAME_ZHT":"印度尼西亞","FCLASS_ISO":"Admin-0 country","TLC_DIFF":"","FCLASS_TLC":"Admin-0 country","FCLASS_US":"","FCLASS_FR":"","FCLASS_RU":"","FCLASS_ES":"","FCLASS_CN":"","FCLASS_TW":"","FCLASS_IN":"","FCLASS_NP":"","FCLASS_PK":"","FCLASS_DE":"","FCLASS_GB":"","FCLASS_BR":"","FCLASS_IL":"","FCLASS_PS":"","FCLASS_SA":"","FCLASS_EG":"","FCLASS_MA":"","FCLASS_PT":"","FCLASS_AR":"","FCLASS_JP":"","FCLASS_KO":"","FCLASS_VN":"","FCLASS_TR":"","FCLASS_ID":"","FCLASS_PL":"","FCLASS_GR":"","FCLASS_IT":"","FCLASS_NL":"","FCLASS_SE":"","FCLASS_BD":"","FCLASS_UA":""}},{"arcs":[[[57,-1]],[[58,-4,59,60,61,62]],[[63,64]],[[65]],[[66]],[[67]],[[68]],[[69]],[[70]],[[71]],[[72]],[[73]],[[74]],[[75]],[[76]],[[77]],[[78]]],"type":"MultiPolygon","properties":{"featurecla":"Admin-0 country","scalerank":0,"LABELRANK":3,"SOVEREIGNT":"Malaysia","SOV_A3":"MYS","ADM0_DIF":0,"LEVEL":2,"TYPE":"Sovereign country","TLC":"1","ADMIN":"Malaysia","ADM0_A3":"MYS","GEOU_DIF":0,"GEOUNIT":"Malaysia","GU_A3":"MYS","SU_DIF":0,"SUBUNIT":"Malaysia","SU_A3":"MYS","BRK_DIFF":0,"NAME":"Malaysia","NAME_LONG":"Malaysia","BRK_A3":"MYS","BRK_NAME":"Malaysia","BRK_GROUP":"","ABBREV":"Malay.","POSTAL":"MY","FORMAL_EN":"Malaysia","FORMAL_FR":"","NAME_CIAWF":"Malaysia","NOTE_ADM0":"","NOTE_BRK":"","NAME_SORT":"Malaysia","NAME_ALT":"","MAPCOLOR7":2,"MAPCOLOR8":4,"MAPCOLOR9":3,"MAPCOLOR13":6,"POP_EST":31949777,"POP_RANK":15,"POP_YEAR":2019,"GDP_MD":364681,"GDP_YEAR":2019,"ECONOMY":"6. Developing region","INCOME_GRP":"3. Upper middle income","FIPS_10":"MY","ISO_A2":"MY","ISO_A2_EH":"MY","ISO_A3":"MYS","ISO_A3_EH":"MYS","ISO_N3":"458","ISO_N3_EH":"458","UN_A3":"458","WB_A2":"MY","WB_A3":"MYS","WOE_ID":23424901,"WOE_ID_EH":23424901,"WOE_NOTE":"Exact WOE match as country","ADM0_ISO":"MYS","ADM0_DIFF":"","ADM0_TLC":"MYS","ADM0_A3_US":"MYS","ADM0_A3_FR":"MYS","ADM0_A3_RU":"MYS","ADM0_A3_ES":"MYS","ADM0_A3_CN":"MYS","ADM0_A3_TW":"MYS","ADM0_A3_IN":"MYS","ADM0_A3_NP":"MYS","ADM0_A3_PK":"MYS","ADM0_A3_DE":"MYS","ADM0_A3_GB":"MYS","ADM0_A3_BR":"MYS","ADM0_A3_IL":"MYS","ADM0_A3_PS":"MYS","ADM0_A3_SA":"MYS","ADM0_A3_EG":"MYS","ADM0_A3_MA":"MYS","ADM0_A3_PT":"MYS","ADM0_A3_AR":"MYS","ADM0_A3_JP":"MYS","ADM0_A3_KO":"MYS","ADM0_A3_VN":"MYS","ADM0_A3_TR":"MYS","ADM0_A3_ID":"MYS","ADM0_A3_PL":"MYS","ADM0_A3_GR":"MYS","ADM0_A3_IT":"MYS","ADM0_A3_NL":"MYS","ADM0_A3_SE":"MYS","ADM0_A3_BD":"MYS","ADM0_A3_UA":"MYS","ADM0_A3_UN":-99,"ADM0_A3_WB":-99,"CONTINENT":"Asia","REGION_UN":"Asia","SUBREGION":"South-Eastern Asia","REGION_WB":"East Asia & Pacific","NAME_LEN":8,"LONG_LEN":8,"ABBREV_LEN":6,"TINY":-99,"HOMEPART":1,"MIN_ZOOM":0,"MIN_LABEL":3,"MAX_LABEL":8,"LABEL_X":113.83708,"LABEL_Y":2.528667,"NE_ID":1159321083,"WIKIDATAID":"Q833","NAME_AR":"ماليزيا","NAME_BN":"মালয়েশিয়া","NAME_DE":"Malaysia","NAME_EN":"Malaysia","NAME_ES":"Malasia","NAME_FA":"مالزی","NAME_FR":"Malaisie","NAME_EL":"Μαλαισία","NAME_HE":"מלזיה","NAME_HI":"मलेशिया","NAME_HU":"Malajzia","NAME_ID":"Malaysia","NAME_IT":"Malaysia","NAME_JA":"マレーシア","NAME_KO":"말레이시아","NAME_NL":"Maleisië","NAME_PL":"Malezja","NAME_PT":"Malásia","NAME_RU":"Малайзия","NAME_SV":"Malaysia","NAME_TR":"Malezya","NAME_UK":"Малайзія","NAME_UR":"ملائیشیا","NAME_VI":"Malaysia","NAME_ZH":"马来西亚","NAME_ZHT":"馬來西亞","FCLASS_ISO":"Admin-0 country","TLC_DIFF":"","FCLASS_TLC":"Admin-0 country","FCLASS_US":"","FCLASS_FR":"","FCLASS_RU":"","FCLASS_ES":"","FCLASS_CN":"","FCLASS_TW":"","FCLASS_IN":"","FCLASS_NP":"","FCLASS_PK":"","FCLASS_DE":"","FCLASS_GB":"","FCLASS_BR":"","FCLASS_IL":"","FCLASS_PS":"","FCLASS_SA":"","FCLASS_EG":"","FCLASS_MA":"","FCLASS_PT":"","FCLASS_AR":"","FCLASS_JP":"","FCLASS_KO":"","FCLASS_VN":"","FCLASS_TR":"","FCLASS_ID":"","FCLASS_PL":"","FCLASS_GR":"","FCLASS_IT":"","FCLASS_NL":"","FCLASS_SE":"","FCLASS_BD":"","FCLASS_UA":""}},{"arcs":[[[79]],[[80]]],"type":"MultiPolygon","properties":{"featurecla":"Admin-0 country","scalerank":0,"LABELRANK":2,"SOVEREIGNT":"Vietnam","SOV_A3":"VNM","ADM0_DIF":0,"LEVEL":2,"TYPE":"Sovereign country","TLC":"1","ADMIN":"Vietnam","ADM0_A3":"VNM","GEOU_DIF":0,"GEOUNIT":"Vietnam","GU_A3":"VNM","SU_DIF":0,"SUBUNIT":"Vietnam","SU_A3":"VNM","BRK_DIFF":0,"NAME":"Vietnam","NAME_LONG":"Vietnam","BRK_A3":"VNM","BRK_NAME":"Vietnam","BRK_GROUP":"","ABBREV":"Viet.","POSTAL":"VN","FORMAL_EN":"Socialist Republic of Vietnam","FORMAL_FR":"","NAME_CIAWF":"Vietnam","NOTE_ADM0":"","NOTE_BRK":"","NAME_SORT":"Vietnam","NAME_ALT":"","MAPCOLOR7":5,"MAPCOLOR8":6,"MAPCOLOR9":5,"MAPCOLOR13":4,"POP_EST":96462106,"POP_RANK":16,"POP_YEAR":2019,"GDP_MD":261921,"GDP_YEAR":2019,"ECONOMY":"5. Emerging region: G20","INCOME_GRP":"4. Lower middle income","FIPS_10":"VM","ISO_A2":"VN","ISO_A2_EH":"VN","ISO_A3":"VNM","ISO_A3_EH":"VNM","ISO_N3":"704","ISO_N3_EH":"704","UN_A3":"704","WB_A2":"VN","WB_A3":"VNM","WOE_ID":23424984,"WOE_ID_EH":23424984,"WOE_NOTE":"Exact WOE match as country","ADM0_ISO":"VNM","ADM0_DIFF":"","ADM0_TLC":"VNM","ADM0_A3_US":"VNM","ADM0_A3_FR":"VNM","ADM0_A3_RU":"VNM","ADM0_A3_ES":"VNM","ADM0_A3_CN":"VNM","ADM0_A3_TW":"VNM","ADM0_A3_IN":"VNM","ADM0_A3_NP":"VNM","ADM0_A3_PK":"VNM","ADM0_A3_DE":"VNM","ADM0_A3_GB":"VNM","ADM0_A3_BR":"VNM","ADM0_A3_IL":"VNM","ADM0_A3_PS":"VNM","ADM0_A3_SA":"VNM","ADM0_A3_EG":"VNM","ADM0_A3_MA":"VNM","ADM0_A3_PT":"VNM","ADM0_A3_AR":"VNM","ADM0_A3_JP":"VNM","ADM0_A3_KO":"VNM","ADM0_A3_VN":"VNM","ADM0_A3_TR":"VNM","ADM0_A3_ID":"VNM","ADM0_A3_PL":"VNM","ADM0_A3_GR":"VNM","ADM0_A3_IT":"VNM","ADM0_A3_NL":"VNM","ADM0_A3_SE":"VNM","ADM0_A3_BD":"VNM","ADM0_A3_UA":"VNM","ADM0_A3_UN":-99,"ADM0_A3_WB":-99,"CONTINENT":"Asia","REGION_UN":"Asia","SUBREGION":"South-Eastern Asia","REGION_WB":"East Asia & Pacific","NAME_LEN":7,"LONG_LEN":7,"ABBREV_LEN":5,"TINY":2,"HOMEPART":1,"MIN_ZOOM":0,"MIN_LABEL":2,"MAX_LABEL":7,"LABEL_X":105.387292,"LABEL_Y":21.715416,"NE_ID":1159321417,"WIKIDATAID":"Q881","NAME_AR":"فيتنام","NAME_BN":"ভিয়েতনাম","NAME_DE":"Vietnam","NAME_EN":"Vietnam","NAME_ES":"Vietnam","NAME_FA":"ویتنام","NAME_FR":"Viêt Nam","NAME_EL":"Βιετνάμ","NAME_HE":"וייטנאם","NAME_HI":"वियतनाम","NAME_HU":"Vietnám","NAME_ID":"Vietnam","NAME_IT":"Vietnam","NAME_JA":"ベトナム","NAME_KO":"베트남","NAME_NL":"Vietnam","NAME_PL":"Wietnam","NAME_PT":"Vietname","NAME_RU":"Вьетнам","NAME_SV":"Vietnam","NAME_TR":"Vietnam","NAME_UK":"В'єтнам","NAME_UR":"ویتنام","NAME_VI":"Việt Nam","NAME_ZH":"越南","NAME_ZHT":"越南","FCLASS_ISO":"Admin-0 country","TLC_DIFF":"","FCLASS_TLC":"Admin-0 country","FCLASS_US":"","FCLASS_FR":"","FCLASS_RU":"","FCLASS_ES":"","FCLASS_CN":"","FCLASS_TW":"","FCLASS_IN":"","FCLASS_NP":"","FCLASS_PK":"","FCLASS_DE":"","FCLASS_GB":"","FCLASS_BR":"","FCLASS_IL":"","FCLASS_PS":"","FCLASS_SA":"","FCLASS_EG":"","FCLASS_MA":"","FCLASS_PT":"","FCLASS_AR":"","FCLASS_JP":"","FCLASS_KO":"","FCLASS_VN":"","FCLASS_TR":"","FCLASS_ID":"","FCLASS_PL":"","FCLASS_GR":"","FCLASS_IT":"","FCLASS_NL":"","FCLASS_SE":"","FCLASS_BD":"","FCLASS_UA":""}},{"arcs":[[[81,-65,82]],[[83]],[[84]],[[85]],[[86]],[[87]]],"type":"MultiPolygon","properties":{"featurecla":"Admin-0 country","scalerank":0,"LABELRANK":3,"SOVEREIGNT":"Thailand","SOV_A3":"THA","ADM0_DIF":0,"LEVEL":2,"TYPE":"Sovereign country","TLC":"1","ADMIN":"Thailand","ADM0_A3":"THA","GEOU_DIF":0,"GEOUNIT":"Thailand","GU_A3":"THA","SU_DIF":0,"SUBUNIT":"Thailand","SU_A3":"THA","BRK_DIFF":0,"NAME":"Thailand","NAME_LONG":"Thailand","BRK_A3":"THA","BRK_NAME":"Thailand","BRK_GROUP":"","ABBREV":"Thai.","POSTAL":"TH","FORMAL_EN":"Kingdom of Thailand","FORMAL_FR":"","NAME_CIAWF":"Thailand","NOTE_ADM0":"","NOTE_BRK":"","NAME_SORT":"Thailand","NAME_ALT":"","MAPCOLOR7":3,"MAPCOLOR8":6,"MAPCOLOR9":8,"MAPCOLOR13":1,"POP_EST":69625582,"POP_RANK":16,"POP_YEAR":2019,"GDP_MD":543548,"GDP_YEAR":2019,"ECONOMY":"5. Emerging region: G20","INCOME_GRP":"3. Upper middle income","FIPS_10":"TH","ISO_A2":"TH","ISO_A2_EH":"TH","ISO_A3":"THA","ISO_A3_EH":"THA","ISO_N3":"764","ISO_N3_EH":"764","UN_A3":"764","WB_A2":"TH","WB_A3":"THA","WOE_ID":23424960,"WOE_ID_EH":23424960,"WOE_NOTE":"Exact WOE match as country","ADM0_ISO":"THA","ADM0_DIFF":"","ADM0_TLC":"THA","ADM0_A3_US":"THA","ADM0_A3_FR":"THA","ADM0_A3_RU":"THA","ADM0_A3_ES":"THA","ADM0_A3_CN":"THA","ADM0_A3_TW":"THA","ADM0_A3_IN":"THA","ADM0_A3_NP":"THA","ADM0_A3_PK":"THA","ADM0_A3_DE":"THA","ADM0_A3_GB":"THA","ADM0_A3_BR":"THA","ADM0_A3_IL":"THA","ADM0_A3_PS":"THA","ADM0_A3_SA":"THA","ADM0_A3_EG":"THA","ADM0_A3_MA":"THA","ADM0_A3_PT":"THA","ADM0_A3_AR":"THA","ADM0_A3_JP":"THA","ADM0_A3_KO":"THA","ADM0_A3_VN":"THA","ADM0_A3_TR":"THA","ADM0_A3_ID":"THA","ADM0_A3_PL":"THA","ADM0_A3_GR":"THA","ADM0_A3_IT":"THA","ADM0_A3_NL":"THA","ADM0_A3_SE":"THA","ADM0_A3_BD":"THA","ADM0_A3_UA":"THA","ADM0_A3_UN":-99,"ADM0_A3_WB":-99,"CONTINENT":"Asia","REGION_UN":"Asia","SUBREGION":"South-Eastern Asia","REGION_WB":"East Asia & Pacific","NAME_LEN":8,"LONG_LEN":8,"ABBREV_LEN":5,"TINY":-99,"HOMEPART":1,"MIN_ZOOM":0,"MIN_LABEL":2.7,"MAX_LABEL":8,"LABEL_X":101.073198,"LABEL_Y":15.45974,"NE_ID":1159321305,"WIKIDATAID":"Q869","NAME_AR":"تايلاند","NAME_BN":"থাইল্যান্ড","NAME_DE":"Thailand","NAME_EN":"Thailand","NAME_ES":"Tailandia","NAME_FA":"تایلند","NAME_FR":"Thaïlande","NAME_EL":"Ταϊλάνδη","NAME_HE":"תאילנד","NAME_HI":"थाईलैण्ड","NAME_HU":"Thaiföld","NAME_ID":"Thailand","NAME_IT":"Thailandia","NAME_JA":"タイ王国","NAME_KO":"태국","NAME_NL":"Thailand","NAME_PL":"Tajlandia","NAME_PT":"Tailândia","NAME_RU":"Таиланд","NAME_SV":"Thailand","NAME_TR":"Tayland","NAME_UK":"Таїланд","NAME_UR":"تھائی لینڈ","NAME_VI":"Thái Lan","NAME_ZH":"泰国","NAME_ZHT":"泰國","FCLASS_ISO":"Admin-0 country","TLC_DIFF":"","FCLASS_TLC":"Admin-0 country","FCLASS_US":"","FCLASS_FR":"","FCLASS_RU":"","FCLASS_ES":"","FCLASS_CN":"","FCLASS_TW":"","FCLASS_IN":"","FCLASS_NP":"","FCLASS_PK":"","FCLASS_DE":"","FCLASS_GB":"","FCLASS_BR":"","FCLASS_IL":"","FCLASS_PS":"","FCLASS_SA":"","FCLASS_EG":"","FCLASS_MA":"","FCLASS_PT":"","FCLASS_AR":"","FCLASS_JP":"","FCLASS_KO":"","FCLASS_VN":"","FCLASS_TR":"","FCLASS_ID":"","FCLASS_PL":"","FCLASS_GR":"","FCLASS_IT":"","FCLASS_NL":"","FCLASS_SE":"","FCLASS_BD":"","FCLASS_UA":""}},{"arcs":[[[-61,88]],[[-63,89]]],"type":"MultiPolygon","properties":{"featurecla":"Admin-0 country","scalerank":0,"LABELRANK":6,"SOVEREIGNT":"Brunei","SOV_A3":"BRN","ADM0_DIF":0,"LEVEL":2,"TYPE":"Sovereign country","TLC":"1","ADMIN":"Brunei","ADM0_A3":"BRN","GEOU_DIF":0,"GEOUNIT":"Brunei","GU_A3":"BRN","SU_DIF":0,"SUBUNIT":"Brunei","SU_A3":"BRN","BRK_DIFF":0,"NAME":"Brunei","NAME_LONG":"Brunei Darussalam","BRK_A3":"BRN","BRK_NAME":"Brunei","BRK_GROUP":"","ABBREV":"Brunei","POSTAL":"BN","FORMAL_EN":"Negara Brunei Darussalam","FORMAL_FR":"","NAME_CIAWF":"Brunei","NOTE_ADM0":"","NOTE_BRK":"","NAME_SORT":"Brunei","NAME_ALT":"","MAPCOLOR7":4,"MAPCOLOR8":6,"MAPCOLOR9":6,"MAPCOLOR13":12,"POP_EST":433285,"POP_RANK":10,"POP_YEAR":2019,"GDP_MD":13469,"GDP_YEAR":2019,"ECONOMY":"6. Developing region","INCOME_GRP":"2. High income: nonOECD","FIPS_10":"BX","ISO_A2":"BN","ISO_A2_EH":"BN","ISO_A3":"BRN","ISO_A3_EH":"BRN","ISO_N3":"096","ISO_N3_EH":"096","UN_A3":"096","WB_A2":"BN","WB_A3":"BRN","WOE_ID":23424773,"WOE_ID_EH":23424773,"WOE_NOTE":"Exact WOE match as country","ADM0_ISO":"BRN","ADM0_DIFF":"","ADM0_TLC":"BRN","ADM0_A3_US":"BRN","ADM0_A3_FR":"BRN","ADM0_A3_RU":"BRN","ADM0_A3_ES":"BRN","ADM0_A3_CN":"BRN","ADM0_A3_TW":"BRN","ADM0_A3_IN":"BRN","ADM0_A3_NP":"BRN","ADM0_A3_PK":"BRN","ADM0_A3_DE":"BRN","ADM0_A3_GB":"BRN","ADM0_A3_BR":"BRN","ADM0_A3_IL":"BRN","ADM0_A3_PS":"BRN","ADM0_A3_SA":"BRN","ADM0_A3_EG":"BRN","ADM0_A3_MA":"BRN","ADM0_A3_PT":"BRN","ADM0_A3_AR":"BRN","ADM0_A3_JP":"BRN","ADM0_A3_KO":"BRN","ADM0_A3_VN":"BRN","ADM0_A3_TR":"BRN","ADM0_A3_ID":"BRN","ADM0_A3_PL":"BRN","ADM0_A3_GR":"BRN","ADM0_A3_IT":"BRN","ADM0_A3_NL":"BRN","ADM0_A3_SE":"BRN","ADM0_A3_BD":"BRN","ADM0_A3_UA":"BRN","ADM0_A3_UN":-99,"ADM0_A3_WB":-99,"CONTINENT":"Asia","REGION_UN":"Asia","SUBREGION":"South-Eastern Asia","REGION_WB":"East Asia & Pacific","NAME_LEN":6,"LONG_LEN":17,"ABBREV_LEN":6,"TINY":2,"HOMEPART":1,"MIN_ZOOM":0,"MIN_LABEL":4,"MAX_LABEL":9,"LABEL_X":114.551943,"LABEL_Y":4.448298,"NE_ID":1159320451,"WIKIDATAID":"Q921","NAME_AR":"بروناي","NAME_BN":"ব্রুনাই","NAME_DE":"Brunei","NAME_EN":"Brunei","NAME_ES":"Brunéi","NAME_FA":"برونئی","NAME_FR":"Brunei","NAME_EL":"Μπρουνέι","NAME_HE":"ברוניי","NAME_HI":"ब्रुनेई","NAME_HU":"Brunei","NAME_ID":"Brunei Darussalam","NAME_IT":"Brunei","NAME_JA":"ブルネイ","NAME_KO":"브루나이","NAME_NL":"Brunei","NAME_PL":"Brunei","NAME_PT":"Brunei","NAME_RU":"Бруней","NAME_SV":"Brunei","NAME_TR":"Brunei","NAME_UK":"Бруней","NAME_UR":"برونائی دار السلام","NAME_VI":"Brunei","NAME_ZH":"文莱","NAME_ZHT":"汶萊","FCLASS_ISO":"Admin-0 country","TLC_DIFF":"","FCLASS_TLC":"Admin-0 country","FCLASS_US":"","FCLASS_FR":"","FCLASS_RU":"","FCLASS_ES":"","FCLASS_CN":"","FCLASS_TW":"","FCLASS_IN":"","FCLASS_NP":"","FCLASS_PK":"","FCLASS_DE":"","FCLASS_GB":"","FCLASS_BR":"","FCLASS_IL":"","FCLASS_PS":"","FCLASS_SA":"","FCLASS_EG":"","FCLASS_MA":"","FCLASS_PT":"","FCLASS_AR":"","FCLASS_JP":"","FCLASS_KO":"","FCLASS_VN":"","FCLASS_TR":"","FCLASS_ID":"","FCLASS_PL":"","FCLASS_GR":"","FCLASS_IT":"","FCLASS_NL":"","FCLASS_SE":"","FCLASS_BD":"","FCLASS_UA":""}},{"arcs":[[[90]],[[91]],[[92]],[[93]],[[94]],[[95]],[[96]]],"type":"MultiPolygon","properties":{"featurecla":"Admin-0 country","scalerank":0,"LABELRANK":2,"SOVEREIGNT":"Philippines","SOV_A3":"PHL","ADM0_DIF":0,"LEVEL":2,"TYPE":"Sovereign country","TLC":"1","ADMIN":"Philippines","ADM0_A3":"PHL","GEOU_DIF":0,"GEOUNIT":"Philippines","GU_A3":"PHL","SU_DIF":0,"SUBUNIT":"Philippines","SU_A3":"PHL","BRK_DIFF":0,"NAME":"Philippines","NAME_LONG":"Philippines","BRK_A3":"PHL","BRK_NAME":"Philippines","BRK_GROUP":"","ABBREV":"Phil.","POSTAL":"PH","FORMAL_EN":"Republic of the Philippines","FORMAL_FR":"","NAME_CIAWF":"Philippines","NOTE_ADM0":"","NOTE_BRK":"","NAME_SORT":"Philippines","NAME_ALT":"","MAPCOLOR7":3,"MAPCOLOR8":2,"MAPCOLOR9":2,"MAPCOLOR13":8,"POP_EST":108116615,"POP_RANK":17,"POP_YEAR":2019,"GDP_MD":376795,"GDP_YEAR":2019,"ECONOMY":"5. Emerging region: G20","INCOME_GRP":"4. Lower middle income","FIPS_10":"RP","ISO_A2":"PH","ISO_A2_EH":"PH","ISO_A3":"PHL","ISO_A3_EH":"PHL","ISO_N3":"608","ISO_N3_EH":"608","UN_A3":"608","WB_A2":"PH","WB_A3":"PHL","WOE_ID":23424934,"WOE_ID_EH":23424934,"WOE_NOTE":"Exact WOE match as country","ADM0_ISO":"PHL","ADM0_DIFF":"","ADM0_TLC":"PHL","ADM0_A3_US":"PHL","ADM0_A3_FR":"PHL","ADM0_A3_RU":"PHL","ADM0_A3_ES":"PHL","ADM0_A3_CN":"PHL","ADM0_A3_TW":"PHL","ADM0_A3_IN":"PHL","ADM0_A3_NP":"PHL","ADM0_A3_PK":"PHL","ADM0_A3_DE":"PHL","ADM0_A3_GB":"PHL","ADM0_A3_BR":"PHL","ADM0_A3_IL":"PHL","ADM0_A3_PS":"PHL","ADM0_A3_SA":"PHL","ADM0_A3_EG":"PHL","ADM0_A3_MA":"PHL","ADM0_A3_PT":"PHL","ADM0_A3_AR":"PHL","ADM0_A3_JP":"PHL","ADM0_A3_KO":"PHL","ADM0_A3_VN":"PHL","ADM0_A3_TR":"PHL","ADM0_A3_ID":"PHL","ADM0_A3_PL":"PHL","ADM0_A3_GR":"PHL","ADM0_A3_IT":"PHL","ADM0_A3_NL":"PHL","ADM0_A3_SE":"PHL","ADM0_A3_BD":"PHL","ADM0_A3_UA":"PHL","ADM0_A3_UN":-99,"ADM0_A3_WB":-99,"CONTINENT":"Asia","REGION_UN":"Asia","SUBREGION":"South-Eastern Asia","REGION_WB":"East Asia & Pacific","NAME_LEN":11,"LONG_LEN":11,"ABBREV_LEN":5,"TINY":-99,"HOMEPART":1,"MIN_ZOOM":0,"MIN_LABEL":2.5,"MAX_LABEL":7,"LABEL_X":122.465,"LABEL_Y":11.198,"NE_ID":1159321169,"WIKIDATAID":"Q928","NAME_AR":"الفلبين","NAME_BN":"ফিলিপাইন","NAME_DE":"Philippinen","NAME_EN":"Philippines","NAME_ES":"Filipinas","NAME_FA":"فیلیپین","NAME_FR":"Philippines","NAME_EL":"Φιλιππίνες","NAME_HE":"הפיליפינים","NAME_HI":"फ़िलीपीन्स","NAME_HU":"Fülöp-szigetek","NAME_ID":"Filipina","NAME_IT":"Filippine","NAME_JA":"フィリピン","NAME_KO":"필리핀","NAME_NL":"Filipijnen","NAME_PL":"Filipiny","NAME_PT":"Filipinas","NAME_RU":"Филиппины","NAME_SV":"Filippinerna","NAME_TR":"Filipinler","NAME_UK":"Філіппіни","NAME_UR":"فلپائن","NAME_VI":"Philippines","NAME_ZH":"菲律宾","NAME_ZHT":"菲律賓","FCLASS_ISO":"Admin-0 country","TLC_DIFF":"","FCLASS_TLC":"Admin-0 country","FCLASS_US":"","FCLASS_FR":"","FCLASS_RU":"","FCLASS_ES":"","FCLASS_CN":"","FCLASS_TW":"","FCLASS_IN":"","FCLASS_NP":"","FCLASS_PK":"","FCLASS_DE":"","FCLASS_GB":"","FCLASS_BR":"","FCLASS_IL":"","FCLASS_PS":"","FCLASS_SA":"","FCLASS_EG":"","FCLASS_MA":"","FCLASS_PT":"","FCLASS_AR":"","FCLASS_JP":"","FCLASS_KO":"","FCLASS_VN":"","FCLASS_TR":"","FCLASS_ID":"","FCLASS_PL":"","FCLASS_GR":"","FCLASS_IT":"","FCLASS_NL":"","FCLASS_SE":"","FCLASS_BD":"","FCLASS_UA":""}},{"arcs":[[97]],"type":"Polygon","properties":{"featurecla":"Admin-0 country","scalerank":3,"LABELRANK":6,"SOVEREIGNT":"Singapore","SOV_A3":"SGP","ADM0_DIF":0,"LEVEL":2,"TYPE":"Sovereign country","TLC":"1","ADMIN":"Singapore","ADM0_A3":"SGP","GEOU_DIF":0,"GEOUNIT":"Singapore","GU_A3":"SGP","SU_DIF":0,"SUBUNIT":"Singapore","SU_A3":"SGP","BRK_DIFF":0,"NAME":"Singapore","NAME_LONG":"Singapore","BRK_A3":"SGP","BRK_NAME":"Singapore","BRK_GROUP":"","ABBREV":"Sing.","POSTAL":"SG","FORMAL_EN":"Republic of Singapore","FORMAL_FR":"","NAME_CIAWF":"Singapore","NOTE_ADM0":"","NOTE_BRK":"","NAME_SORT":"Singapore","NAME_ALT":"","MAPCOLOR7":5,"MAPCOLOR8":3,"MAPCOLOR9":7,"MAPCOLOR13":3,"POP_EST":5703569,"POP_RANK":13,"POP_YEAR":2019,"GDP_MD":372062,"GDP_YEAR":2019,"ECONOMY":"6. Developing region","INCOME_GRP":"2. High income: nonOECD","FIPS_10":"SN","ISO_A2":"SG","ISO_A2_EH":"SG","ISO_A3":"SGP","ISO_A3_EH":"SGP","ISO_N3":"702","ISO_N3_EH":"702","UN_A3":"702","WB_A2":"SG","WB_A3":"SGP","WOE_ID":23424948,"WOE_ID_EH":23424948,"WOE_NOTE":"Exact WOE match as country","ADM0_ISO":"SGP","ADM0_DIFF":"","ADM0_TLC":"SGP","ADM0_A3_US":"SGP","ADM0_A3_FR":"SGP","ADM0_A3_RU":"SGP","ADM0_A3_ES":"SGP","ADM0_A3_CN":"SGP","ADM0_A3_TW":"SGP","ADM0_A3_IN":"SGP","ADM0_A3_NP":"SGP","ADM0_A3_PK":"SGP","ADM0_A3_DE":"SGP","ADM0_A3_GB":"SGP","ADM0_A3_BR":"SGP","ADM0_A3_IL":"SGP","ADM0_A3_PS":"SGP","ADM0_A3_SA":"SGP","ADM0_A3_EG":"SGP","ADM0_A3_MA":"SGP","ADM0_A3_PT":"SGP","ADM0_A3_AR":"SGP","ADM0_A3_JP":"SGP","ADM0_A3_KO":"SGP","ADM0_A3_VN":"SGP","ADM0_A3_TR":"SGP","ADM0_A3_ID":"SGP","ADM0_A3_PL":"SGP","ADM0_A3_GR":"SGP","ADM0_A3_IT":"SGP","ADM0_A3_NL":"SGP","ADM0_A3_SE":"SGP","ADM0_A3_BD":"SGP","ADM0_A3_UA":"SGP","ADM0_A3_UN":-99,"ADM0_A3_WB":-99,"CONTINENT":"Asia","REGION_UN":"Asia","SUBREGION":"South-Eastern Asia","REGION_WB":"East Asia & Pacific","NAME_LEN":9,"LONG_LEN":9,"ABBREV_LEN":5,"TINY":3,"HOMEPART":1,"MIN_ZOOM":0,"MIN_LABEL":4,"MAX_LABEL":9,"LABEL_X":103.816925,"LABEL_Y":1.366587,"NE_ID":1159321247,"WIKIDATAID":"Q334","NAME_AR":"سنغافورة","NAME_BN":"সিঙ্গাপুর","NAME_DE":"Singapur","NAME_EN":"Singapore","NAME_ES":"Singapur","NAME_FA":"سنگاپور","NAME_FR":"Singapour","NAME_EL":"Σιγκαπούρη","NAME_HE":"סינגפור","NAME_HI":"सिंगापुर","NAME_HU":"Szingapúr","NAME_ID":"Singapura","NAME_IT":"Singapore","NAME_JA":"シンガポール","NAME_KO":"싱가포르","NAME_NL":"Singapore","NAME_PL":"Singapur","NAME_PT":"Singapura","NAME_RU":"Сингапур","NAME_SV":"Singapore","NAME_TR":"Singapur","NAME_UK":"Сінгапур","NAME_UR":"سنگاپور","NAME_VI":"Singapore","NAME_ZH":"新加坡","NAME_ZHT":"新加坡","FCLASS_ISO":"Admin-0 country","TLC_DIFF":"","FCLASS_TLC":"Admin-0 country","FCLASS_US":"","FCLASS_FR":"","FCLASS_RU":"","FCLASS_ES":"","FCLASS_CN":"","FCLASS_TW":"","FCLASS_IN":"","FCLASS_NP":"","FCLASS_PK":"","FCLASS_DE":"","FCLASS_GB":"","FCLASS_BR":"","FCLASS_IL":"","FCLASS_PS":"","FCLASS_SA":"","FCLASS_EG":"","FCLASS_MA":"","FCLASS_PT":"","FCLASS_AR":"","FCLASS_JP":"","FCLASS_KO":"","FCLASS_VN":"","FCLASS_TR":"","FCLASS_ID":"","FCLASS_PL":"","FCLASS_GR":"","FCLASS_IT":"","FCLASS_NL":"","FCLASS_SE":"","FCLASS_BD":"","FCLASS_UA":""}}]}}}